{
  "type": "FeatureCollection",
  "crs": {
    "type": "name",
    "properties": {
      "name": "urn:ogc:def:crs:OGC:1.3:CRS84"
    }
  },
  "features": [
    {
      "type": "Feature",
      "geometry": {
        "type": "Polygon",
        "coordinates": [
          [
            [
              -74.7573,
              10.9454
            ],
            [
              -74.756,
              10.9705
            ],
            [
              -74.7609,
              10.9899
            ],
            [
              -74.7746,
              11.0088
            ],
            [
              -74.8032,
              11.0328
            ],
            [
              -74.8358,
              11.0545
            ],
            [
              -74.845,
              11.0705
            ],
            [
              -74.8519,
              11.1054
            ],
            [
              -74.8542,
              11.104
            ],
            [
              -74.8461,
              11.0667
            ],
            [
              -74.8468,
              11.0584
            ],
            [
              -74.8737,
              11.0483
            ],
            [
              -74.8734,
              11.0317
            ],
            [
              -74.8493,
              11.03
            ],
            [
              -74.8308,
              11.0335
            ],
            [
              -74.8392,
              11.0139
            ],
            [
              -74.8663,
              11.0156
            ],
            [
              -74.8833,
              11.002
            ],
            [
              -74.8741,
              10.9874
            ],
            [
              -74.8821,
              10.9793
            ],
            [
              -74.892,
              10.983
            ],
            [
              -74.9044,
              10.9736
            ],
            [
              -74.899,
              10.9626
            ],
            [
              -74.9177,
              10.9546
            ],
            [
              -74.9184,
              10.9453
            ],
            [
              -74.9078,
              10.9505
            ],
            [
              -74.8779,
              10.9445
            ],
            [
              -74.8582,
              10.9366
            ],
            [
              -74.8502,
              10.9388
            ],
            [
              -74.8403,
              10.9218
            ],
            [
              -74.8267,
              10.9139
            ],
            [
              -74.8146,
              10.9226
            ],
            [
              -74.7993,
              10.9213
            ],
            [
              -74.7945,
              10.9306
            ],
            [
              -74.7735,
              10.9442
            ],
            [
              -74.7573,
              10.9454
            ]
          ]
        ]
      },
      "properties": {
        "OBJECTID": 126,
        "DPTO_CCDGO": "03",
        "MPIO_CCDGO": "001",
        "name": "03001",
        "MPIO_CRSLC": "Ordenanza 30 del 5 de Mayo de 1913 Ley 44 del 6/11/1876",
        "MPIO_NANO_": 1993,
        "MPIO_NAREA": 161.45729447,
        "MPIO_CSMBL": "4",
        "MPIO_CCNCT": "08001",
        "MPIO_NANO": 2012,
        "SHAPE_Leng": 0.787687801525,
        "SHAPE_Area": 0.0133530517833,
        "NOMBRE": "BARRANQUILLA",
        "DANE": {
          "dpto_ccdgo": "08",
          "mpio_ccdgo": "001",
          "mpio_cdpmp": "08001",
          "dpto_cnmbr": "ATLÁNTICO",
          "mpio_cnmbr": "BARRANQUILLA",
          "mpio_crslc": "Ordenanza 30 del 5 de Mayo de 1913 Ley 44 del 6/11/1876",
          "mpio_tipo": "MUNICIPIO",
          "mpio_narea": 154.285924762,
          "mpio_nano": 2024,
          "shape_Leng": 0.817698194134,
          "shape_Area": 0.0127598005741
        }
      }
    },
    {
      "type": "Feature",
      "geometry": {
        "type": "Polygon",
        "coordinates": [
          [
            [
              -74.9448,
              10.8584
            ],
            [
              -74.9506,
              10.8474
            ],
            [
              -74.9663,
              10.8345
            ],
            [
              -74.9713,
              10.8173
            ],
            [
              -74.9944,
              10.8154
            ],
            [
              -74.9849,
              10.7903
            ],
            [
              -74.9704,
              10.789
            ],
            [
              -74.9445,
              10.7776
            ],
            [
              -74.9309,
              10.7667
            ],
            [
              -74.926,
              10.7553
            ],
            [
              -74.9357,
              10.7436
            ],
            [
              -74.935,
              10.7271
            ],
            [
              -74.9421,
              10.7141
            ],
            [
              -74.9325,
              10.7114
            ],
            [
              -74.9107,
              10.7048
            ],
            [
              -74.9051,
              10.715
            ],
            [
              -74.8858,
              10.7193
            ],
            [
              -74.8756,
              10.7258
            ],
            [
              -74.886,
              10.728
            ],
            [
              -74.8959,
              10.7455
            ],
            [
              -74.8929,
              10.7663
            ],
            [
              -74.8832,
              10.7644
            ],
            [
              -74.8867,
              10.7837
            ],
            [
              -74.8794,
              10.813
            ],
            [
              -74.8691,
              10.8345
            ],
            [
              -74.8718,
              10.8531
            ],
            [
              -74.889,
              10.8502
            ],
            [
              -74.8995,
              10.8436
            ],
            [
              -74.9107,
              10.845
            ],
            [
              -74.9246,
              10.8564
            ],
            [
              -74.9448,
              10.8584
            ]
          ]
        ]
      },
      "properties": {
        "OBJECTID": 127,
        "DPTO_CCDGO": "03",
        "MPIO_CCDGO": "078",
        "name": "03004",
        "MPIO_CRSLC": "Ordenanza 11 del 23 de Octubre de 1856",
        "MPIO_NANO_": 1993,
        "MPIO_NAREA": 120.36103623,
        "MPIO_CSMBL": "4",
        "MPIO_CCNCT": "08078",
        "MPIO_NANO": 2012,
        "SHAPE_Leng": 0.72047566147,
        "SHAPE_Area": 0.00994756328865,
        "NOMBRE": "BARANOA",
        "DANE": {
          "dpto_ccdgo": "08",
          "mpio_ccdgo": "078",
          "mpio_cdpmp": "08078",
          "dpto_cnmbr": "ATLÁNTICO",
          "mpio_cnmbr": "BARANOA",
          "mpio_crslc": "Ordenanza 11 del 23 de Octubre de 1856",
          "mpio_tipo": "MUNICIPIO",
          "mpio_narea": 121.350424556,
          "mpio_nano": 2024,
          "shape_Leng": 0.729311892187,
          "shape_Area": 0.0100293358494
        }
      }
    },
    {
      "type": "Feature",
      "geometry": {
        "type": "Polygon",
        "coordinates": [
          [
            [
              -74.8065,
              10.4829
            ],
            [
              -74.8204,
              10.4941
            ],
            [
              -74.8386,
              10.4627
            ],
            [
              -74.8461,
              10.4567
            ],
            [
              -74.8533,
              10.4271
            ],
            [
              -74.8674,
              10.4255
            ],
            [
              -74.8823,
              10.418
            ],
            [
              -74.9027,
              10.417
            ],
            [
              -74.9168,
              10.4122
            ],
            [
              -74.9247,
              10.4045
            ],
            [
              -74.9407,
              10.4112
            ],
            [
              -74.9542,
              10.3853
            ],
            [
              -74.9626,
              10.3831
            ],
            [
              -74.9402,
              10.377
            ],
            [
              -74.9348,
              10.3618
            ],
            [
              -74.9173,
              10.3386
            ],
            [
              -74.9046,
              10.3497
            ],
            [
              -74.8888,
              10.3515
            ],
            [
              -74.8684,
              10.3406
            ],
            [
              -74.861,
              10.3538
            ],
            [
              -74.8635,
              10.3667
            ],
            [
              -74.8659,
              10.3731
            ],
            [
              -74.858,
              10.393
            ],
            [
              -74.836,
              10.4103
            ],
            [
              -74.8272,
              10.4112
            ],
            [
              -74.8149,
              10.4317
            ],
            [
              -74.812,
              10.4509
            ],
            [
              -74.8065,
              10.4829
            ]
          ]
        ]
      },
      "properties": {
        "OBJECTID": 128,
        "DPTO_CCDGO": "03",
        "MPIO_CCDGO": "137",
        "name": "03007",
        "MPIO_CRSLC": "Ordenanza 34 del 16 de Abril de 1914",
        "MPIO_NANO_": 1993,
        "MPIO_NAREA": 97.3769636,
        "MPIO_CSMBL": "4",
        "MPIO_CCNCT": "08137",
        "MPIO_NANO": 2012,
        "SHAPE_Leng": 0.609497139018,
        "SHAPE_Area": 0.00803811941967,
        "NOMBRE": "CAMPO DE LA CRUZ",
        "DANE": {
          "dpto_ccdgo": "08",
          "mpio_ccdgo": "137",
          "mpio_cdpmp": "08137",
          "dpto_cnmbr": "ATLÁNTICO",
          "mpio_cnmbr": "CAMPO DE LA CRUZ",
          "mpio_crslc": "Ordenanza 34 del 16 de Abril de 1914",
          "mpio_tipo": "MUNICIPIO",
          "mpio_narea": 99.9950064918,
          "mpio_nano": 2024,
          "shape_Leng": 0.653301264235,
          "shape_Area": 0.00825426476649
        }
      }
    },
    {
      "type": "Feature",
      "geometry": {
        "type": "Polygon",
        "coordinates": [
          [
            [
              -74.8564,
              10.5647
            ],
            [
              -74.8648,
              10.5661
            ],
            [
              -74.8815,
              10.5555
            ],
            [
              -74.8959,
              10.554
            ],
            [
              -74.9055,
              10.5468
            ],
            [
              -74.9175,
              10.5478
            ],
            [
              -74.9226,
              10.5341
            ],
            [
              -74.9196,
              10.5236
            ],
            [
              -74.9103,
              10.5199
            ],
            [
              -74.9181,
              10.4944
            ],
            [
              -74.9164,
              10.464
            ],
            [
              -74.9294,
              10.4666
            ],
            [
              -74.9309,
              10.4425
            ],
            [
              -74.9177,
              10.4284
            ],
            [
              -74.9168,
              10.4122
            ],
            [
              -74.9027,
              10.417
            ],
            [
              -74.8823,
              10.418
            ],
            [
              -74.8674,
              10.4255
            ],
            [
              -74.8533,
              10.4271
            ],
            [
              -74.8461,
              10.4567
            ],
            [
              -74.8386,
              10.4627
            ],
            [
              -74.8204,
              10.4941
            ],
            [
              -74.8178,
              10.501
            ],
            [
              -74.8308,
              10.5168
            ],
            [
              -74.8401,
              10.5354
            ],
            [
              -74.8366,
              10.539
            ],
            [
              -74.846,
              10.5574
            ],
            [
              -74.8564,
              10.5647
            ]
          ]
        ]
      },
      "properties": {
        "OBJECTID": 129,
        "DPTO_CCDGO": "03",
        "MPIO_CCDGO": "141",
        "name": "03010",
        "MPIO_CRSLC": "Ley 27 de 1860",
        "MPIO_NANO_": 1993,
        "MPIO_NAREA": 140.91632787,
        "MPIO_CSMBL": "4",
        "MPIO_CCNCT": "08141",
        "MPIO_NANO": 2012,
        "SHAPE_Leng": 0.628762701482,
        "SHAPE_Area": 0.0116353890947,
        "NOMBRE": "CANDELARIA",
        "DANE": {
          "dpto_ccdgo": "08",
          "mpio_ccdgo": "141",
          "mpio_cdpmp": "08141",
          "dpto_cnmbr": "ATLÁNTICO",
          "mpio_cnmbr": "CANDELARIA",
          "mpio_crslc": "Ley 27 de 1860",
          "mpio_tipo": "MUNICIPIO",
          "mpio_narea": 135.766433386,
          "mpio_nano": 2024,
          "shape_Leng": 0.571878466818,
          "shape_Area": 0.0112101243471
        }
      }
    },
    {
      "type": "Feature",
      "geometry": {
        "type": "Polygon",
        "coordinates": [
          [
            [
              -74.8267,
              10.9139
            ],
            [
              -74.8403,
              10.9218
            ],
            [
              -74.8502,
              10.9388
            ],
            [
              -74.8582,
              10.9366
            ],
            [
              -74.8779,
              10.9445
            ],
            [
              -74.9078,
              10.9505
            ],
            [
              -74.9184,
              10.9453
            ],
            [
              -74.9245,
              10.9351
            ],
            [
              -74.9293,
              10.8818
            ],
            [
              -74.9334,
              10.87
            ],
            [
              -74.9448,
              10.8584
            ],
            [
              -74.9246,
              10.8564
            ],
            [
              -74.9107,
              10.845
            ],
            [
              -74.8995,
              10.8436
            ],
            [
              -74.889,
              10.8502
            ],
            [
              -74.8718,
              10.8531
            ],
            [
              -74.8668,
              10.861
            ],
            [
              -74.8469,
              10.8669
            ],
            [
              -74.8388,
              10.8854
            ],
            [
              -74.8361,
              10.9008
            ],
            [
              -74.8267,
              10.9139
            ]
          ]
        ]
      },
      "properties": {
        "OBJECTID": 130,
        "DPTO_CCDGO": "03",
        "MPIO_CCDGO": "296",
        "name": "03013",
        "MPIO_CRSLC": "Ley 37 de 1873",
        "MPIO_NANO_": 1993,
        "MPIO_NAREA": 97.47894947,
        "MPIO_CSMBL": "4",
        "MPIO_CCNCT": "08296",
        "MPIO_NANO": 2012,
        "SHAPE_Leng": 0.407246263303,
        "SHAPE_Area": 0.00805929694886,
        "NOMBRE": "GALAPA",
        "DANE": {
          "dpto_ccdgo": "08",
          "mpio_ccdgo": "296",
          "mpio_cdpmp": "08296",
          "dpto_cnmbr": "ATLÁNTICO",
          "mpio_cnmbr": "GALAPA",
          "mpio_crslc": "Ley 37 de 1873",
          "mpio_tipo": "MUNICIPIO",
          "mpio_narea": 97.5154002862,
          "mpio_nano": 2024,
          "shape_Leng": 0.424938597195,
          "shape_Area": 0.00806230504952
        }
      }
    },
    {
      "type": "Feature",
      "geometry": {
        "type": "Polygon",
        "coordinates": [
          [
            [
              -75.0744,
              10.8868
            ],
            [
              -75.0849,
              10.8779
            ],
            [
              -75.1007,
              10.8734
            ],
            [
              -75.1039,
              10.8664
            ],
            [
              -75.1206,
              10.8635
            ],
            [
              -75.1429,
              10.8525
            ],
            [
              -75.15,
              10.8363
            ],
            [
              -75.1644,
              10.8299
            ],
            [
              -75.1806,
              10.8297
            ],
            [
              -75.1924,
              10.8188
            ],
            [
              -75.2091,
              10.8173
            ],
            [
              -75.2166,
              10.8047
            ],
            [
              -75.1837,
              10.8018
            ],
            [
              -75.1553,
              10.8061
            ],
            [
              -75.1463,
              10.8119
            ],
            [
              -75.1249,
              10.8082
            ],
            [
              -75.1165,
              10.7904
            ],
            [
              -75.0879,
              10.7835
            ],
            [
              -75.0771,
              10.7726
            ],
            [
              -75.0612,
              10.7678
            ],
            [
              -75.0488,
              10.774
            ],
            [
              -75.0384,
              10.7708
            ],
            [
              -75.0223,
              10.7688
            ],
            [
              -75.0203,
              10.7762
            ],
            [
              -75.0031,
              10.7758
            ],
            [
              -75.0016,
              10.7907
            ],
            [
              -74.9849,
              10.7903
            ],
            [
              -74.9944,
              10.8154
            ],
            [
              -74.9959,
              10.8291
            ],
            [
              -75.0081,
              10.8348
            ],
            [
              -75.0105,
              10.8532
            ],
            [
              -75.0255,
              10.8555
            ],
            [
              -75.0481,
              10.8726
            ],
            [
              -75.0744,
              10.8868
            ]
          ]
        ]
      },
      "properties": {
        "OBJECTID": 131,
        "DPTO_CCDGO": "03",
        "MPIO_CCDGO": "372",
        "name": "03016",
        "MPIO_CRSLC": "Ley 113 de 1892",
        "MPIO_NANO_": 1993,
        "MPIO_NAREA": 171.78710136,
        "MPIO_CSMBL": "4",
        "MPIO_CCNCT": "08372",
        "MPIO_NANO": 2012,
        "SHAPE_Leng": 0.74354909053,
        "SHAPE_Area": 0.0141979600291,
        "NOMBRE": "JUAN DE ACOSTA",
        "DANE": {
          "dpto_ccdgo": "08",
          "mpio_ccdgo": "372",
          "mpio_cdpmp": "08372",
          "dpto_cnmbr": "ATLÁNTICO",
          "mpio_cnmbr": "JUAN DE ACOSTA",
          "mpio_crslc": "Ley 113 de 1892",
          "mpio_tipo": "MUNICIPIO",
          "mpio_narea": 168.013204483,
          "mpio_nano": 2024,
          "shape_Leng": 0.744587074499,
          "shape_Area": 0.0138860588492
        }
      }
    },
    {
      "type": "Feature",
      "geometry": {
        "type": "Polygon",
        "coordinates": [
          [
            [
              -75.0633,
              10.6846
            ],
            [
              -75.0981,
              10.6861
            ],
            [
              -75.113,
              10.6918
            ],
            [
              -75.1547,
              10.6853
            ],
            [
              -75.1693,
              10.6904
            ],
            [
              -75.1964,
              10.6847
            ],
            [
              -75.2086,
              10.6742
            ],
            [
              -75.2264,
              10.702
            ],
            [
              -75.2471,
              10.6957
            ],
            [
              -75.242,
              10.689
            ],
            [
              -75.2442,
              10.6646
            ],
            [
              -75.2418,
              10.6541
            ],
            [
              -75.2286,
              10.6441
            ],
            [
              -75.2236,
              10.6308
            ],
            [
              -75.2295,
              10.6189
            ],
            [
              -75.2268,
              10.5899
            ],
            [
              -75.2367,
              10.5679
            ],
            [
              -75.2257,
              10.5603
            ],
            [
              -75.1713,
              10.5704
            ],
            [
              -75.1637,
              10.5811
            ],
            [
              -75.1442,
              10.5768
            ],
            [
              -75.1327,
              10.5805
            ],
            [
              -75.1236,
              10.6006
            ],
            [
              -75.1163,
              10.6037
            ],
            [
              -75.1055,
              10.5938
            ],
            [
              -75.0959,
              10.593
            ],
            [
              -75.0834,
              10.6075
            ],
            [
              -75.0602,
              10.5949
            ],
            [
              -75.0537,
              10.6217
            ],
            [
              -75.0547,
              10.636
            ],
            [
              -75.0629,
              10.6457
            ],
            [
              -75.0558,
              10.6646
            ],
            [
              -75.0633,
              10.6846
            ]
          ]
        ]
      },
      "properties": {
        "OBJECTID": 132,
        "DPTO_CCDGO": "03",
        "MPIO_CCDGO": "421",
        "name": "03019",
        "MPIO_CRSLC": "Ordenanza 143 de Diciembre 23 de 1960",
        "MPIO_NANO_": 1993,
        "MPIO_NAREA": 243.88855592,
        "MPIO_CSMBL": "4",
        "MPIO_CCNCT": "08421",
        "MPIO_NANO": 2012,
        "SHAPE_Leng": 0.918467914031,
        "SHAPE_Area": 0.0201437441988,
        "NOMBRE": "LURUACO",
        "DANE": {
          "dpto_ccdgo": "08",
          "mpio_ccdgo": "421",
          "mpio_cdpmp": "08421",
          "dpto_cnmbr": "ATLÁNTICO",
          "mpio_cnmbr": "LURUACO",
          "mpio_crslc": "Ordenanza 143 de Diciembre 23 de 1960",
          "mpio_tipo": "MUNICIPIO",
          "mpio_narea": 224.321056003,
          "mpio_nano": 2024,
          "shape_Leng": 0.702921994233,
          "shape_Area": 0.0185277268482
        }
      }
    },
    {
      "type": "Feature",
      "geometry": {
        "type": "Polygon",
        "coordinates": [
          [
            [
              -74.7381,
              10.876
            ],
            [
              -74.7418,
              10.884
            ],
            [
              -74.7698,
              10.8899
            ],
            [
              -74.7796,
              10.8767
            ],
            [
              -74.7991,
              10.8798
            ],
            [
              -74.8248,
              10.879
            ],
            [
              -74.8221,
              10.8913
            ],
            [
              -74.8388,
              10.8854
            ],
            [
              -74.8469,
              10.8669
            ],
            [
              -74.8668,
              10.861
            ],
            [
              -74.8718,
              10.8531
            ],
            [
              -74.8691,
              10.8345
            ],
            [
              -74.8794,
              10.813
            ],
            [
              -74.8078,
              10.8123
            ],
            [
              -74.768,
              10.8246
            ],
            [
              -74.7547,
              10.823
            ],
            [
              -74.7529,
              10.8344
            ],
            [
              -74.7407,
              10.8345
            ],
            [
              -74.7381,
              10.876
            ]
          ]
        ]
      },
      "properties": {
        "OBJECTID": 133,
        "DPTO_CCDGO": "03",
        "MPIO_CCDGO": "433",
        "name": "03022",
        "MPIO_CRSLC": "Ordenanza 24 del 24 de Abril de 1912",
        "MPIO_NANO_": 1993,
        "MPIO_NAREA": 98.9385256,
        "MPIO_CSMBL": "4",
        "MPIO_CCNCT": "08433",
        "MPIO_NANO": 2012,
        "SHAPE_Leng": 0.501141348185,
        "SHAPE_Area": 0.00817894508076,
        "NOMBRE": "MALAMBO",
        "DANE": {
          "dpto_ccdgo": "08",
          "mpio_ccdgo": "433",
          "mpio_cdpmp": "08433",
          "dpto_cnmbr": "ATLÁNTICO",
          "mpio_cnmbr": "MALAMBO",
          "mpio_crslc": "Ordenanza 24 del 24 de Abril de 1912",
          "mpio_tipo": "MUNICIPIO",
          "mpio_narea": 97.9434564999,
          "mpio_nano": 2024,
          "shape_Leng": 0.499285157928,
          "shape_Area": 0.00809668611389
        }
      }
    },
    {
      "type": "Feature",
      "geometry": {
        "type": "Polygon",
        "coordinates": [
          [
            [
              -74.9226,
              10.5341
            ],
            [
              -74.9602,
              10.5438
            ],
            [
              -74.9798,
              10.5234
            ],
            [
              -74.9986,
              10.5168
            ],
            [
              -75.0108,
              10.5212
            ],
            [
              -75.0271,
              10.5208
            ],
            [
              -75.0233,
              10.4853
            ],
            [
              -75.0355,
              10.4812
            ],
            [
              -75.0458,
              10.4659
            ],
            [
              -75.0582,
              10.4181
            ],
            [
              -75.0743,
              10.4094
            ],
            [
              -75.053,
              10.3819
            ],
            [
              -75.0334,
              10.3689
            ],
            [
              -75.0204,
              10.3786
            ],
            [
              -75.004,
              10.3784
            ],
            [
              -75.0053,
              10.3876
            ],
            [
              -74.9934,
              10.3948
            ],
            [
              -74.9726,
              10.3949
            ],
            [
              -74.9626,
              10.3831
            ],
            [
              -74.9542,
              10.3853
            ],
            [
              -74.9407,
              10.4112
            ],
            [
              -74.9247,
              10.4045
            ],
            [
              -74.9168,
              10.4122
            ],
            [
              -74.9177,
              10.4284
            ],
            [
              -74.9309,
              10.4425
            ],
            [
              -74.9294,
              10.4666
            ],
            [
              -74.9164,
              10.464
            ],
            [
              -74.9181,
              10.4944
            ],
            [
              -74.9103,
              10.5199
            ],
            [
              -74.9196,
              10.5236
            ],
            [
              -74.9226,
              10.5341
            ]
          ]
        ]
      },
      "properties": {
        "OBJECTID": 134,
        "DPTO_CCDGO": "03",
        "MPIO_CCDGO": "436",
        "name": "03025",
        "MPIO_CRSLC": "Ordenanza 11 del 23 de Octubre de 1855",
        "MPIO_NANO_": 1993,
        "MPIO_NAREA": 207.46648055,
        "MPIO_CSMBL": "4",
        "MPIO_CCNCT": "08436",
        "MPIO_NANO": 2012,
        "SHAPE_Leng": 0.702620693951,
        "SHAPE_Area": 0.0171273535739,
        "NOMBRE": "MANATI",
        "DANE": {
          "dpto_ccdgo": "08",
          "mpio_ccdgo": "436",
          "mpio_cdpmp": "08436",
          "dpto_cnmbr": "ATLÁNTICO",
          "mpio_cnmbr": "MANATÍ",
          "mpio_crslc": "Ordenanza 11 del 23 de Octubre de 1855",
          "mpio_tipo": "MUNICIPIO",
          "mpio_narea": 214.267969997,
          "mpio_nano": 2024,
          "shape_Leng": 0.723056919259,
          "shape_Area": 0.0176890301988
        }
      }
    },
    {
      "type": "Feature",
      "geometry": {
        "type": "Polygon",
        "coordinates": [
          [
            [
              -74.7277,
              10.7494
            ],
            [
              -74.758,
              10.7487
            ],
            [
              -74.7675,
              10.7369
            ],
            [
              -74.788,
              10.7316
            ],
            [
              -74.8008,
              10.7056
            ],
            [
              -74.8237,
              10.7021
            ],
            [
              -74.8377,
              10.6862
            ],
            [
              -74.8379,
              10.6756
            ],
            [
              -74.8222,
              10.6697
            ],
            [
              -74.8154,
              10.6596
            ],
            [
              -74.7921,
              10.6589
            ],
            [
              -74.7784,
              10.6515
            ],
            [
              -74.7464,
              10.6511
            ],
            [
              -74.7236,
              10.667
            ],
            [
              -74.726,
              10.7278
            ],
            [
              -74.7277,
              10.7494
            ]
          ]
        ]
      },
      "properties": {
        "OBJECTID": 135,
        "DPTO_CCDGO": "03",
        "MPIO_CCDGO": "520",
        "name": "03028",
        "MPIO_CRSLC": "Ordenanza 30 del 5 de Mayo de 1913",
        "MPIO_NANO_": 1993,
        "MPIO_NAREA": 93.86600317,
        "MPIO_CSMBL": "4",
        "MPIO_CCNCT": "08520",
        "MPIO_NANO": 2012,
        "SHAPE_Leng": 0.467259232313,
        "SHAPE_Area": 0.00775587101293,
        "NOMBRE": "PALMAR DE VARELA",
        "DANE": {
          "dpto_ccdgo": "08",
          "mpio_ccdgo": "520",
          "mpio_cdpmp": "08520",
          "dpto_cnmbr": "ATLÁNTICO",
          "mpio_cnmbr": "PALMAR DE VARELA",
          "mpio_crslc": "Ordenanza 30 del 5 de Mayo de 1913",
          "mpio_tipo": "MUNICIPIO",
          "mpio_narea": 92.3387923205,
          "mpio_nano": 2024,
          "shape_Leng": 0.449666247049,
          "shape_Area": 0.0076296919118
        }
      }
    },
    {
      "type": "Feature",
      "geometry": {
        "type": "Polygon",
        "coordinates": [
          [
            [
              -75.0384,
              10.7708
            ],
            [
              -75.0488,
              10.774
            ],
            [
              -75.0612,
              10.7678
            ],
            [
              -75.0771,
              10.7726
            ],
            [
              -75.0879,
              10.7835
            ],
            [
              -75.1165,
              10.7904
            ],
            [
              -75.1249,
              10.8082
            ],
            [
              -75.1463,
              10.8119
            ],
            [
              -75.1553,
              10.8061
            ],
            [
              -75.1837,
              10.8018
            ],
            [
              -75.2166,
              10.8047
            ],
            [
              -75.2222,
              10.7966
            ],
            [
              -75.2304,
              10.7832
            ],
            [
              -75.2199,
              10.7772
            ],
            [
              -75.2304,
              10.7565
            ],
            [
              -75.2405,
              10.7472
            ],
            [
              -75.2495,
              10.723
            ],
            [
              -75.2446,
              10.7167
            ],
            [
              -75.2471,
              10.6957
            ],
            [
              -75.2264,
              10.702
            ],
            [
              -75.2086,
              10.6742
            ],
            [
              -75.1964,
              10.6847
            ],
            [
              -75.1693,
              10.6904
            ],
            [
              -75.1547,
              10.6853
            ],
            [
              -75.113,
              10.6918
            ],
            [
              -75.0981,
              10.6861
            ],
            [
              -75.0633,
              10.6846
            ],
            [
              -75.0624,
              10.695
            ],
            [
              -75.0456,
              10.7017
            ],
            [
              -75.0394,
              10.7221
            ],
            [
              -75.0296,
              10.7276
            ],
            [
              -75.0314,
              10.7564
            ],
            [
              -75.0462,
              10.7573
            ],
            [
              -75.0384,
              10.7708
            ]
          ]
        ]
      },
      "properties": {
        "OBJECTID": 136,
        "DPTO_CCDGO": "03",
        "MPIO_CCDGO": "549",
        "name": "03031",
        "MPIO_CRSLC": "Ley 17 del 11/04/1905",
        "MPIO_NANO_": 1993,
        "MPIO_NAREA": 252.36829867,
        "MPIO_CSMBL": "4",
        "MPIO_CCNCT": "08549",
        "MPIO_NANO": 2012,
        "SHAPE_Leng": 0.766063143982,
        "SHAPE_Area": 0.0208514576002,
        "NOMBRE": "PIOJO",
        "DANE": {
          "dpto_ccdgo": "08",
          "mpio_ccdgo": "549",
          "mpio_cdpmp": "08549",
          "dpto_cnmbr": "ATLÁNTICO",
          "mpio_cnmbr": "PIOJÓ",
          "mpio_crslc": "Ley 17 del 11/04/1905",
          "mpio_tipo": "MUNICIPIO",
          "mpio_narea": 252.92847561,
          "mpio_nano": 2024,
          "shape_Leng": 0.746976214208,
          "shape_Area": 0.0208977806051
        }
      }
    },
    {
      "type": "Feature",
      "geometry": {
        "type": "Polygon",
        "coordinates": [
          [
            [
              -74.8078,
              10.8123
            ],
            [
              -74.8794,
              10.813
            ],
            [
              -74.8867,
              10.7837
            ],
            [
              -74.8832,
              10.7644
            ],
            [
              -74.8929,
              10.7663
            ],
            [
              -74.8959,
              10.7455
            ],
            [
              -74.886,
              10.728
            ],
            [
              -74.8756,
              10.7258
            ],
            [
              -74.8583,
              10.7083
            ],
            [
              -74.8494,
              10.7083
            ],
            [
              -74.8423,
              10.7074
            ],
            [
              -74.8407,
              10.7262
            ],
            [
              -74.8195,
              10.7757
            ],
            [
              -74.8118,
              10.7779
            ],
            [
              -74.8089,
              10.7942
            ],
            [
              -74.8171,
              10.7975
            ],
            [
              -74.8078,
              10.8123
            ]
          ]
        ]
      },
      "properties": {
        "OBJECTID": 137,
        "DPTO_CCDGO": "03",
        "MPIO_CCDGO": "558",
        "name": "03034",
        "MPIO_CRSLC": "1893",
        "MPIO_NANO_": 1993,
        "MPIO_NAREA": 74.73622647,
        "MPIO_CSMBL": "4",
        "MPIO_CCNCT": "08558",
        "MPIO_NANO": 2012,
        "SHAPE_Leng": 0.441988257113,
        "SHAPE_Area": 0.00617646745673,
        "NOMBRE": "POLONUEVO",
        "DANE": {
          "dpto_ccdgo": "08",
          "mpio_ccdgo": "558",
          "mpio_cdpmp": "08558",
          "dpto_cnmbr": "ATLÁNTICO",
          "mpio_cnmbr": "POLONUEVO",
          "mpio_crslc": "1893",
          "mpio_tipo": "MUNICIPIO",
          "mpio_narea": 73.8647555302,
          "mpio_nano": 2024,
          "shape_Leng": 0.446790050039,
          "shape_Area": 0.00610443998954
        }
      }
    },
    {
      "type": "Feature",
      "geometry": {
        "type": "Polygon",
        "coordinates": [
          [
            [
              -74.8494,
              10.7083
            ],
            [
              -74.8583,
              10.7083
            ],
            [
              -74.8756,
              10.7258
            ],
            [
              -74.8411,
              10.6013
            ],
            [
              -74.8564,
              10.5647
            ],
            [
              -74.846,
              10.5574
            ],
            [
              -74.8366,
              10.539
            ],
            [
              -74.8401,
              10.5354
            ],
            [
              -74.8308,
              10.5168
            ],
            [
              -74.8178,
              10.501
            ],
            [
              -74.8204,
              10.4941
            ],
            [
              -74.8065,
              10.4829
            ],
            [
              -74.7824,
              10.5153
            ],
            [
              -74.7671,
              10.5281
            ],
            [
              -74.7445,
              10.5382
            ],
            [
              -74.7362,
              10.5487
            ],
            [
              -74.7384,
              10.58
            ],
            [
              -74.7261,
              10.6012
            ],
            [
              -74.725,
              10.6197
            ],
            [
              -74.7398,
              10.6345
            ],
            [
              -74.7464,
              10.6511
            ],
            [
              -74.7784,
              10.6515
            ],
            [
              -74.7921,
              10.6589
            ],
            [
              -74.8154,
              10.6596
            ],
            [
              -74.8222,
              10.6697
            ],
            [
              -74.8379,
              10.6756
            ],
            [
              -74.8377,
              10.6862
            ],
            [
              -74.8494,
              10.7083
            ]
          ]
        ]
      },
      "properties": {
        "OBJECTID": 138,
        "DPTO_CCDGO": "03",
        "MPIO_CCDGO": "560",
        "name": "03035",
        "MPIO_CRSLC": "Ordenanza 75 de Diciembre 22 de 1965",
        "MPIO_NANO_": 1993,
        "MPIO_NAREA": 208.807703,
        "MPIO_CSMBL": "4",
        "MPIO_CCNCT": "08560",
        "MPIO_NANO": 2012,
        "SHAPE_Leng": 0.773466565028,
        "SHAPE_Area": 0.0172475173177,
        "NOMBRE": "PONEDERA",
        "DANE": {
          "dpto_ccdgo": "08",
          "mpio_ccdgo": "560",
          "mpio_cdpmp": "08560",
          "dpto_cnmbr": "ATLÁNTICO",
          "mpio_cnmbr": "PONEDERA",
          "mpio_crslc": "Ordenanza 75 de Diciembre 22 de 1965",
          "mpio_tipo": "MUNICIPIO",
          "mpio_narea": 206.534230964,
          "mpio_nano": 2024,
          "shape_Leng": 0.783522945331,
          "shape_Area": 0.0170596796369
        }
      }
    },
    {
      "type": "Feature",
      "geometry": {
        "type": "Polygon",
        "coordinates": [
          [
            [
              -74.9184,
              10.9453
            ],
            [
              -74.9177,
              10.9546
            ],
            [
              -74.899,
              10.9626
            ],
            [
              -74.9044,
              10.9736
            ],
            [
              -74.892,
              10.983
            ],
            [
              -74.8821,
              10.9793
            ],
            [
              -74.8741,
              10.9874
            ],
            [
              -74.8833,
              11.002
            ],
            [
              -74.8663,
              11.0156
            ],
            [
              -74.8392,
              11.0139
            ],
            [
              -74.8308,
              11.0335
            ],
            [
              -74.8493,
              11.03
            ],
            [
              -74.8734,
              11.0317
            ],
            [
              -74.8737,
              11.0483
            ],
            [
              -74.9025,
              11.0431
            ],
            [
              -74.9207,
              11.0457
            ],
            [
              -74.9223,
              11.028
            ],
            [
              -74.9424,
              11.0169
            ],
            [
              -74.9527,
              11.0072
            ],
            [
              -74.9583,
              10.9907
            ],
            [
              -74.9813,
              10.9798
            ],
            [
              -74.9582,
              10.9808
            ],
            [
              -74.9503,
              10.9709
            ],
            [
              -74.9331,
              10.9769
            ],
            [
              -74.9293,
              10.9547
            ],
            [
              -74.9184,
              10.9453
            ]
          ]
        ]
      },
      "properties": {
        "OBJECTID": 139,
        "DPTO_CCDGO": "03",
        "MPIO_CCDGO": "573",
        "name": "03037",
        "MPIO_CRSLC": "Decreto Nacional 483 dle 26 de Abril de 1906",
        "MPIO_NANO_": 1993,
        "MPIO_NAREA": 75.51329142,
        "MPIO_CSMBL": "4",
        "MPIO_CCNCT": "08573",
        "MPIO_NANO": 2012,
        "SHAPE_Leng": 0.593191396994,
        "SHAPE_Area": 0.00624535713454,
        "NOMBRE": "PUERTO COLOMBIA",
        "DANE": {
          "dpto_ccdgo": "08",
          "mpio_ccdgo": "573",
          "mpio_cdpmp": "08573",
          "dpto_cnmbr": "ATLÁNTICO",
          "mpio_cnmbr": "PUERTO COLOMBIA",
          "mpio_crslc": "Decreto Nacional 483 dle 26 de Abril de 1906",
          "mpio_tipo": "MUNICIPIO",
          "mpio_narea": 69.4092366035,
          "mpio_nano": 2024,
          "shape_Leng": 0.612357948398,
          "shape_Area": 0.00574053178557
        }
      }
    },
    {
      "type": "Feature",
      "geometry": {
        "type": "Polygon",
        "coordinates": [
          [
            [
              -75.0271,
              10.5208
            ],
            [
              -75.0269,
              10.536
            ],
            [
              -75.0324,
              10.5598
            ],
            [
              -75.0398,
              10.5774
            ],
            [
              -75.0602,
              10.5949
            ],
            [
              -75.0834,
              10.6075
            ],
            [
              -75.0959,
              10.593
            ],
            [
              -75.1055,
              10.5938
            ],
            [
              -75.1163,
              10.6037
            ],
            [
              -75.1236,
              10.6006
            ],
            [
              -75.1327,
              10.5805
            ],
            [
              -75.1442,
              10.5768
            ],
            [
              -75.1637,
              10.5811
            ],
            [
              -75.1713,
              10.5704
            ],
            [
              -75.2257,
              10.5603
            ],
            [
              -75.228,
              10.5486
            ],
            [
              -75.2412,
              10.5196
            ],
            [
              -75.2416,
              10.5042
            ],
            [
              -75.2337,
              10.4795
            ],
            [
              -75.1899,
              10.4675
            ],
            [
              -75.1763,
              10.4552
            ],
            [
              -75.1683,
              10.4518
            ],
            [
              -75.1531,
              10.4346
            ],
            [
              -75.1527,
              10.4231
            ],
            [
              -75.1322,
              10.4066
            ],
            [
              -75.1293,
              10.3973
            ],
            [
              -75.0894,
              10.4105
            ],
            [
              -75.0743,
              10.4094
            ],
            [
              -75.0582,
              10.4181
            ],
            [
              -75.0458,
              10.4659
            ],
            [
              -75.0355,
              10.4812
            ],
            [
              -75.0233,
              10.4853
            ],
            [
              -75.0271,
              10.5208
            ]
          ]
        ]
      },
      "properties": {
        "OBJECTID": 140,
        "DPTO_CCDGO": "03",
        "MPIO_CCDGO": "606",
        "name": "03040",
        "MPIO_CRSLC": "Ley 17    del 11 de Mayo de 1905",
        "MPIO_NANO_": 1993,
        "MPIO_NAREA": 337.3131444,
        "MPIO_CSMBL": "4",
        "MPIO_CCNCT": "08606",
        "MPIO_NANO": 2012,
        "SHAPE_Leng": 0.851281924442,
        "SHAPE_Area": 0.0278496741867,
        "NOMBRE": "REPELON",
        "DANE": {
          "dpto_ccdgo": "08",
          "mpio_ccdgo": "606",
          "mpio_cdpmp": "08606",
          "dpto_cnmbr": "ATLÁNTICO",
          "mpio_cnmbr": "REPELÓN",
          "mpio_crslc": "Ley 17 del 11 de Mayo de 1905",
          "mpio_tipo": "MUNICIPIO",
          "mpio_narea": 358.548303856,
          "mpio_nano": 2024,
          "shape_Leng": 0.763200799079,
          "shape_Area": 0.0296028002916
        }
      }
    },
    {
      "type": "Feature",
      "geometry": {
        "type": "Polygon",
        "coordinates": [
          [
            [
              -74.7251,
              10.7717
            ],
            [
              -74.7377,
              10.8076
            ],
            [
              -74.7407,
              10.8345
            ],
            [
              -74.7529,
              10.8344
            ],
            [
              -74.7547,
              10.823
            ],
            [
              -74.768,
              10.8246
            ],
            [
              -74.8078,
              10.8123
            ],
            [
              -74.8171,
              10.7975
            ],
            [
              -74.8089,
              10.7942
            ],
            [
              -74.8118,
              10.7779
            ],
            [
              -74.8055,
              10.7742
            ],
            [
              -74.7858,
              10.7799
            ],
            [
              -74.7251,
              10.7717
            ]
          ]
        ]
      },
      "properties": {
        "OBJECTID": 141,
        "DPTO_CCDGO": "03",
        "MPIO_CCDGO": "634",
        "name": "03043",
        "MPIO_CRSLC": "Ley 44 del 6 de Noviembreirmbre de 1876",
        "MPIO_NANO_": 1993,
        "MPIO_NAREA": 42.03560269,
        "MPIO_CSMBL": "4",
        "MPIO_CCNCT": "08634",
        "MPIO_NANO": 2012,
        "SHAPE_Leng": 0.304137280156,
        "SHAPE_Area": 0.00347444893401,
        "NOMBRE": "SABANAGRANDE",
        "DANE": {
          "dpto_ccdgo": "08",
          "mpio_ccdgo": "634",
          "mpio_cdpmp": "08634",
          "dpto_cnmbr": "ATLÁNTICO",
          "mpio_cnmbr": "SABANAGRANDE",
          "mpio_crslc": "Ley 44 del 6 de Noviembreirmbre de 1876",
          "mpio_tipo": "MUNICIPIO",
          "mpio_narea": 43.1111325789,
          "mpio_nano": 2024,
          "shape_Leng": 0.304919897018,
          "shape_Area": 0.00356335036015
        }
      }
    },
    {
      "type": "Feature",
      "geometry": {
        "type": "Polygon",
        "coordinates": [
          [
            [
              -74.8564,
              10.5647
            ],
            [
              -74.8411,
              10.6013
            ],
            [
              -74.8756,
              10.7258
            ],
            [
              -74.8858,
              10.7193
            ],
            [
              -74.9051,
              10.715
            ],
            [
              -74.9107,
              10.7048
            ],
            [
              -74.9325,
              10.7114
            ],
            [
              -74.9388,
              10.7011
            ],
            [
              -74.9643,
              10.692
            ],
            [
              -74.9699,
              10.6806
            ],
            [
              -74.9809,
              10.7007
            ],
            [
              -74.987,
              10.6987
            ],
            [
              -75.0065,
              10.7093
            ],
            [
              -75.0456,
              10.7017
            ],
            [
              -75.0624,
              10.695
            ],
            [
              -75.0633,
              10.6846
            ],
            [
              -75.0558,
              10.6646
            ],
            [
              -75.0629,
              10.6457
            ],
            [
              -75.0547,
              10.636
            ],
            [
              -75.0537,
              10.6217
            ],
            [
              -75.0602,
              10.5949
            ],
            [
              -75.0398,
              10.5774
            ],
            [
              -75.0324,
              10.5598
            ],
            [
              -75.0269,
              10.536
            ],
            [
              -75.0271,
              10.5208
            ],
            [
              -75.0108,
              10.5212
            ],
            [
              -74.9986,
              10.5168
            ],
            [
              -74.9798,
              10.5234
            ],
            [
              -74.9602,
              10.5438
            ],
            [
              -74.9226,
              10.5341
            ],
            [
              -74.9175,
              10.5478
            ],
            [
              -74.9055,
              10.5468
            ],
            [
              -74.8959,
              10.554
            ],
            [
              -74.8815,
              10.5555
            ],
            [
              -74.8648,
              10.5661
            ],
            [
              -74.8564,
              10.5647
            ]
          ]
        ]
      },
      "properties": {
        "OBJECTID": 142,
        "DPTO_CCDGO": "03",
        "MPIO_CCDGO": "638",
        "name": "03046",
        "MPIO_CRSLC": "Ordenanza 30 del 5 de Mayo de 1913",
        "MPIO_NANO_": 1993,
        "MPIO_NAREA": 397.36931508,
        "MPIO_CSMBL": "4",
        "MPIO_CCNCT": "08638",
        "MPIO_NANO": 2012,
        "SHAPE_Leng": 0.951975156326,
        "SHAPE_Area": 0.0328230325366,
        "NOMBRE": "SABANALARGA",
        "DANE": {
          "dpto_ccdgo": "08",
          "mpio_ccdgo": "638",
          "mpio_cdpmp": "08638",
          "dpto_cnmbr": "ATLÁNTICO",
          "mpio_cnmbr": "SABANALARGA",
          "mpio_crslc": "Ordenanza 30 del 5 de Mayo de 1913",
          "mpio_tipo": "MUNICIPIO",
          "mpio_narea": 395.875037131,
          "mpio_nano": 2024,
          "shape_Leng": 0.955135892983,
          "shape_Area": 0.0326996271648
        }
      }
    },
    {
      "type": "Feature",
      "geometry": {
        "type": "Polygon",
        "coordinates": [
          [
            [
              -74.9626,
              10.3831
            ],
            [
              -74.9726,
              10.3949
            ],
            [
              -74.9934,
              10.3948
            ],
            [
              -75.0053,
              10.3876
            ],
            [
              -75.004,
              10.3784
            ],
            [
              -75.0204,
              10.3786
            ],
            [
              -75.0334,
              10.3689
            ],
            [
              -75.0241,
              10.3636
            ],
            [
              -75.005,
              10.3603
            ],
            [
              -74.9832,
              10.3434
            ],
            [
              -74.9653,
              10.3261
            ],
            [
              -74.9373,
              10.2895
            ],
            [
              -74.9351,
              10.3161
            ],
            [
              -74.9197,
              10.3254
            ],
            [
              -74.9173,
              10.3386
            ],
            [
              -74.9348,
              10.3618
            ],
            [
              -74.9402,
              10.377
            ],
            [
              -74.9626,
              10.3831
            ]
          ]
        ]
      },
      "properties": {
        "OBJECTID": 143,
        "DPTO_CCDGO": "03",
        "MPIO_CCDGO": "675",
        "name": "03047",
        "MPIO_CRSLC": "Ordenanza 01 del 18 de Octubre de 1967",
        "MPIO_NANO_": 1993,
        "MPIO_NAREA": 57.49753166,
        "MPIO_CSMBL": "4",
        "MPIO_CCNCT": "08675",
        "MPIO_NANO": 2012,
        "SHAPE_Leng": 0.402247211174,
        "SHAPE_Area": 0.00474528674071,
        "NOMBRE": "SANTA LUCIA",
        "DANE": {
          "dpto_ccdgo": "08",
          "mpio_ccdgo": "675",
          "mpio_cdpmp": "08675",
          "dpto_cnmbr": "ATLÁNTICO",
          "mpio_cnmbr": "SANTA LUCÍA",
          "mpio_crslc": "Ordenanza 01 del 18 de Octubre de 1967",
          "mpio_tipo": "MUNICIPIO",
          "mpio_narea": 57.3663552983,
          "mpio_nano": 2024,
          "shape_Leng": 0.421873999714,
          "shape_Area": 0.00473447973725
        }
      }
    },
    {
      "type": "Feature",
      "geometry": {
        "type": "Polygon",
        "coordinates": [
          [
            [
              -74.7251,
              10.7717
            ],
            [
              -74.7858,
              10.7799
            ],
            [
              -74.8055,
              10.7742
            ],
            [
              -74.8118,
              10.7779
            ],
            [
              -74.8195,
              10.7757
            ],
            [
              -74.8407,
              10.7262
            ],
            [
              -74.8423,
              10.7074
            ],
            [
              -74.8494,
              10.7083
            ],
            [
              -74.8377,
              10.6862
            ],
            [
              -74.8237,
              10.7021
            ],
            [
              -74.8008,
              10.7056
            ],
            [
              -74.788,
              10.7316
            ],
            [
              -74.7675,
              10.7369
            ],
            [
              -74.758,
              10.7487
            ],
            [
              -74.7277,
              10.7494
            ],
            [
              -74.7251,
              10.7717
            ]
          ]
        ]
      },
      "properties": {
        "OBJECTID": 144,
        "DPTO_CCDGO": "03",
        "MPIO_CCDGO": "685",
        "name": "03049",
        "MPIO_CRSLC": "1857",
        "MPIO_NANO_": 1993,
        "MPIO_NAREA": 65.5268367,
        "MPIO_CSMBL": "4",
        "MPIO_CCNCT": "08685",
        "MPIO_NANO": 2012,
        "SHAPE_Leng": 0.462757209728,
        "SHAPE_Area": 0.00541510586871,
        "NOMBRE": "SANTO TOMAS",
        "DANE": {
          "dpto_ccdgo": "08",
          "mpio_ccdgo": "685",
          "mpio_cdpmp": "08685",
          "dpto_cnmbr": "ATLÁNTICO",
          "mpio_cnmbr": "SANTO TOMÁS",
          "mpio_crslc": "1857",
          "mpio_tipo": "MUNICIPIO",
          "mpio_narea": 65.0024745914,
          "mpio_nano": 2024,
          "shape_Leng": 0.445059543209,
          "shape_Area": 0.0053717652535
        }
      }
    },
    {
      "type": "Feature",
      "geometry": {
        "type": "Polygon",
        "coordinates": [
          [
            [
              -74.7573,
              10.9454
            ],
            [
              -74.7735,
              10.9442
            ],
            [
              -74.7945,
              10.9306
            ],
            [
              -74.7993,
              10.9213
            ],
            [
              -74.8146,
              10.9226
            ],
            [
              -74.8267,
              10.9139
            ],
            [
              -74.8361,
              10.9008
            ],
            [
              -74.8388,
              10.8854
            ],
            [
              -74.8221,
              10.8913
            ],
            [
              -74.8248,
              10.879
            ],
            [
              -74.7991,
              10.8798
            ],
            [
              -74.7796,
              10.8767
            ],
            [
              -74.7698,
              10.8899
            ],
            [
              -74.7418,
              10.884
            ],
            [
              -74.7381,
              10.876
            ],
            [
              -74.7345,
              10.8933
            ],
            [
              -74.7188,
              10.9071
            ],
            [
              -74.7538,
              10.9361
            ],
            [
              -74.7573,
              10.9454
            ]
          ]
        ]
      },
      "properties": {
        "OBJECTID": 145,
        "DPTO_CCDGO": "03",
        "MPIO_CCDGO": "758",
        "name": "03052",
        "MPIO_CRSLC": "1813",
        "MPIO_NANO_": 1993,
        "MPIO_NAREA": 61.3890792,
        "MPIO_CSMBL": "4",
        "MPIO_CCNCT": "08758",
        "MPIO_NANO": 2012,
        "SHAPE_Leng": 0.421872468591,
        "SHAPE_Area": 0.00507586011759,
        "NOMBRE": "SOLEDAD",
        "DANE": {
          "dpto_ccdgo": "08",
          "mpio_ccdgo": "758",
          "mpio_cdpmp": "08758",
          "dpto_cnmbr": "ATLÁNTICO",
          "mpio_cnmbr": "SOLEDAD",
          "mpio_crslc": "1813",
          "mpio_tipo": "MUNICIPIO",
          "mpio_narea": 59.3611262751,
          "mpio_nano": 2024,
          "shape_Leng": 0.420295986023,
          "shape_Area": 0.00490820069545
        }
      }
    },
    {
      "type": "Feature",
      "geometry": {
        "type": "Polygon",
        "coordinates": [
          [
            [
              -74.8684,
              10.3406
            ],
            [
              -74.8888,
              10.3515
            ],
            [
              -74.9046,
              10.3497
            ],
            [
              -74.9173,
              10.3386
            ],
            [
              -74.9197,
              10.3254
            ],
            [
              -74.9351,
              10.3161
            ],
            [
              -74.9373,
              10.2895
            ],
            [
              -74.9108,
              10.2542
            ],
            [
              -74.8953,
              10.2954
            ],
            [
              -74.8684,
              10.3406
            ]
          ]
        ]
      },
      "properties": {
        "OBJECTID": 146,
        "DPTO_CCDGO": "03",
        "MPIO_CCDGO": "770",
        "name": "03055",
        "MPIO_CRSLC": "Decreto 233 del 15 de Abril de 1905",
        "MPIO_NANO_": 1993,
        "MPIO_NAREA": 44.26843175,
        "MPIO_CSMBL": "4",
        "MPIO_CCNCT": "08770",
        "MPIO_NANO": 2012,
        "SHAPE_Leng": 0.298309264337,
        "SHAPE_Area": 0.00365314462626,
        "NOMBRE": "SUAN",
        "DANE": {
          "dpto_ccdgo": "08",
          "mpio_ccdgo": "770",
          "mpio_cdpmp": "08770",
          "dpto_cnmbr": "ATLÁNTICO",
          "mpio_cnmbr": "SUAN",
          "mpio_crslc": "Decreto 233 del 15 de Abril de 1905",
          "mpio_tipo": "MUNICIPIO",
          "mpio_narea": 42.5581404051,
          "mpio_nano": 2024,
          "shape_Leng": 0.298089312923,
          "shape_Area": 0.00351198778207
        }
      }
    },
    {
      "type": "Feature",
      "geometry": {
        "type": "Polygon",
        "coordinates": [
          [
            [
              -74.9184,
              10.9453
            ],
            [
              -74.9293,
              10.9547
            ],
            [
              -74.9331,
              10.9769
            ],
            [
              -74.9503,
              10.9709
            ],
            [
              -74.9582,
              10.9808
            ],
            [
              -74.9813,
              10.9798
            ],
            [
              -75.0088,
              10.9774
            ],
            [
              -75.0301,
              10.9628
            ],
            [
              -75.0278,
              10.9497
            ],
            [
              -75.0307,
              10.9308
            ],
            [
              -75.0455,
              10.9004
            ],
            [
              -75.0608,
              10.8896
            ],
            [
              -75.0744,
              10.8868
            ],
            [
              -75.0481,
              10.8726
            ],
            [
              -75.0255,
              10.8555
            ],
            [
              -75.0105,
              10.8532
            ],
            [
              -75.0081,
              10.8348
            ],
            [
              -74.9959,
              10.8291
            ],
            [
              -74.9944,
              10.8154
            ],
            [
              -74.9713,
              10.8173
            ],
            [
              -74.9663,
              10.8345
            ],
            [
              -74.9506,
              10.8474
            ],
            [
              -74.9448,
              10.8584
            ],
            [
              -74.9334,
              10.87
            ],
            [
              -74.9293,
              10.8818
            ],
            [
              -74.9245,
              10.9351
            ],
            [
              -74.9184,
              10.9453
            ]
          ]
        ]
      },
      "properties": {
        "OBJECTID": 147,
        "DPTO_CCDGO": "03",
        "MPIO_CCDGO": "832",
        "name": "03058",
        "MPIO_CRSLC": "1833",
        "MPIO_NANO_": 1993,
        "MPIO_NAREA": 176.18843217,
        "MPIO_CSMBL": "4",
        "MPIO_CCNCT": "08832",
        "MPIO_NANO": 2012,
        "SHAPE_Leng": 0.666456121378,
        "SHAPE_Area": 0.0145664696365,
        "NOMBRE": "TUBARA",
        "DANE": {
          "dpto_ccdgo": "08",
          "mpio_ccdgo": "832",
          "mpio_cdpmp": "08832",
          "dpto_cnmbr": "ATLÁNTICO",
          "mpio_cnmbr": "TUBARÁ",
          "mpio_crslc": "1833",
          "mpio_tipo": "MUNICIPIO",
          "mpio_narea": 182.825780971,
          "mpio_nano": 2024,
          "shape_Leng": 0.763289190174,
          "shape_Area": 0.0151152514148
        }
      }
    },
    {
      "type": "Feature",
      "geometry": {
        "type": "Polygon",
        "coordinates": [
          [
            [
              -74.9325,
              10.7114
            ],
            [
              -74.9421,
              10.7141
            ],
            [
              -74.935,
              10.7271
            ],
            [
              -74.9357,
              10.7436
            ],
            [
              -74.926,
              10.7553
            ],
            [
              -74.9309,
              10.7667
            ],
            [
              -74.9445,
              10.7776
            ],
            [
              -74.9704,
              10.789
            ],
            [
              -74.9849,
              10.7903
            ],
            [
              -75.0016,
              10.7907
            ],
            [
              -75.0031,
              10.7758
            ],
            [
              -75.0203,
              10.7762
            ],
            [
              -75.0223,
              10.7688
            ],
            [
              -75.0384,
              10.7708
            ],
            [
              -75.0462,
              10.7573
            ],
            [
              -75.0314,
              10.7564
            ],
            [
              -75.0296,
              10.7276
            ],
            [
              -75.0394,
              10.7221
            ],
            [
              -75.0456,
              10.7017
            ],
            [
              -75.0065,
              10.7093
            ],
            [
              -74.987,
              10.6987
            ],
            [
              -74.9809,
              10.7007
            ],
            [
              -74.9699,
              10.6806
            ],
            [
              -74.9643,
              10.692
            ],
            [
              -74.9388,
              10.7011
            ],
            [
              -74.9325,
              10.7114
            ]
          ]
        ]
      },
      "properties": {
        "OBJECTID": 148,
        "DPTO_CCDGO": "03",
        "MPIO_CCDGO": "849",
        "name": "03061",
        "MPIO_CRSLC": "1856",
        "MPIO_NANO_": 1993,
        "MPIO_NAREA": 99.89102957,
        "MPIO_CSMBL": "4",
        "MPIO_CCNCT": "08849",
        "MPIO_NANO": 2012,
        "SHAPE_Leng": 0.533697263193,
        "SHAPE_Area": 0.00825409665832,
        "NOMBRE": "USIACURI",
        "DANE": {
          "dpto_ccdgo": "08",
          "mpio_ccdgo": "849",
          "mpio_cdpmp": "08849",
          "dpto_cnmbr": "ATLÁNTICO",
          "mpio_cnmbr": "USIACURÍ",
          "mpio_crslc": "1856",
          "mpio_tipo": "MUNICIPIO",
          "mpio_narea": 101.378132661,
          "mpio_nano": 2024,
          "shape_Leng": 0.549904542926,
          "shape_Area": 0.00837697776485
        }
      }
    }
  ],
  "name": "03"
}