{
  "type": "FeatureCollection",
  "crs": {
    "type": "name",
    "properties": {
      "name": "urn:ogc:def:crs:OGC:1.3:CRS84"
    }
  },
  "features": [
    {
      "type": "Feature",
      "geometry": {
        "type": "Polygon",
        "coordinates": [
          [
            [
              -74.0067,
              4.8232
            ],
            [
              -74.0315,
              4.8235
            ],
            [
              -74.0522,
              4.8328
            ],
            [
              -74.082,
              4.835
            ],
            [
              -74.0799,
              4.8084
            ],
            [
              -74.1053,
              4.7968
            ],
            [
              -74.1149,
              4.7855
            ],
            [
              -74.1169,
              4.7618
            ],
            [
              -74.13,
              4.746
            ],
            [
              -74.1295,
              4.7304
            ],
            [
              -74.1568,
              4.7254
            ],
            [
              -74.1723,
              4.7114
            ],
            [
              -74.1723,
              4.6962
            ],
            [
              -74.1677,
              4.6877
            ],
            [
              -74.1748,
              4.6766
            ],
            [
              -74.163,
              4.6594
            ],
            [
              -74.2069,
              4.6454
            ],
            [
              -74.2226,
              4.6294
            ],
            [
              -74.2211,
              4.6203
            ],
            [
              -74.204,
              4.6009
            ],
            [
              -74.1838,
              4.5965
            ],
            [
              -74.1738,
              4.5403
            ],
            [
              -74.187,
              4.5274
            ],
            [
              -74.1813,
              4.5135
            ],
            [
              -74.1781,
              4.4864
            ],
            [
              -74.184,
              4.4631
            ],
            [
              -74.1982,
              4.4266
            ],
            [
              -74.204,
              4.4181
            ],
            [
              -74.2141,
              4.3812
            ],
            [
              -74.2179,
              4.3612
            ],
            [
              -74.2138,
              4.3069
            ],
            [
              -74.2171,
              4.2732
            ],
            [
              -74.2055,
              4.2689
            ],
            [
              -74.2043,
              4.2528
            ],
            [
              -74.216,
              4.2372
            ],
            [
              -74.2202,
              4.2253
            ],
            [
              -74.2318,
              4.2167
            ],
            [
              -74.2377,
              4.1955
            ],
            [
              -74.2401,
              4.1867
            ],
            [
              -74.2432,
              4.1596
            ],
            [
              -74.2449,
              4.106
            ],
            [
              -74.26,
              4.0913
            ],
            [
              -74.2797,
              4.102
            ],
            [
              -74.3045,
              4.1089
            ],
            [
              -74.3192,
              4.1263
            ],
            [
              -74.3289,
              4.1251
            ],
            [
              -74.3505,
              4.0747
            ],
            [
              -74.3503,
              4.0581
            ],
            [
              -74.3609,
              4.0484
            ],
            [
              -74.3656,
              4.0347
            ],
            [
              -74.3622,
              4.0124
            ],
            [
              -74.3745,
              3.9861
            ],
            [
              -74.3569,
              3.971
            ],
            [
              -74.3547,
              3.9446
            ],
            [
              -74.3595,
              3.9139
            ],
            [
              -74.3754,
              3.8767
            ],
            [
              -74.3865,
              3.8627
            ],
            [
              -74.3857,
              3.8562
            ],
            [
              -74.3952,
              3.824
            ],
            [
              -74.4121,
              3.8039
            ],
            [
              -74.4157,
              3.7945
            ],
            [
              -74.4337,
              3.779
            ],
            [
              -74.4337,
              3.7646
            ],
            [
              -74.4507,
              3.7499
            ],
            [
              -74.4396,
              3.7306
            ],
            [
              -74.4247,
              3.7414
            ],
            [
              -74.4159,
              3.7408
            ],
            [
              -74.4016,
              3.7374
            ],
            [
              -74.3979,
              3.7451
            ],
            [
              -74.3974,
              3.7537
            ],
            [
              -74.3872,
              3.7607
            ],
            [
              -74.3939,
              3.7699
            ],
            [
              -74.377,
              3.7779
            ],
            [
              -74.3627,
              3.7896
            ],
            [
              -74.3523,
              3.8047
            ],
            [
              -74.3354,
              3.8217
            ],
            [
              -74.3263,
              3.8267
            ],
            [
              -74.3172,
              3.8158
            ],
            [
              -74.2966,
              3.8189
            ],
            [
              -74.2938,
              3.829
            ],
            [
              -74.3175,
              3.879
            ],
            [
              -74.3106,
              3.8882
            ],
            [
              -74.2975,
              3.8833
            ],
            [
              -74.2815,
              3.9015
            ],
            [
              -74.2741,
              3.9243
            ],
            [
              -74.2564,
              3.9279
            ],
            [
              -74.2574,
              3.9495
            ],
            [
              -74.2438,
              3.9551
            ],
            [
              -74.2329,
              3.9782
            ],
            [
              -74.2293,
              3.9943
            ],
            [
              -74.2175,
              4.0082
            ],
            [
              -74.2024,
              4.0141
            ],
            [
              -74.1839,
              4.0088
            ],
            [
              -74.1754,
              4.018
            ],
            [
              -74.1603,
              4.0178
            ],
            [
              -74.1507,
              4.0048
            ],
            [
              -74.1469,
              4.0166
            ],
            [
              -74.1341,
              4.0343
            ],
            [
              -74.1253,
              4.0551
            ],
            [
              -74.1263,
              4.0687
            ],
            [
              -74.1326,
              4.0805
            ],
            [
              -74.1278,
              4.1001
            ],
            [
              -74.1316,
              4.1035
            ],
            [
              -74.1291,
              4.1253
            ],
            [
              -74.1094,
              4.1333
            ],
            [
              -74.1145,
              4.1554
            ],
            [
              -74.1094,
              4.1687
            ],
            [
              -74.1101,
              4.182
            ],
            [
              -74.1213,
              4.1799
            ],
            [
              -74.1255,
              4.1929
            ],
            [
              -74.1357,
              4.2052
            ],
            [
              -74.1454,
              4.2452
            ],
            [
              -74.1522,
              4.2563
            ],
            [
              -74.1292,
              4.2842
            ],
            [
              -74.1191,
              4.3109
            ],
            [
              -74.0982,
              4.3456
            ],
            [
              -74.0944,
              4.3633
            ],
            [
              -74.0977,
              4.3799
            ],
            [
              -74.1113,
              4.3858
            ],
            [
              -74.1168,
              4.4044
            ],
            [
              -74.1094,
              4.4424
            ],
            [
              -74.0919,
              4.4589
            ],
            [
              -74.0764,
              4.4624
            ],
            [
              -74.0737,
              4.5083
            ],
            [
              -74.0483,
              4.5128
            ],
            [
              -74.0423,
              4.5124
            ],
            [
              -74.029,
              4.5585
            ],
            [
              -74.0053,
              4.5606
            ],
            [
              -74.0034,
              4.586
            ],
            [
              -73.9942,
              4.6009
            ],
            [
              -73.9971,
              4.6061
            ],
            [
              -73.9875,
              4.6312
            ],
            [
              -74.0098,
              4.6267
            ],
            [
              -74.0093,
              4.6382
            ],
            [
              -74.0284,
              4.6429
            ],
            [
              -74.0247,
              4.6626
            ],
            [
              -74.007,
              4.6645
            ],
            [
              -74.002,
              4.6746
            ],
            [
              -74.0111,
              4.6835
            ],
            [
              -74.0144,
              4.6958
            ],
            [
              -74.0067,
              4.7274
            ],
            [
              -74.0089,
              4.755
            ],
            [
              -74.0184,
              4.7677
            ],
            [
              -74.0128,
              4.7979
            ],
            [
              -74.006,
              4.7978
            ],
            [
              -74.0067,
              4.8232
            ]
          ]
        ]
      },
      "properties": {
        "OBJECTID": 149,
        "DPTO_CCDGO": "16",
        "MPIO_CCDGO": "001",
        "name": "16001",
        "MPIO_CRSLC": "1538",
        "MPIO_NANO_": 1993,
        "MPIO_NAREA": 1634.96872364,
        "MPIO_CSMBL": "4",
        "MPIO_CCNCT": "11001",
        "MPIO_NANO": 2012,
        "SHAPE_Leng": 3.74377675228,
        "SHAPE_Area": 0.133194651908,
        "NOMBRE": "BOGOTA. D.C.",
        "DANE": {
          "dpto_ccdgo": "11",
          "mpio_ccdgo": "001",
          "mpio_cdpmp": "11001",
          "dpto_cnmbr": "BOGOTÁ, D.C.",
          "mpio_cnmbr": "BOGOTÁ, D.C.",
          "mpio_crslc": "1538",
          "mpio_tipo": "MUNICIPIO",
          "mpio_narea": 1622.85297942,
          "mpio_nano": 2024,
          "shape_Leng": 3.76537100517,
          "shape_Area": 0.13220788536
        }
      }
    }
  ],
  "name": "16"
}