{
  "type": "FeatureCollection",
  "crs": {
    "type": "name",
    "properties": {
      "name": "urn:ogc:def:crs:OGC:1.3:CRS84"
    }
  },
  "features": [
    {
      "type": "Feature",
      "geometry": {
        "type": "Polygon",
        "coordinates": [
          [
            [
              -75.7085,
              4.873
            ],
            [
              -75.7295,
              4.89
            ],
            [
              -75.7378,
              4.8907
            ],
            [
              -75.7739,
              4.8696
            ],
            [
              -75.786,
              4.8882
            ],
            [
              -75.805,
              4.8885
            ],
            [
              -75.8154,
              4.9061
            ],
            [
              -75.829,
              4.9033
            ],
            [
              -75.843,
              4.87
            ],
            [
              -75.8613,
              4.8816
            ],
            [
              -75.8859,
              4.8928
            ],
            [
              -75.9034,
              4.8766
            ],
            [
              -75.9142,
              4.8735
            ],
            [
              -75.9027,
              4.8372
            ],
            [
              -75.9105,
              4.8174
            ],
            [
              -75.9359,
              4.807
            ],
            [
              -75.9232,
              4.8024
            ],
            [
              -75.9277,
              4.7739
            ],
            [
              -75.9243,
              4.7631
            ],
            [
              -75.9091,
              4.7524
            ],
            [
              -75.8968,
              4.7588
            ],
            [
              -75.8888,
              4.7546
            ],
            [
              -75.8738,
              4.7715
            ],
            [
              -75.8528,
              4.7788
            ],
            [
              -75.8452,
              4.7663
            ],
            [
              -75.8486,
              4.7385
            ],
            [
              -75.8561,
              4.7278
            ],
            [
              -75.8437,
              4.7276
            ],
            [
              -75.8315,
              4.7378
            ],
            [
              -75.7915,
              4.7181
            ],
            [
              -75.7762,
              4.7217
            ],
            [
              -75.7602,
              4.7111
            ],
            [
              -75.7328,
              4.7079
            ],
            [
              -75.7136,
              4.7138
            ],
            [
              -75.698,
              4.721
            ],
            [
              -75.6598,
              4.6999
            ],
            [
              -75.6472,
              4.7091
            ],
            [
              -75.6143,
              4.7013
            ],
            [
              -75.6066,
              4.7094
            ],
            [
              -75.5939,
              4.7028
            ],
            [
              -75.5833,
              4.7074
            ],
            [
              -75.5645,
              4.7011
            ],
            [
              -75.5453,
              4.7012
            ],
            [
              -75.5077,
              4.6877
            ],
            [
              -75.4922,
              4.6666
            ],
            [
              -75.4794,
              4.6632
            ],
            [
              -75.4646,
              4.6794
            ],
            [
              -75.44,
              4.6825
            ],
            [
              -75.4387,
              4.6953
            ],
            [
              -75.4231,
              4.6937
            ],
            [
              -75.4114,
              4.6994
            ],
            [
              -75.4054,
              4.7103
            ],
            [
              -75.3887,
              4.7154
            ],
            [
              -75.3782,
              4.7305
            ],
            [
              -75.388,
              4.7464
            ],
            [
              -75.3777,
              4.7689
            ],
            [
              -75.3798,
              4.7765
            ],
            [
              -75.3755,
              4.8027
            ],
            [
              -75.3952,
              4.7864
            ],
            [
              -75.4089,
              4.7926
            ],
            [
              -75.4179,
              4.7758
            ],
            [
              -75.4366,
              4.7621
            ],
            [
              -75.4551,
              4.7341
            ],
            [
              -75.4675,
              4.7311
            ],
            [
              -75.4683,
              4.7213
            ],
            [
              -75.4856,
              4.7162
            ],
            [
              -75.5009,
              4.7048
            ],
            [
              -75.5151,
              4.7079
            ],
            [
              -75.5219,
              4.6999
            ],
            [
              -75.5505,
              4.7107
            ],
            [
              -75.5728,
              4.7289
            ],
            [
              -75.6036,
              4.7447
            ],
            [
              -75.6059,
              4.7596
            ],
            [
              -75.6252,
              4.7659
            ],
            [
              -75.6293,
              4.7735
            ],
            [
              -75.6419,
              4.7781
            ],
            [
              -75.6459,
              4.7922
            ],
            [
              -75.6573,
              4.8013
            ],
            [
              -75.6926,
              4.821
            ],
            [
              -75.7092,
              4.8222
            ],
            [
              -75.719,
              4.8296
            ],
            [
              -75.7085,
              4.873
            ]
          ]
        ]
      },
      "properties": {
        "OBJECTID": 832,
        "DPTO_CCDGO": "24",
        "MPIO_CCDGO": "001",
        "name": "24001",
        "MPIO_CRSLC": "1863",
        "MPIO_NANO_": 1993,
        "MPIO_NAREA": 609.21123497,
        "MPIO_CSMBL": "4",
        "MPIO_CCNCT": "66001",
        "MPIO_NANO": 2012,
        "SHAPE_Leng": 1.99967059166,
        "SHAPE_Area": 0.0496326286029,
        "NOMBRE": "PEREIRA",
        "DANE": {
          "dpto_ccdgo": "66",
          "mpio_ccdgo": "001",
          "mpio_cdpmp": "66001",
          "dpto_cnmbr": "RISARALDA",
          "mpio_cnmbr": "PEREIRA",
          "mpio_crslc": "1863",
          "mpio_tipo": "MUNICIPIO",
          "mpio_narea": 608.012203213,
          "mpio_nano": 2024,
          "shape_Leng": 2.02576283945,
          "shape_Area": 0.0495227012967
        }
      }
    },
    {
      "type": "Feature",
      "geometry": {
        "type": "Polygon",
        "coordinates": [
          [
            [
              -75.9286,
              5.2266
            ],
            [
              -75.9415,
              5.2236
            ],
            [
              -75.9629,
              5.2332
            ],
            [
              -75.9682,
              5.22
            ],
            [
              -75.985,
              5.2053
            ],
            [
              -75.9771,
              5.1944
            ],
            [
              -75.9767,
              5.1783
            ],
            [
              -75.9885,
              5.159
            ],
            [
              -76.0082,
              5.1552
            ],
            [
              -76.0163,
              5.1489
            ],
            [
              -76.0453,
              5.1441
            ],
            [
              -76.0605,
              5.132
            ],
            [
              -76.044,
              5.1251
            ],
            [
              -76.0332,
              5.1277
            ],
            [
              -76.0004,
              5.127
            ],
            [
              -75.9689,
              5.0946
            ],
            [
              -75.9428,
              5.0798
            ],
            [
              -75.9499,
              5.0543
            ],
            [
              -75.922,
              5.0421
            ],
            [
              -75.9123,
              5.0737
            ],
            [
              -75.9174,
              5.0787
            ],
            [
              -75.8989,
              5.1067
            ],
            [
              -75.8884,
              5.1166
            ],
            [
              -75.8838,
              5.1305
            ],
            [
              -75.8874,
              5.1384
            ],
            [
              -75.904,
              5.1479
            ],
            [
              -75.9309,
              5.1765
            ],
            [
              -75.9312,
              5.2057
            ],
            [
              -75.9267,
              5.2117
            ],
            [
              -75.9286,
              5.2266
            ]
          ]
        ]
      },
      "properties": {
        "OBJECTID": 833,
        "DPTO_CCDGO": "24",
        "MPIO_CCDGO": "045",
        "name": "24008",
        "MPIO_CRSLC": "1893",
        "MPIO_NANO_": 1993,
        "MPIO_NAREA": 154.916679,
        "MPIO_CSMBL": "4",
        "MPIO_CCNCT": "66045",
        "MPIO_NANO": 2012,
        "SHAPE_Leng": 0.78352660355,
        "SHAPE_Area": 0.0126301952334,
        "NOMBRE": "APIA",
        "DANE": {
          "dpto_ccdgo": "66",
          "mpio_ccdgo": "045",
          "mpio_cdpmp": "66045",
          "dpto_cnmbr": "RISARALDA",
          "mpio_cnmbr": "APÍA",
          "mpio_crslc": "1893",
          "mpio_tipo": "MUNICIPIO",
          "mpio_narea": 149.980513651,
          "mpio_nano": 2024,
          "shape_Leng": 0.73907298876,
          "shape_Area": 0.0122193318999
        }
      }
    },
    {
      "type": "Feature",
      "geometry": {
        "type": "Polygon",
        "coordinates": [
          [
            [
              -75.8816,
              4.913
            ],
            [
              -75.881,
              4.9255
            ],
            [
              -75.8893,
              4.9286
            ],
            [
              -75.92,
              4.9631
            ],
            [
              -75.9357,
              4.9757
            ],
            [
              -75.9377,
              4.9886
            ],
            [
              -75.9456,
              4.9898
            ],
            [
              -75.963,
              4.986
            ],
            [
              -75.9649,
              4.9615
            ],
            [
              -75.9758,
              4.9648
            ],
            [
              -75.9918,
              4.947
            ],
            [
              -75.985,
              4.9356
            ],
            [
              -75.992,
              4.9199
            ],
            [
              -75.9902,
              4.9131
            ],
            [
              -75.9859,
              4.9049
            ],
            [
              -75.9891,
              4.8811
            ],
            [
              -75.9752,
              4.8614
            ],
            [
              -75.9582,
              4.8645
            ],
            [
              -75.943,
              4.8568
            ],
            [
              -75.9272,
              4.8627
            ],
            [
              -75.9142,
              4.8735
            ],
            [
              -75.9034,
              4.8766
            ],
            [
              -75.8859,
              4.8928
            ],
            [
              -75.8896,
              4.8977
            ],
            [
              -75.8816,
              4.913
            ]
          ]
        ]
      },
      "properties": {
        "OBJECTID": 834,
        "DPTO_CCDGO": "24",
        "MPIO_CCDGO": "075",
        "name": "24013",
        "MPIO_CRSLC": "1923",
        "MPIO_NANO_": 1993,
        "MPIO_NAREA": 120.15294637,
        "MPIO_CSMBL": "4",
        "MPIO_CCNCT": "66075",
        "MPIO_NANO": 2012,
        "SHAPE_Leng": 0.495850699099,
        "SHAPE_Area": 0.00979260696724,
        "NOMBRE": "BALBOA",
        "DANE": {
          "dpto_ccdgo": "66",
          "mpio_ccdgo": "075",
          "mpio_cdpmp": "66075",
          "dpto_cnmbr": "RISARALDA",
          "mpio_cnmbr": "BALBOA",
          "mpio_crslc": "1923",
          "mpio_tipo": "MUNICIPIO",
          "mpio_narea": 119.485984953,
          "mpio_nano": 2024,
          "shape_Leng": 0.519541141633,
          "shape_Area": 0.00973174966696
        }
      }
    },
    {
      "type": "Feature",
      "geometry": {
        "type": "Polygon",
        "coordinates": [
          [
            [
              -75.8511,
              5.2728
            ],
            [
              -75.8688,
              5.2743
            ],
            [
              -75.8838,
              5.2707
            ],
            [
              -75.8904,
              5.2604
            ],
            [
              -75.9004,
              5.2569
            ],
            [
              -75.9212,
              5.257
            ],
            [
              -75.9243,
              5.2458
            ],
            [
              -75.9286,
              5.2266
            ],
            [
              -75.9267,
              5.2117
            ],
            [
              -75.9312,
              5.2057
            ],
            [
              -75.9309,
              5.1765
            ],
            [
              -75.904,
              5.1479
            ],
            [
              -75.8874,
              5.1384
            ],
            [
              -75.8838,
              5.1305
            ],
            [
              -75.8769,
              5.1328
            ],
            [
              -75.8548,
              5.1121
            ],
            [
              -75.8443,
              5.108
            ],
            [
              -75.8366,
              5.1148
            ],
            [
              -75.8325,
              5.1371
            ],
            [
              -75.8335,
              5.1506
            ],
            [
              -75.8027,
              5.1982
            ],
            [
              -75.8081,
              5.2101
            ],
            [
              -75.8035,
              5.2243
            ],
            [
              -75.8051,
              5.2353
            ],
            [
              -75.8205,
              5.2435
            ],
            [
              -75.8252,
              5.2593
            ],
            [
              -75.8237,
              5.2701
            ],
            [
              -75.8511,
              5.2728
            ]
          ]
        ]
      },
      "properties": {
        "OBJECTID": 835,
        "DPTO_CCDGO": "24",
        "MPIO_CCDGO": "088",
        "name": "24021",
        "MPIO_CRSLC": "Ordenanza 27 de 1911",
        "MPIO_NANO_": 1993,
        "MPIO_NAREA": 179.24380928,
        "MPIO_CSMBL": "4",
        "MPIO_CCNCT": "66088",
        "MPIO_NANO": 2012,
        "SHAPE_Leng": 0.589974537363,
        "SHAPE_Area": 0.0146140149174,
        "NOMBRE": "BELEN DE UMBRIA",
        "DANE": {
          "dpto_ccdgo": "66",
          "mpio_ccdgo": "088",
          "mpio_cdpmp": "66088",
          "dpto_cnmbr": "RISARALDA",
          "mpio_cnmbr": "BELÉN DE UMBRÍA",
          "mpio_crslc": "Ordenanza 27 de 1911",
          "mpio_tipo": "MUNICIPIO",
          "mpio_narea": 180.600438726,
          "mpio_nano": 2024,
          "shape_Leng": 0.579565935784,
          "shape_Area": 0.0147168053874
        }
      }
    },
    {
      "type": "Feature",
      "geometry": {
        "type": "Polygon",
        "coordinates": [
          [
            [
              -75.6459,
              4.7922
            ],
            [
              -75.6316,
              4.8006
            ],
            [
              -75.6233,
              4.8248
            ],
            [
              -75.6309,
              4.8307
            ],
            [
              -75.6276,
              4.843
            ],
            [
              -75.636,
              4.853
            ],
            [
              -75.651,
              4.8827
            ],
            [
              -75.6693,
              4.8836
            ],
            [
              -75.6787,
              4.8781
            ],
            [
              -75.6889,
              4.8889
            ],
            [
              -75.7002,
              4.8747
            ],
            [
              -75.7085,
              4.873
            ],
            [
              -75.719,
              4.8296
            ],
            [
              -75.7092,
              4.8222
            ],
            [
              -75.6926,
              4.821
            ],
            [
              -75.6573,
              4.8013
            ],
            [
              -75.6459,
              4.7922
            ]
          ]
        ]
      },
      "properties": {
        "OBJECTID": 836,
        "DPTO_CCDGO": "24",
        "MPIO_CCDGO": "170",
        "name": "24025",
        "MPIO_CRSLC": "Ordenanza 12 de Diciembre 6 de 1972",
        "MPIO_NANO_": 1993,
        "MPIO_NAREA": 68.25431374,
        "MPIO_CSMBL": "4",
        "MPIO_CCNCT": "66170",
        "MPIO_NANO": 2012,
        "SHAPE_Leng": 0.353366367839,
        "SHAPE_Area": 0.00556101261655,
        "NOMBRE": "DOSQUEBRADAS",
        "DANE": {
          "dpto_ccdgo": "66",
          "mpio_ccdgo": "170",
          "mpio_cdpmp": "66170",
          "dpto_cnmbr": "RISARALDA",
          "mpio_cnmbr": "DOSQUEBRADAS",
          "mpio_crslc": "Ordenanza 12 de Diciembre 6 de 1972",
          "mpio_tipo": "MUNICIPIO",
          "mpio_narea": 70.1288668445,
          "mpio_nano": 2024,
          "shape_Leng": 0.366030353759,
          "shape_Area": 0.00571277806458
        }
      }
    },
    {
      "type": "Feature",
      "geometry": {
        "type": "Polygon",
        "coordinates": [
          [
            [
              -75.7512,
              5.3861
            ],
            [
              -75.7651,
              5.3861
            ],
            [
              -75.792,
              5.3656
            ],
            [
              -75.8331,
              5.3611
            ],
            [
              -75.8475,
              5.3368
            ],
            [
              -75.8544,
              5.3374
            ],
            [
              -75.8592,
              5.3202
            ],
            [
              -75.8568,
              5.3074
            ],
            [
              -75.8483,
              5.2989
            ],
            [
              -75.8511,
              5.2728
            ],
            [
              -75.8237,
              5.2701
            ],
            [
              -75.8141,
              5.2712
            ],
            [
              -75.8021,
              5.2813
            ],
            [
              -75.7869,
              5.2848
            ],
            [
              -75.7731,
              5.2738
            ],
            [
              -75.7631,
              5.2734
            ],
            [
              -75.7483,
              5.2843
            ],
            [
              -75.751,
              5.2954
            ],
            [
              -75.7693,
              5.3209
            ],
            [
              -75.7791,
              5.3245
            ],
            [
              -75.7628,
              5.3528
            ],
            [
              -75.7512,
              5.3861
            ]
          ]
        ]
      },
      "properties": {
        "OBJECTID": 837,
        "DPTO_CCDGO": "24",
        "MPIO_CCDGO": "318",
        "name": "24029",
        "MPIO_CRSLC": "1921",
        "MPIO_NANO_": 1993,
        "MPIO_NAREA": 92.60785748,
        "MPIO_CSMBL": "4",
        "MPIO_CCNCT": "66318",
        "MPIO_NANO": 2012,
        "SHAPE_Leng": 0.526802704371,
        "SHAPE_Area": 0.0075515340026,
        "NOMBRE": "GUATICA",
        "DANE": {
          "dpto_ccdgo": "66",
          "mpio_ccdgo": "318",
          "mpio_cdpmp": "66318",
          "dpto_cnmbr": "RISARALDA",
          "mpio_cnmbr": "GUÁTICA",
          "mpio_crslc": "1921",
          "mpio_tipo": "MUNICIPIO",
          "mpio_narea": 100.820639083,
          "mpio_nano": 2024,
          "shape_Leng": 0.491848284088,
          "shape_Area": 0.00821779538693
        }
      }
    },
    {
      "type": "Feature",
      "geometry": {
        "type": "Polygon",
        "coordinates": [
          [
            [
              -75.9456,
              4.9898
            ],
            [
              -75.9574,
              4.9982
            ],
            [
              -75.9627,
              5.0195
            ],
            [
              -75.9826,
              5.017
            ],
            [
              -75.9907,
              5.025
            ],
            [
              -75.9899,
              5.0371
            ],
            [
              -76.0104,
              5.0375
            ],
            [
              -76.0237,
              5.0241
            ],
            [
              -76.0371,
              5.0291
            ],
            [
              -76.0572,
              5.03
            ],
            [
              -76.077,
              5.0472
            ],
            [
              -76.0797,
              5.0407
            ],
            [
              -76.0642,
              5.0154
            ],
            [
              -76.0491,
              5.0072
            ],
            [
              -76.0479,
              4.9981
            ],
            [
              -76.0327,
              4.9622
            ],
            [
              -76.0276,
              4.9385
            ],
            [
              -76.0091,
              4.924
            ],
            [
              -75.9902,
              4.9131
            ],
            [
              -75.992,
              4.9199
            ],
            [
              -75.985,
              4.9356
            ],
            [
              -75.9918,
              4.947
            ],
            [
              -75.9758,
              4.9648
            ],
            [
              -75.9649,
              4.9615
            ],
            [
              -75.963,
              4.986
            ],
            [
              -75.9456,
              4.9898
            ]
          ]
        ]
      },
      "properties": {
        "OBJECTID": 838,
        "DPTO_CCDGO": "24",
        "MPIO_CCDGO": "383",
        "name": "24038",
        "MPIO_CRSLC": "Ordenanza 96 de Noviembre 30 de 1959",
        "MPIO_NANO_": 1993,
        "MPIO_NAREA": 90.43945512,
        "MPIO_CSMBL": "4",
        "MPIO_CCNCT": "66383",
        "MPIO_NANO": 2012,
        "SHAPE_Leng": 0.499405840784,
        "SHAPE_Area": 0.00737199788471,
        "NOMBRE": "LA CELIA",
        "DANE": {
          "dpto_ccdgo": "66",
          "mpio_ccdgo": "383",
          "mpio_cdpmp": "66383",
          "dpto_cnmbr": "RISARALDA",
          "mpio_cnmbr": "LA CELIA",
          "mpio_crslc": "Ordenanza 96 de Noviembre 30 de 1959",
          "mpio_tipo": "MUNICIPIO",
          "mpio_narea": 92.4736614818,
          "mpio_nano": 2024,
          "shape_Leng": 0.528457776998,
          "shape_Area": 0.00753188825644
        }
      }
    },
    {
      "type": "Feature",
      "geometry": {
        "type": "Polygon",
        "coordinates": [
          [
            [
              -75.8148,
              4.9194
            ],
            [
              -75.8401,
              4.9294
            ],
            [
              -75.8672,
              4.9335
            ],
            [
              -75.8721,
              4.9145
            ],
            [
              -75.8816,
              4.913
            ],
            [
              -75.8896,
              4.8977
            ],
            [
              -75.8859,
              4.8928
            ],
            [
              -75.8613,
              4.8816
            ],
            [
              -75.843,
              4.87
            ],
            [
              -75.829,
              4.9033
            ],
            [
              -75.8154,
              4.9061
            ],
            [
              -75.8148,
              4.9194
            ]
          ]
        ]
      },
      "properties": {
        "OBJECTID": 839,
        "DPTO_CCDGO": "24",
        "MPIO_CCDGO": "400",
        "name": "24046",
        "MPIO_CRSLC": "Ordenanza 57 de 1959",
        "MPIO_NANO_": 1993,
        "MPIO_NAREA": 34.86176117,
        "MPIO_CSMBL": "4",
        "MPIO_CCNCT": "66400",
        "MPIO_NANO": 2012,
        "SHAPE_Leng": 0.263123627731,
        "SHAPE_Area": 0.00284103432235,
        "NOMBRE": "LA VIRGINIA",
        "DANE": {
          "dpto_ccdgo": "66",
          "mpio_ccdgo": "400",
          "mpio_cdpmp": "66400",
          "dpto_cnmbr": "RISARALDA",
          "mpio_cnmbr": "LA VIRGINIA",
          "mpio_crslc": "Ordenanza 57 de 1959",
          "mpio_tipo": "MUNICIPIO",
          "mpio_narea": 32.9415703567,
          "mpio_nano": 2024,
          "shape_Leng": 0.261820461813,
          "shape_Area": 0.00268320066494
        }
      }
    },
    {
      "type": "Feature",
      "geometry": {
        "type": "Polygon",
        "coordinates": [
          [
            [
              -75.7142,
              4.9578
            ],
            [
              -75.7148,
              4.9764
            ],
            [
              -75.7233,
              4.9997
            ],
            [
              -75.734,
              5.0168
            ],
            [
              -75.7468,
              5.0468
            ],
            [
              -75.7585,
              5.0379
            ],
            [
              -75.7636,
              5.0236
            ],
            [
              -75.7724,
              5.0201
            ],
            [
              -75.7771,
              5.0063
            ],
            [
              -75.7856,
              4.9971
            ],
            [
              -75.7962,
              4.9663
            ],
            [
              -75.7884,
              4.9494
            ],
            [
              -75.7927,
              4.9369
            ],
            [
              -75.8004,
              4.9371
            ],
            [
              -75.8148,
              4.9194
            ],
            [
              -75.8154,
              4.9061
            ],
            [
              -75.805,
              4.8885
            ],
            [
              -75.786,
              4.8882
            ],
            [
              -75.7739,
              4.8696
            ],
            [
              -75.7378,
              4.8907
            ],
            [
              -75.7295,
              4.89
            ],
            [
              -75.7085,
              4.873
            ],
            [
              -75.7002,
              4.8747
            ],
            [
              -75.6889,
              4.8889
            ],
            [
              -75.6856,
              4.8997
            ],
            [
              -75.7117,
              4.9241
            ],
            [
              -75.7177,
              4.937
            ],
            [
              -75.7142,
              4.9578
            ]
          ]
        ]
      },
      "properties": {
        "OBJECTID": 840,
        "DPTO_CCDGO": "24",
        "MPIO_CCDGO": "440",
        "name": "24054",
        "MPIO_CRSLC": "Ordenanza 24 de 1915",
        "MPIO_NANO_": 1993,
        "MPIO_NAREA": 148.35566826,
        "MPIO_CSMBL": "4",
        "MPIO_CCNCT": "66440",
        "MPIO_NANO": 2012,
        "SHAPE_Leng": 0.612579409396,
        "SHAPE_Area": 0.0120898840513,
        "NOMBRE": "MARSELLA",
        "DANE": {
          "dpto_ccdgo": "66",
          "mpio_ccdgo": "440",
          "mpio_cdpmp": "66440",
          "dpto_cnmbr": "RISARALDA",
          "mpio_cnmbr": "MARSELLA",
          "mpio_crslc": "Ordenanza 24 de 1915",
          "mpio_tipo": "MUNICIPIO",
          "mpio_narea": 149.319137377,
          "mpio_nano": 2024,
          "shape_Leng": 0.612524011858,
          "shape_Area": 0.0121644902099
        }
      }
    },
    {
      "type": "Feature",
      "geometry": {
        "type": "Polygon",
        "coordinates": [
          [
            [
              -75.9061,
              5.4811
            ],
            [
              -75.9227,
              5.493
            ],
            [
              -75.9303,
              5.5079
            ],
            [
              -75.9695,
              5.5125
            ],
            [
              -75.9829,
              5.5189
            ],
            [
              -75.988,
              5.5373
            ],
            [
              -75.9986,
              5.5411
            ],
            [
              -76.0025,
              5.5602
            ],
            [
              -76.0091,
              5.5676
            ],
            [
              -76.0205,
              5.5633
            ],
            [
              -76.037,
              5.5672
            ],
            [
              -76.0534,
              5.5527
            ],
            [
              -76.072,
              5.5485
            ],
            [
              -76.0854,
              5.5343
            ],
            [
              -76.0794,
              5.5246
            ],
            [
              -76.0756,
              5.4996
            ],
            [
              -76.0804,
              5.4849
            ],
            [
              -76.0778,
              5.4717
            ],
            [
              -76.0881,
              5.4465
            ],
            [
              -76.0848,
              5.4319
            ],
            [
              -76.0687,
              5.3898
            ],
            [
              -76.0618,
              5.367
            ],
            [
              -76.0504,
              5.3707
            ],
            [
              -76.0203,
              5.3601
            ],
            [
              -76.0031,
              5.3594
            ],
            [
              -75.9773,
              5.3474
            ],
            [
              -75.9698,
              5.3486
            ],
            [
              -75.9538,
              5.341
            ],
            [
              -75.9523,
              5.3292
            ],
            [
              -75.9584,
              5.3143
            ],
            [
              -75.9611,
              5.2902
            ],
            [
              -75.9493,
              5.2748
            ],
            [
              -75.9462,
              5.256
            ],
            [
              -75.9243,
              5.2458
            ],
            [
              -75.9212,
              5.257
            ],
            [
              -75.9004,
              5.2569
            ],
            [
              -75.8904,
              5.2604
            ],
            [
              -75.8838,
              5.2707
            ],
            [
              -75.8688,
              5.2743
            ],
            [
              -75.8511,
              5.2728
            ],
            [
              -75.8483,
              5.2989
            ],
            [
              -75.8568,
              5.3074
            ],
            [
              -75.8592,
              5.3202
            ],
            [
              -75.8544,
              5.3374
            ],
            [
              -75.8475,
              5.3368
            ],
            [
              -75.8331,
              5.3611
            ],
            [
              -75.8582,
              5.377
            ],
            [
              -75.8523,
              5.4185
            ],
            [
              -75.8633,
              5.4423
            ],
            [
              -75.868,
              5.4902
            ],
            [
              -75.8836,
              5.4834
            ],
            [
              -75.9061,
              5.4811
            ]
          ]
        ]
      },
      "properties": {
        "OBJECTID": 841,
        "DPTO_CCDGO": "24",
        "MPIO_CCDGO": "456",
        "name": "24062",
        "MPIO_CRSLC": "Ordenanza 11 del 18 de Mayo de 1925",
        "MPIO_NANO_": 1993,
        "MPIO_NAREA": 641.23564447,
        "MPIO_CSMBL": "4",
        "MPIO_CCNCT": "66456",
        "MPIO_NANO": 2012,
        "SHAPE_Leng": 1.31387476841,
        "SHAPE_Area": 0.0523028856136,
        "NOMBRE": "MISTRATO",
        "DANE": {
          "dpto_ccdgo": "66",
          "mpio_ccdgo": "456",
          "mpio_cdpmp": "66456",
          "dpto_cnmbr": "RISARALDA",
          "mpio_cnmbr": "MISTRATÓ",
          "mpio_crslc": "Ordenanza 11 del 18 de Mayo de 1925",
          "mpio_tipo": "MUNICIPIO",
          "mpio_narea": 564.743480239,
          "mpio_nano": 2024,
          "shape_Leng": 1.11878486796,
          "shape_Area": 0.0460306641054
        }
      }
    },
    {
      "type": "Feature",
      "geometry": {
        "type": "Polygon",
        "coordinates": [
          [
            [
              -76.0881,
              5.4465
            ],
            [
              -76.098,
              5.4488
            ],
            [
              -76.1097,
              5.442
            ],
            [
              -76.1141,
              5.4295
            ],
            [
              -76.1271,
              5.4217
            ],
            [
              -76.1697,
              5.4098
            ],
            [
              -76.1788,
              5.402
            ],
            [
              -76.1912,
              5.4146
            ],
            [
              -76.1974,
              5.3699
            ],
            [
              -76.2063,
              5.3492
            ],
            [
              -76.202,
              5.3295
            ],
            [
              -76.1908,
              5.304
            ],
            [
              -76.1775,
              5.2884
            ],
            [
              -76.1736,
              5.2603
            ],
            [
              -76.1625,
              5.2476
            ],
            [
              -76.1425,
              5.2342
            ],
            [
              -76.1425,
              5.206
            ],
            [
              -76.1325,
              5.1834
            ],
            [
              -76.1182,
              5.1685
            ],
            [
              -76.0963,
              5.1651
            ],
            [
              -76.077,
              5.1527
            ],
            [
              -76.0605,
              5.132
            ],
            [
              -76.0453,
              5.1441
            ],
            [
              -76.0163,
              5.1489
            ],
            [
              -76.0082,
              5.1552
            ],
            [
              -75.9885,
              5.159
            ],
            [
              -75.9767,
              5.1783
            ],
            [
              -75.9771,
              5.1944
            ],
            [
              -75.985,
              5.2053
            ],
            [
              -75.9682,
              5.22
            ],
            [
              -75.9629,
              5.2332
            ],
            [
              -75.9415,
              5.2236
            ],
            [
              -75.9286,
              5.2266
            ],
            [
              -75.9243,
              5.2458
            ],
            [
              -75.9462,
              5.256
            ],
            [
              -75.9493,
              5.2748
            ],
            [
              -75.9611,
              5.2902
            ],
            [
              -75.9584,
              5.3143
            ],
            [
              -75.9523,
              5.3292
            ],
            [
              -75.9538,
              5.341
            ],
            [
              -75.9698,
              5.3486
            ],
            [
              -75.9773,
              5.3474
            ],
            [
              -76.0031,
              5.3594
            ],
            [
              -76.0203,
              5.3601
            ],
            [
              -76.0504,
              5.3707
            ],
            [
              -76.0618,
              5.367
            ],
            [
              -76.0687,
              5.3898
            ],
            [
              -76.0848,
              5.4319
            ],
            [
              -76.0881,
              5.4465
            ]
          ]
        ]
      },
      "properties": {
        "OBJECTID": 842,
        "DPTO_CCDGO": "24",
        "MPIO_CCDGO": "572",
        "name": "24070",
        "MPIO_CRSLC": "1912",
        "MPIO_NANO_": 1993,
        "MPIO_NAREA": 919.94170449,
        "MPIO_CSMBL": "4",
        "MPIO_CCNCT": "66572",
        "MPIO_NANO": 2012,
        "SHAPE_Leng": 1.42490157413,
        "SHAPE_Area": 0.0750247134549,
        "NOMBRE": "PUEBLO RICO",
        "DANE": {
          "dpto_ccdgo": "66",
          "mpio_ccdgo": "572",
          "mpio_cdpmp": "66572",
          "dpto_cnmbr": "RISARALDA",
          "mpio_cnmbr": "PUEBLO RICO",
          "mpio_crslc": "1912",
          "mpio_tipo": "MUNICIPIO",
          "mpio_narea": 613.767813145,
          "mpio_nano": 2024,
          "shape_Leng": 1.10986091588,
          "shape_Area": 0.0500096817668
        }
      }
    },
    {
      "type": "Feature",
      "geometry": {
        "type": "Polygon",
        "coordinates": [
          [
            [
              -75.6482,
              5.3069
            ],
            [
              -75.6591,
              5.318
            ],
            [
              -75.6666,
              5.3385
            ],
            [
              -75.6662,
              5.354
            ],
            [
              -75.6781,
              5.3544
            ],
            [
              -75.6978,
              5.3775
            ],
            [
              -75.6986,
              5.3879
            ],
            [
              -75.7124,
              5.3862
            ],
            [
              -75.721,
              5.3952
            ],
            [
              -75.7393,
              5.3977
            ],
            [
              -75.7512,
              5.3861
            ],
            [
              -75.7628,
              5.3528
            ],
            [
              -75.7791,
              5.3245
            ],
            [
              -75.7693,
              5.3209
            ],
            [
              -75.751,
              5.2954
            ],
            [
              -75.7483,
              5.2843
            ],
            [
              -75.7461,
              5.275
            ],
            [
              -75.7189,
              5.2616
            ],
            [
              -75.6997,
              5.2615
            ],
            [
              -75.6937,
              5.2552
            ],
            [
              -75.6686,
              5.2661
            ],
            [
              -75.6668,
              5.2756
            ],
            [
              -75.6622,
              5.29
            ],
            [
              -75.6482,
              5.3069
            ]
          ]
        ]
      },
      "properties": {
        "OBJECTID": 843,
        "DPTO_CCDGO": "24",
        "MPIO_CCDGO": "594",
        "name": "24078",
        "MPIO_CRSLC": "1917",
        "MPIO_NANO_": 1993,
        "MPIO_NAREA": 158.32861656,
        "MPIO_CSMBL": "4",
        "MPIO_CCNCT": "66594",
        "MPIO_NANO": 2012,
        "SHAPE_Leng": 0.556501861573,
        "SHAPE_Area": 0.0129096598317,
        "NOMBRE": "QUINCHIA",
        "DANE": {
          "dpto_ccdgo": "66",
          "mpio_ccdgo": "594",
          "mpio_cdpmp": "66594",
          "dpto_cnmbr": "RISARALDA",
          "mpio_cnmbr": "QUINCHÍA",
          "mpio_crslc": "1917",
          "mpio_tipo": "MUNICIPIO",
          "mpio_narea": 140.142967001,
          "mpio_nano": 2024,
          "shape_Leng": 0.499541478331,
          "shape_Area": 0.0114240498006
        }
      }
    },
    {
      "type": "Feature",
      "geometry": {
        "type": "Polygon",
        "coordinates": [
          [
            [
              -75.5723,
              4.9362
            ],
            [
              -75.5971,
              4.9293
            ],
            [
              -75.6169,
              4.9372
            ],
            [
              -75.6158,
              4.9454
            ],
            [
              -75.6241,
              4.9716
            ],
            [
              -75.6401,
              4.9706
            ],
            [
              -75.6542,
              4.958
            ],
            [
              -75.6527,
              4.9508
            ],
            [
              -75.666,
              4.9427
            ],
            [
              -75.6983,
              4.9439
            ],
            [
              -75.7142,
              4.9578
            ],
            [
              -75.7177,
              4.937
            ],
            [
              -75.7117,
              4.9241
            ],
            [
              -75.6856,
              4.8997
            ],
            [
              -75.6889,
              4.8889
            ],
            [
              -75.6787,
              4.8781
            ],
            [
              -75.6693,
              4.8836
            ],
            [
              -75.651,
              4.8827
            ],
            [
              -75.636,
              4.853
            ],
            [
              -75.6276,
              4.843
            ],
            [
              -75.6309,
              4.8307
            ],
            [
              -75.6233,
              4.8248
            ],
            [
              -75.6316,
              4.8006
            ],
            [
              -75.6459,
              4.7922
            ],
            [
              -75.6419,
              4.7781
            ],
            [
              -75.6293,
              4.7735
            ],
            [
              -75.6252,
              4.7659
            ],
            [
              -75.6059,
              4.7596
            ],
            [
              -75.6036,
              4.7447
            ],
            [
              -75.5728,
              4.7289
            ],
            [
              -75.5505,
              4.7107
            ],
            [
              -75.5219,
              4.6999
            ],
            [
              -75.5151,
              4.7079
            ],
            [
              -75.5009,
              4.7048
            ],
            [
              -75.4856,
              4.7162
            ],
            [
              -75.4683,
              4.7213
            ],
            [
              -75.4675,
              4.7311
            ],
            [
              -75.4551,
              4.7341
            ],
            [
              -75.4366,
              4.7621
            ],
            [
              -75.4179,
              4.7758
            ],
            [
              -75.4089,
              4.7926
            ],
            [
              -75.3952,
              4.7864
            ],
            [
              -75.3755,
              4.8027
            ],
            [
              -75.3832,
              4.7998
            ],
            [
              -75.3994,
              4.8077
            ],
            [
              -75.4047,
              4.804
            ],
            [
              -75.427,
              4.8166
            ],
            [
              -75.4314,
              4.8364
            ],
            [
              -75.4377,
              4.839
            ],
            [
              -75.4387,
              4.8552
            ],
            [
              -75.4519,
              4.8695
            ],
            [
              -75.4544,
              4.8845
            ],
            [
              -75.4729,
              4.8908
            ],
            [
              -75.4742,
              4.9027
            ],
            [
              -75.4831,
              4.9163
            ],
            [
              -75.5119,
              4.9243
            ],
            [
              -75.5375,
              4.9165
            ],
            [
              -75.5434,
              4.9285
            ],
            [
              -75.5574,
              4.9241
            ],
            [
              -75.5647,
              4.9378
            ],
            [
              -75.5723,
              4.9362
            ]
          ]
        ]
      },
      "properties": {
        "OBJECTID": 844,
        "DPTO_CCDGO": "24",
        "MPIO_CCDGO": "682",
        "name": "24086",
        "MPIO_CRSLC": "1844",
        "MPIO_NANO_": 1993,
        "MPIO_NAREA": 545.93462778,
        "MPIO_CSMBL": "4",
        "MPIO_CCNCT": "66682",
        "MPIO_NANO": 2012,
        "SHAPE_Leng": 1.25556386404,
        "SHAPE_Area": 0.0444769209252,
        "NOMBRE": "SANTA ROSA DE CABAL",
        "DANE": {
          "dpto_ccdgo": "66",
          "mpio_ccdgo": "682",
          "mpio_cdpmp": "66682",
          "dpto_cnmbr": "RISARALDA",
          "mpio_cnmbr": "SANTA ROSA DE CABAL",
          "mpio_crslc": "1844",
          "mpio_tipo": "MUNICIPIO",
          "mpio_narea": 543.490030532,
          "mpio_nano": 2024,
          "shape_Leng": 1.25777044785,
          "shape_Area": 0.0442777416532
        }
      }
    },
    {
      "type": "Feature",
      "geometry": {
        "type": "Polygon",
        "coordinates": [
          [
            [
              -75.922,
              5.0421
            ],
            [
              -75.9499,
              5.0543
            ],
            [
              -75.9428,
              5.0798
            ],
            [
              -75.9689,
              5.0946
            ],
            [
              -76.0004,
              5.127
            ],
            [
              -76.0332,
              5.1277
            ],
            [
              -76.044,
              5.1251
            ],
            [
              -76.0605,
              5.132
            ],
            [
              -76.0617,
              5.1023
            ],
            [
              -76.0698,
              5.095
            ],
            [
              -76.0693,
              5.0738
            ],
            [
              -76.077,
              5.0472
            ],
            [
              -76.0572,
              5.03
            ],
            [
              -76.0371,
              5.0291
            ],
            [
              -76.0237,
              5.0241
            ],
            [
              -76.0104,
              5.0375
            ],
            [
              -75.9899,
              5.0371
            ],
            [
              -75.9907,
              5.025
            ],
            [
              -75.9826,
              5.017
            ],
            [
              -75.9627,
              5.0195
            ],
            [
              -75.9574,
              4.9982
            ],
            [
              -75.9456,
              4.9898
            ],
            [
              -75.9377,
              4.9886
            ],
            [
              -75.9357,
              4.9757
            ],
            [
              -75.92,
              4.9631
            ],
            [
              -75.8893,
              4.9286
            ],
            [
              -75.881,
              4.9255
            ],
            [
              -75.8816,
              4.913
            ],
            [
              -75.8721,
              4.9145
            ],
            [
              -75.8672,
              4.9335
            ],
            [
              -75.8607,
              4.9421
            ],
            [
              -75.8801,
              4.9514
            ],
            [
              -75.8907,
              4.9601
            ],
            [
              -75.9035,
              4.9918
            ],
            [
              -75.9023,
              5.0127
            ],
            [
              -75.905,
              5.0248
            ],
            [
              -75.922,
              5.0421
            ]
          ]
        ]
      },
      "properties": {
        "OBJECTID": 845,
        "DPTO_CCDGO": "24",
        "MPIO_CCDGO": "687",
        "name": "24094",
        "MPIO_CRSLC": "Decreto 1488 del 14 de Diciembre de 1906",
        "MPIO_NANO_": 1993,
        "MPIO_NAREA": 212.50339366,
        "MPIO_CSMBL": "4",
        "MPIO_CCNCT": "66687",
        "MPIO_NANO": 2012,
        "SHAPE_Leng": 0.933977094607,
        "SHAPE_Area": 0.0173232846093,
        "NOMBRE": "SANTUARIO",
        "DANE": {
          "dpto_ccdgo": "66",
          "mpio_ccdgo": "687",
          "mpio_cdpmp": "66687",
          "dpto_cnmbr": "RISARALDA",
          "mpio_cnmbr": "SANTUARIO",
          "mpio_crslc": "Decreto 1488 del 14 de Diciembre de 1906",
          "mpio_tipo": "MUNICIPIO",
          "mpio_narea": 190.842757074,
          "mpio_nano": 2024,
          "shape_Leng": 0.886225355971,
          "shape_Area": 0.0155457675211
        }
      }
    }
  ],
  "name": "24"
}