{
  "type": "FeatureCollection",
  "crs": {
    "type": "name",
    "properties": {
      "name": "urn:ogc:def:crs:OGC:1.3:CRS84"
    }
  },
  "features": [
    {
      "type": "Feature",
      "geometry": {
        "type": "Polygon",
        "coordinates": [
          [
            [
              -75.6327,
              4.5699
            ],
            [
              -75.6427,
              4.5885
            ],
            [
              -75.6553,
              4.5791
            ],
            [
              -75.6662,
              4.5591
            ],
            [
              -75.6813,
              4.5493
            ],
            [
              -75.6975,
              4.5525
            ],
            [
              -75.7075,
              4.5463
            ],
            [
              -75.7407,
              4.54
            ],
            [
              -75.7648,
              4.538
            ],
            [
              -75.7805,
              4.5089
            ],
            [
              -75.7845,
              4.4864
            ],
            [
              -75.7967,
              4.4786
            ],
            [
              -75.7463,
              4.4897
            ],
            [
              -75.7502,
              4.4816
            ],
            [
              -75.7678,
              4.4767
            ],
            [
              -75.7673,
              4.4509
            ],
            [
              -75.7576,
              4.4484
            ],
            [
              -75.7608,
              4.4285
            ],
            [
              -75.7675,
              4.4187
            ],
            [
              -75.7834,
              4.4093
            ],
            [
              -75.7746,
              4.3951
            ],
            [
              -75.7632,
              4.3968
            ],
            [
              -75.7593,
              4.4094
            ],
            [
              -75.7513,
              4.4133
            ],
            [
              -75.7462,
              4.4296
            ],
            [
              -75.7189,
              4.4486
            ],
            [
              -75.7083,
              4.4665
            ],
            [
              -75.7021,
              4.4838
            ],
            [
              -75.6897,
              4.4955
            ],
            [
              -75.6821,
              4.5238
            ],
            [
              -75.6715,
              4.5252
            ],
            [
              -75.6444,
              4.552
            ],
            [
              -75.6327,
              4.5699
            ]
          ]
        ]
      },
      "properties": {
        "OBJECTID": 820,
        "DPTO_CCDGO": "26",
        "MPIO_CCDGO": "001",
        "name": "26001",
        "MPIO_CRSLC": "1889",
        "MPIO_NANO_": 1993,
        "MPIO_NAREA": 115.81592377,
        "MPIO_CSMBL": "4",
        "MPIO_CCNCT": "63001",
        "MPIO_NANO": 2012,
        "SHAPE_Leng": 0.891969831272,
        "SHAPE_Area": 0.00943202556645,
        "NOMBRE": "ARMENIA",
        "DANE": {
          "dpto_ccdgo": "63",
          "mpio_ccdgo": "001",
          "mpio_cdpmp": "63001",
          "dpto_cnmbr": "QUINDIO",
          "mpio_cnmbr": "ARMENIA",
          "mpio_crslc": "1889",
          "mpio_tipo": "MUNICIPIO",
          "mpio_narea": 121.587950906,
          "mpio_nano": 2024,
          "shape_Leng": 0.90740624769,
          "shape_Area": 0.00989944123308
        }
      }
    },
    {
      "type": "Feature",
      "geometry": {
        "type": "Polygon",
        "coordinates": [
          [
            [
              -75.7279,
              4.4055
            ],
            [
              -75.7461,
              4.4021
            ],
            [
              -75.7577,
              4.3931
            ],
            [
              -75.755,
              4.3796
            ],
            [
              -75.7807,
              4.3636
            ],
            [
              -75.7839,
              4.3468
            ],
            [
              -75.766,
              4.3442
            ],
            [
              -75.7633,
              4.3385
            ],
            [
              -75.7467,
              4.3342
            ],
            [
              -75.7359,
              4.3404
            ],
            [
              -75.7174,
              4.3434
            ],
            [
              -75.7162,
              4.377
            ],
            [
              -75.7228,
              4.401
            ],
            [
              -75.7279,
              4.4055
            ]
          ]
        ]
      },
      "properties": {
        "OBJECTID": 821,
        "DPTO_CCDGO": "26",
        "MPIO_CCDGO": "111",
        "name": "26005",
        "MPIO_CRSLC": "Ordenanza 29 de Diciembre 10 de 1966",
        "MPIO_NANO_": 1993,
        "MPIO_NAREA": 39.06229902,
        "MPIO_CSMBL": "4",
        "MPIO_CCNCT": "63111",
        "MPIO_NANO": 2012,
        "SHAPE_Leng": 0.258699543683,
        "SHAPE_Area": 0.00318072099438,
        "NOMBRE": "BUENAVISTA",
        "DANE": {
          "dpto_ccdgo": "63",
          "mpio_ccdgo": "111",
          "mpio_cdpmp": "63111",
          "dpto_cnmbr": "QUINDIO",
          "mpio_cnmbr": "BUENAVISTA",
          "mpio_crslc": "Ordenanza 29 de Diciembre 10 de 1966",
          "mpio_tipo": "MUNICIPIO",
          "mpio_narea": 38.4580994864,
          "mpio_nano": 2024,
          "shape_Leng": 0.25340958567,
          "shape_Area": 0.00313057033104
        }
      }
    },
    {
      "type": "Feature",
      "geometry": {
        "type": "Polygon",
        "coordinates": [
          [
            [
              -75.5557,
              4.4721
            ],
            [
              -75.5682,
              4.4836
            ],
            [
              -75.5677,
              4.5006
            ],
            [
              -75.5881,
              4.5195
            ],
            [
              -75.6013,
              4.5425
            ],
            [
              -75.6122,
              4.5433
            ],
            [
              -75.6094,
              4.5615
            ],
            [
              -75.6178,
              4.5691
            ],
            [
              -75.6327,
              4.5699
            ],
            [
              -75.6444,
              4.552
            ],
            [
              -75.6715,
              4.5252
            ],
            [
              -75.6821,
              4.5238
            ],
            [
              -75.6897,
              4.4955
            ],
            [
              -75.7021,
              4.4838
            ],
            [
              -75.7083,
              4.4665
            ],
            [
              -75.7189,
              4.4486
            ],
            [
              -75.7462,
              4.4296
            ],
            [
              -75.7513,
              4.4133
            ],
            [
              -75.7593,
              4.4094
            ],
            [
              -75.7632,
              4.3968
            ],
            [
              -75.7746,
              4.3951
            ],
            [
              -75.7976,
              4.3929
            ],
            [
              -75.8031,
              4.3961
            ],
            [
              -75.8013,
              4.3675
            ],
            [
              -75.7901,
              4.3533
            ],
            [
              -75.7923,
              4.3372
            ],
            [
              -75.7839,
              4.3468
            ],
            [
              -75.7807,
              4.3636
            ],
            [
              -75.755,
              4.3796
            ],
            [
              -75.7577,
              4.3931
            ],
            [
              -75.7461,
              4.4021
            ],
            [
              -75.7279,
              4.4055
            ],
            [
              -75.6889,
              4.4253
            ],
            [
              -75.6743,
              4.42
            ],
            [
              -75.6591,
              4.4222
            ],
            [
              -75.64,
              4.4197
            ],
            [
              -75.6079,
              4.4336
            ],
            [
              -75.589,
              4.4204
            ],
            [
              -75.5827,
              4.4242
            ],
            [
              -75.5759,
              4.4436
            ],
            [
              -75.5775,
              4.4522
            ],
            [
              -75.5606,
              4.4711
            ],
            [
              -75.5557,
              4.4721
            ]
          ]
        ]
      },
      "properties": {
        "OBJECTID": 822,
        "DPTO_CCDGO": "26",
        "MPIO_CCDGO": "130",
        "name": "26010",
        "MPIO_CRSLC": "1905",
        "MPIO_NANO_": 1993,
        "MPIO_NAREA": 220.75504682,
        "MPIO_CSMBL": "4",
        "MPIO_CCNCT": "63130",
        "MPIO_NANO": 2012,
        "SHAPE_Leng": 0.944531734567,
        "SHAPE_Area": 0.0179764690152,
        "NOMBRE": "CALARCA",
        "DANE": {
          "dpto_ccdgo": "63",
          "mpio_ccdgo": "130",
          "mpio_cdpmp": "63130",
          "dpto_cnmbr": "QUINDIO",
          "mpio_cnmbr": "CALARCÁ",
          "mpio_crslc": "1905",
          "mpio_tipo": "MUNICIPIO",
          "mpio_narea": 220.827579956,
          "mpio_nano": 2024,
          "shape_Leng": 0.928199403571,
          "shape_Area": 0.0179797645326
        }
      }
    },
    {
      "type": "Feature",
      "geometry": {
        "type": "Polygon",
        "coordinates": [
          [
            [
              -75.6427,
              4.5885
            ],
            [
              -75.6254,
              4.6218
            ],
            [
              -75.596,
              4.6587
            ],
            [
              -75.6005,
              4.6754
            ],
            [
              -75.6183,
              4.6648
            ],
            [
              -75.6575,
              4.6524
            ],
            [
              -75.6753,
              4.627
            ],
            [
              -75.6998,
              4.6073
            ],
            [
              -75.7353,
              4.5811
            ],
            [
              -75.722,
              4.5699
            ],
            [
              -75.7275,
              4.5456
            ],
            [
              -75.7407,
              4.54
            ],
            [
              -75.7075,
              4.5463
            ],
            [
              -75.6975,
              4.5525
            ],
            [
              -75.6813,
              4.5493
            ],
            [
              -75.6662,
              4.5591
            ],
            [
              -75.6553,
              4.5791
            ],
            [
              -75.6427,
              4.5885
            ]
          ]
        ]
      },
      "properties": {
        "OBJECTID": 823,
        "DPTO_CCDGO": "26",
        "MPIO_CCDGO": "190",
        "name": "26020",
        "MPIO_CRSLC": "1907",
        "MPIO_NANO_": 1993,
        "MPIO_NAREA": 93.40546022,
        "MPIO_CSMBL": "4",
        "MPIO_CCNCT": "63190",
        "MPIO_NANO": 2012,
        "SHAPE_Leng": 0.615183695662,
        "SHAPE_Area": 0.00760763485951,
        "NOMBRE": "CIRCASIA",
        "DANE": {
          "dpto_ccdgo": "63",
          "mpio_ccdgo": "190",
          "mpio_cdpmp": "63190",
          "dpto_cnmbr": "QUINDIO",
          "mpio_cnmbr": "CIRCASIA",
          "mpio_crslc": "1907",
          "mpio_tipo": "MUNICIPIO",
          "mpio_narea": 90.3168598842,
          "mpio_nano": 2024,
          "shape_Leng": 0.621675240971,
          "shape_Area": 0.00735488314518
        }
      }
    },
    {
      "type": "Feature",
      "geometry": {
        "type": "Polygon",
        "coordinates": [
          [
            [
              -75.5827,
              4.4242
            ],
            [
              -75.589,
              4.4204
            ],
            [
              -75.6079,
              4.4336
            ],
            [
              -75.64,
              4.4197
            ],
            [
              -75.6591,
              4.4222
            ],
            [
              -75.6743,
              4.42
            ],
            [
              -75.6889,
              4.4253
            ],
            [
              -75.7279,
              4.4055
            ],
            [
              -75.7228,
              4.401
            ],
            [
              -75.7162,
              4.377
            ],
            [
              -75.703,
              4.3686
            ],
            [
              -75.6935,
              4.369
            ],
            [
              -75.6874,
              4.3575
            ],
            [
              -75.6465,
              4.3629
            ],
            [
              -75.6332,
              4.3806
            ],
            [
              -75.6138,
              4.38
            ],
            [
              -75.5922,
              4.3616
            ],
            [
              -75.5904,
              4.3772
            ],
            [
              -75.583,
              4.3865
            ],
            [
              -75.5791,
              4.4093
            ],
            [
              -75.5827,
              4.4242
            ]
          ]
        ]
      },
      "properties": {
        "OBJECTID": 824,
        "DPTO_CCDGO": "26",
        "MPIO_CCDGO": "212",
        "name": "26025",
        "MPIO_CRSLC": "Ordenanza 22 de 1966",
        "MPIO_NANO_": 1993,
        "MPIO_NAREA": 93.48721643,
        "MPIO_CSMBL": "4",
        "MPIO_CCNCT": "63212",
        "MPIO_NANO": 2012,
        "SHAPE_Leng": 0.452373909858,
        "SHAPE_Area": 0.00761206584034,
        "NOMBRE": "CORDOBA",
        "DANE": {
          "dpto_ccdgo": "63",
          "mpio_ccdgo": "212",
          "mpio_cdpmp": "63212",
          "dpto_cnmbr": "QUINDIO",
          "mpio_cnmbr": "CÓRDOBA",
          "mpio_crslc": "Ordenanza 22 de 1966",
          "mpio_tipo": "MUNICIPIO",
          "mpio_narea": 92.9851288441,
          "mpio_nano": 2024,
          "shape_Leng": 0.451709146939,
          "shape_Area": 0.00757016549219
        }
      }
    },
    {
      "type": "Feature",
      "geometry": {
        "type": "Polygon",
        "coordinates": [
          [
            [
              -75.5645,
              4.7011
            ],
            [
              -75.5833,
              4.7074
            ],
            [
              -75.5939,
              4.7028
            ],
            [
              -75.6066,
              4.7094
            ],
            [
              -75.6143,
              4.7013
            ],
            [
              -75.6472,
              4.7091
            ],
            [
              -75.6598,
              4.6999
            ],
            [
              -75.698,
              4.721
            ],
            [
              -75.7136,
              4.7138
            ],
            [
              -75.7097,
              4.6792
            ],
            [
              -75.7072,
              4.6571
            ],
            [
              -75.7248,
              4.652
            ],
            [
              -75.7407,
              4.6547
            ],
            [
              -75.7371,
              4.6318
            ],
            [
              -75.747,
              4.618
            ],
            [
              -75.7354,
              4.6099
            ],
            [
              -75.7171,
              4.6159
            ],
            [
              -75.6998,
              4.6151
            ],
            [
              -75.6998,
              4.6073
            ],
            [
              -75.6753,
              4.627
            ],
            [
              -75.6575,
              4.6524
            ],
            [
              -75.6183,
              4.6648
            ],
            [
              -75.6005,
              4.6754
            ],
            [
              -75.5892,
              4.6891
            ],
            [
              -75.5645,
              4.7011
            ]
          ]
        ]
      },
      "properties": {
        "OBJECTID": 825,
        "DPTO_CCDGO": "26",
        "MPIO_CCDGO": "272",
        "name": "26030",
        "MPIO_CRSLC": "1878",
        "MPIO_NANO_": 1993,
        "MPIO_NAREA": 105.99706602,
        "MPIO_CSMBL": "4",
        "MPIO_CCNCT": "63272",
        "MPIO_NANO": 2012,
        "SHAPE_Leng": 0.644520746268,
        "SHAPE_Area": 0.00863399514182,
        "NOMBRE": "FILANDIA",
        "DANE": {
          "dpto_ccdgo": "63",
          "mpio_ccdgo": "272",
          "mpio_cdpmp": "63272",
          "dpto_cnmbr": "QUINDIO",
          "mpio_cnmbr": "FILANDIA",
          "mpio_crslc": "1878",
          "mpio_tipo": "MUNICIPIO",
          "mpio_narea": 106.621712886,
          "mpio_nano": 2024,
          "shape_Leng": 0.654511015025,
          "shape_Area": 0.00868338958165
        }
      }
    },
    {
      "type": "Feature",
      "geometry": {
        "type": "Polygon",
        "coordinates": [
          [
            [
              -75.6583,
              4.2221
            ],
            [
              -75.6785,
              4.2394
            ],
            [
              -75.692,
              4.2412
            ],
            [
              -75.7076,
              4.2311
            ],
            [
              -75.7265,
              4.2299
            ],
            [
              -75.7561,
              4.2465
            ],
            [
              -75.7453,
              4.2741
            ],
            [
              -75.7458,
              4.2838
            ],
            [
              -75.7695,
              4.292
            ],
            [
              -75.7947,
              4.31
            ],
            [
              -75.7873,
              4.2946
            ],
            [
              -75.7964,
              4.2689
            ],
            [
              -75.8082,
              4.2551
            ],
            [
              -75.8225,
              4.2287
            ],
            [
              -75.8249,
              4.2148
            ],
            [
              -75.8194,
              4.2024
            ],
            [
              -75.8273,
              4.1821
            ],
            [
              -75.8419,
              4.1561
            ],
            [
              -75.841,
              4.1218
            ],
            [
              -75.8339,
              4.1099
            ],
            [
              -75.8396,
              4.1013
            ],
            [
              -75.8023,
              4.0935
            ],
            [
              -75.7883,
              4.0879
            ],
            [
              -75.7744,
              4.0762
            ],
            [
              -75.7524,
              4.0774
            ],
            [
              -75.747,
              4.0953
            ],
            [
              -75.7322,
              4.1038
            ],
            [
              -75.7335,
              4.1135
            ],
            [
              -75.7193,
              4.1128
            ],
            [
              -75.7146,
              4.1267
            ],
            [
              -75.6964,
              4.132
            ],
            [
              -75.6913,
              4.1389
            ],
            [
              -75.6916,
              4.1604
            ],
            [
              -75.6692,
              4.1849
            ],
            [
              -75.6665,
              4.1942
            ],
            [
              -75.6562,
              4.2005
            ],
            [
              -75.6583,
              4.2221
            ]
          ]
        ]
      },
      "properties": {
        "OBJECTID": 826,
        "DPTO_CCDGO": "26",
        "MPIO_CCDGO": "302",
        "name": "26040",
        "MPIO_CRSLC": "Ordenanza 10 de Junio 16 de 1937",
        "MPIO_NANO_": 1993,
        "MPIO_NAREA": 294.89143549,
        "MPIO_CSMBL": "4",
        "MPIO_CCNCT": "63302",
        "MPIO_NANO": 2012,
        "SHAPE_Leng": 0.791148020011,
        "SHAPE_Area": 0.0240067083302,
        "NOMBRE": "GENOVA",
        "DANE": {
          "dpto_ccdgo": "63",
          "mpio_ccdgo": "302",
          "mpio_cdpmp": "63302",
          "dpto_cnmbr": "QUINDIO",
          "mpio_cnmbr": "GÉNOVA",
          "mpio_crslc": "Ordenanza 10 de Junio 16 de 1937",
          "mpio_tipo": "MUNICIPIO",
          "mpio_narea": 294.937718589,
          "mpio_nano": 2024,
          "shape_Leng": 0.800514073811,
          "shape_Area": 0.0240024485534
        }
      }
    },
    {
      "type": "Feature",
      "geometry": {
        "type": "Polygon",
        "coordinates": [
          [
            [
              -75.7746,
              4.3951
            ],
            [
              -75.7834,
              4.4093
            ],
            [
              -75.7675,
              4.4187
            ],
            [
              -75.7608,
              4.4285
            ],
            [
              -75.7576,
              4.4484
            ],
            [
              -75.7673,
              4.4509
            ],
            [
              -75.7678,
              4.4767
            ],
            [
              -75.7502,
              4.4816
            ],
            [
              -75.7463,
              4.4897
            ],
            [
              -75.7967,
              4.4786
            ],
            [
              -75.8052,
              4.4709
            ],
            [
              -75.814,
              4.4543
            ],
            [
              -75.8258,
              4.4506
            ],
            [
              -75.8439,
              4.4529
            ],
            [
              -75.861,
              4.4625
            ],
            [
              -75.8691,
              4.4546
            ],
            [
              -75.8814,
              4.4484
            ],
            [
              -75.8956,
              4.4261
            ],
            [
              -75.8846,
              4.4109
            ],
            [
              -75.8778,
              4.4099
            ],
            [
              -75.8675,
              4.4106
            ],
            [
              -75.8349,
              4.4004
            ],
            [
              -75.8286,
              4.4073
            ],
            [
              -75.8031,
              4.3961
            ],
            [
              -75.7976,
              4.3929
            ],
            [
              -75.7746,
              4.3951
            ]
          ]
        ]
      },
      "properties": {
        "OBJECTID": 827,
        "DPTO_CCDGO": "26",
        "MPIO_CCDGO": "401",
        "name": "26050",
        "MPIO_CRSLC": "Decreto 547 de Julio 23 de 1954",
        "MPIO_NANO_": 1993,
        "MPIO_NAREA": 90.59651341,
        "MPIO_CSMBL": "4",
        "MPIO_CCNCT": "63401",
        "MPIO_NANO": 2012,
        "SHAPE_Leng": 0.603818303728,
        "SHAPE_Area": 0.00737809143469,
        "NOMBRE": "LA TEBAIDA",
        "DANE": {
          "dpto_ccdgo": "63",
          "mpio_ccdgo": "401",
          "mpio_cdpmp": "63401",
          "dpto_cnmbr": "QUINDIO",
          "mpio_cnmbr": "LA TEBAIDA",
          "mpio_crslc": "Decreto 547 de Julio 23 de 1954",
          "mpio_tipo": "MUNICIPIO",
          "mpio_narea": 89.4170734984,
          "mpio_nano": 2024,
          "shape_Leng": 0.619174678928,
          "shape_Area": 0.00727884039862
        }
      }
    },
    {
      "type": "Feature",
      "geometry": {
        "type": "Polygon",
        "coordinates": [
          [
            [
              -75.7407,
              4.54
            ],
            [
              -75.7275,
              4.5456
            ],
            [
              -75.722,
              4.5699
            ],
            [
              -75.7353,
              4.5811
            ],
            [
              -75.749,
              4.57
            ],
            [
              -75.7901,
              4.5638
            ],
            [
              -75.8112,
              4.5739
            ],
            [
              -75.8233,
              4.5684
            ],
            [
              -75.8467,
              4.5718
            ],
            [
              -75.8531,
              4.5794
            ],
            [
              -75.8673,
              4.5751
            ],
            [
              -75.8705,
              4.5476
            ],
            [
              -75.8803,
              4.5316
            ],
            [
              -75.8716,
              4.5237
            ],
            [
              -75.8713,
              4.5075
            ],
            [
              -75.8784,
              4.4849
            ],
            [
              -75.8789,
              4.4606
            ],
            [
              -75.8691,
              4.4546
            ],
            [
              -75.861,
              4.4625
            ],
            [
              -75.8439,
              4.4529
            ],
            [
              -75.8258,
              4.4506
            ],
            [
              -75.814,
              4.4543
            ],
            [
              -75.8052,
              4.4709
            ],
            [
              -75.7967,
              4.4786
            ],
            [
              -75.7845,
              4.4864
            ],
            [
              -75.7805,
              4.5089
            ],
            [
              -75.7648,
              4.538
            ],
            [
              -75.7407,
              4.54
            ]
          ]
        ]
      },
      "properties": {
        "OBJECTID": 828,
        "DPTO_CCDGO": "26",
        "MPIO_CCDGO": "470",
        "name": "26060",
        "MPIO_CRSLC": "Ordenanza 14 de Abril 4 de 1914",
        "MPIO_NANO_": 1993,
        "MPIO_NAREA": 149.63573195,
        "MPIO_CSMBL": "4",
        "MPIO_CCNCT": "63470",
        "MPIO_NANO": 2012,
        "SHAPE_Leng": 0.770070328221,
        "SHAPE_Area": 0.0121875950368,
        "NOMBRE": "MONTENEGRO",
        "DANE": {
          "dpto_ccdgo": "63",
          "mpio_ccdgo": "470",
          "mpio_cdpmp": "63470",
          "dpto_cnmbr": "QUINDIO",
          "mpio_cnmbr": "MONTENEGRO",
          "mpio_crslc": "Ordenanza 14 de Abril 4 de 1914",
          "mpio_tipo": "MUNICIPIO",
          "mpio_narea": 149.034327961,
          "mpio_nano": 2024,
          "shape_Leng": 0.780075639908,
          "shape_Area": 0.0121332639944
        }
      }
    },
    {
      "type": "Feature",
      "geometry": {
        "type": "Polygon",
        "coordinates": [
          [
            [
              -75.5922,
              4.3616
            ],
            [
              -75.6138,
              4.38
            ],
            [
              -75.6332,
              4.3806
            ],
            [
              -75.6465,
              4.3629
            ],
            [
              -75.6874,
              4.3575
            ],
            [
              -75.6935,
              4.369
            ],
            [
              -75.703,
              4.3686
            ],
            [
              -75.7162,
              4.377
            ],
            [
              -75.7174,
              4.3434
            ],
            [
              -75.7359,
              4.3404
            ],
            [
              -75.7467,
              4.3342
            ],
            [
              -75.7633,
              4.3385
            ],
            [
              -75.766,
              4.3442
            ],
            [
              -75.7839,
              4.3468
            ],
            [
              -75.7923,
              4.3372
            ],
            [
              -75.7966,
              4.3219
            ],
            [
              -75.7947,
              4.31
            ],
            [
              -75.7695,
              4.292
            ],
            [
              -75.7458,
              4.2838
            ],
            [
              -75.7453,
              4.2741
            ],
            [
              -75.7561,
              4.2465
            ],
            [
              -75.7265,
              4.2299
            ],
            [
              -75.7076,
              4.2311
            ],
            [
              -75.692,
              4.2412
            ],
            [
              -75.6785,
              4.2394
            ],
            [
              -75.6583,
              4.2221
            ],
            [
              -75.6479,
              4.2304
            ],
            [
              -75.6433,
              4.2461
            ],
            [
              -75.6235,
              4.2575
            ],
            [
              -75.616,
              4.2727
            ],
            [
              -75.5972,
              4.2794
            ],
            [
              -75.6043,
              4.2888
            ],
            [
              -75.5971,
              4.3145
            ],
            [
              -75.6003,
              4.3339
            ],
            [
              -75.5931,
              4.3484
            ],
            [
              -75.5922,
              4.3616
            ]
          ]
        ]
      },
      "properties": {
        "OBJECTID": 829,
        "DPTO_CCDGO": "26",
        "MPIO_CCDGO": "548",
        "name": "26070",
        "MPIO_CRSLC": "Ordenanza 11 de 1926",
        "MPIO_NANO_": 1993,
        "MPIO_NAREA": 249.16491507,
        "MPIO_CSMBL": "4",
        "MPIO_CCNCT": "63548",
        "MPIO_NANO": 2012,
        "SHAPE_Leng": 0.739339130664,
        "SHAPE_Area": 0.0202860328902,
        "NOMBRE": "PIJAO",
        "DANE": {
          "dpto_ccdgo": "63",
          "mpio_ccdgo": "548",
          "mpio_cdpmp": "63548",
          "dpto_cnmbr": "QUINDIO",
          "mpio_cnmbr": "PIJAO",
          "mpio_crslc": "Ordenanza 11 de 1926",
          "mpio_tipo": "MUNICIPIO",
          "mpio_narea": 248.582616581,
          "mpio_nano": 2024,
          "shape_Leng": 0.750758346519,
          "shape_Area": 0.0202347291272
        }
      }
    },
    {
      "type": "Feature",
      "geometry": {
        "type": "Polygon",
        "coordinates": [
          [
            [
              -75.7407,
              4.6547
            ],
            [
              -75.7579,
              4.6507
            ],
            [
              -75.7838,
              4.6587
            ],
            [
              -75.8274,
              4.6605
            ],
            [
              -75.8367,
              4.644
            ],
            [
              -75.8477,
              4.6385
            ],
            [
              -75.8517,
              4.6246
            ],
            [
              -75.8656,
              4.6128
            ],
            [
              -75.8618,
              4.5927
            ],
            [
              -75.8711,
              4.5863
            ],
            [
              -75.8673,
              4.5751
            ],
            [
              -75.8531,
              4.5794
            ],
            [
              -75.8467,
              4.5718
            ],
            [
              -75.8233,
              4.5684
            ],
            [
              -75.8112,
              4.5739
            ],
            [
              -75.7901,
              4.5638
            ],
            [
              -75.749,
              4.57
            ],
            [
              -75.7353,
              4.5811
            ],
            [
              -75.6998,
              4.6073
            ],
            [
              -75.6998,
              4.6151
            ],
            [
              -75.7171,
              4.6159
            ],
            [
              -75.7354,
              4.6099
            ],
            [
              -75.747,
              4.618
            ],
            [
              -75.7371,
              4.6318
            ],
            [
              -75.7407,
              4.6547
            ]
          ]
        ]
      },
      "properties": {
        "OBJECTID": 830,
        "DPTO_CCDGO": "26",
        "MPIO_CCDGO": "594",
        "name": "26080",
        "MPIO_CRSLC": "Ordenanza 26 del 5 de Abril de 1922",
        "MPIO_NANO_": 1993,
        "MPIO_NAREA": 132.74924984,
        "MPIO_CSMBL": "4",
        "MPIO_CCNCT": "63594",
        "MPIO_NANO": 2012,
        "SHAPE_Leng": 0.675256697869,
        "SHAPE_Area": 0.0108132918305,
        "NOMBRE": "QUIMBAYA",
        "DANE": {
          "dpto_ccdgo": "63",
          "mpio_ccdgo": "594",
          "mpio_cdpmp": "63594",
          "dpto_cnmbr": "QUINDIO",
          "mpio_cnmbr": "QUIMBAYA",
          "mpio_crslc": "Ordenanza 26 del 5 de Abril de 1922",
          "mpio_tipo": "MUNICIPIO",
          "mpio_narea": 133.520353988,
          "mpio_nano": 2024,
          "shape_Leng": 0.674145532393,
          "shape_Area": 0.0108718348693
        }
      }
    },
    {
      "type": "Feature",
      "geometry": {
        "type": "Polygon",
        "coordinates": [
          [
            [
              -75.6005,
              4.6754
            ],
            [
              -75.596,
              4.6587
            ],
            [
              -75.6254,
              4.6218
            ],
            [
              -75.6427,
              4.5885
            ],
            [
              -75.6327,
              4.5699
            ],
            [
              -75.6178,
              4.5691
            ],
            [
              -75.6094,
              4.5615
            ],
            [
              -75.6122,
              4.5433
            ],
            [
              -75.6013,
              4.5425
            ],
            [
              -75.5881,
              4.5195
            ],
            [
              -75.5677,
              4.5006
            ],
            [
              -75.5682,
              4.4836
            ],
            [
              -75.5557,
              4.4721
            ],
            [
              -75.5356,
              4.4947
            ],
            [
              -75.5245,
              4.4984
            ],
            [
              -75.5277,
              4.5139
            ],
            [
              -75.522,
              4.5272
            ],
            [
              -75.5246,
              4.5429
            ],
            [
              -75.515,
              4.5556
            ],
            [
              -75.4901,
              4.5697
            ],
            [
              -75.4846,
              4.5819
            ],
            [
              -75.4721,
              4.5882
            ],
            [
              -75.4689,
              4.5983
            ],
            [
              -75.4582,
              4.6021
            ],
            [
              -75.4359,
              4.6029
            ],
            [
              -75.421,
              4.6109
            ],
            [
              -75.4155,
              4.6224
            ],
            [
              -75.422,
              4.6435
            ],
            [
              -75.4212,
              4.6593
            ],
            [
              -75.4159,
              4.6709
            ],
            [
              -75.4009,
              4.6904
            ],
            [
              -75.3862,
              4.7007
            ],
            [
              -75.3835,
              4.7083
            ],
            [
              -75.3887,
              4.7154
            ],
            [
              -75.4054,
              4.7103
            ],
            [
              -75.4114,
              4.6994
            ],
            [
              -75.4231,
              4.6937
            ],
            [
              -75.4387,
              4.6953
            ],
            [
              -75.44,
              4.6825
            ],
            [
              -75.4646,
              4.6794
            ],
            [
              -75.4794,
              4.6632
            ],
            [
              -75.4922,
              4.6666
            ],
            [
              -75.5077,
              4.6877
            ],
            [
              -75.5453,
              4.7012
            ],
            [
              -75.5645,
              4.7011
            ],
            [
              -75.5892,
              4.6891
            ],
            [
              -75.6005,
              4.6754
            ]
          ]
        ]
      },
      "properties": {
        "OBJECTID": 831,
        "DPTO_CCDGO": "26",
        "MPIO_CCDGO": "690",
        "name": "26090",
        "MPIO_CRSLC": "Decreto 995 de 1908",
        "MPIO_NANO_": 1993,
        "MPIO_NAREA": 349.30658278,
        "MPIO_CSMBL": "4",
        "MPIO_CCNCT": "63690",
        "MPIO_NANO": 2012,
        "SHAPE_Leng": 1.04504717329,
        "SHAPE_Area": 0.0284493033857,
        "NOMBRE": "SALENTO",
        "DANE": {
          "dpto_ccdgo": "63",
          "mpio_ccdgo": "690",
          "mpio_cdpmp": "63690",
          "dpto_cnmbr": "QUINDIO",
          "mpio_cnmbr": "SALENTO",
          "mpio_crslc": "Decreto 995 de 1908",
          "mpio_tipo": "MUNICIPIO",
          "mpio_narea": 347.28142408,
          "mpio_nano": 2024,
          "shape_Leng": 0.953425465396,
          "shape_Area": 0.0282843981752
        }
      }
    }
  ],
  "name": "26"
}