{
  "type": "FeatureCollection",
  "crs": {
    "type": "name",
    "properties": {
      "name": "urn:ogc:def:crs:OGC:1.3:CRS84"
    }
  },
  "features": [
    {
      "type": "Feature",
      "geometry": {
        "type": "Polygon",
        "coordinates": [
          [
            [
              -69.7616,
              6.5303
            ],
            [
              -69.8948,
              6.699
            ],
            [
              -70.0261,
              6.865
            ],
            [
              -70.1007,
              6.9592
            ],
            [
              -70.1178,
              6.9794
            ],
            [
              -70.1331,
              6.9751
            ],
            [
              -70.1568,
              6.9805
            ],
            [
              -70.1741,
              6.9765
            ],
            [
              -70.2051,
              6.9783
            ],
            [
              -70.2243,
              6.9747
            ],
            [
              -70.2289,
              6.9666
            ],
            [
              -70.2493,
              6.959
            ],
            [
              -70.2496,
              6.9535
            ],
            [
              -70.2665,
              6.941
            ],
            [
              -70.2854,
              6.9402
            ],
            [
              -70.3224,
              6.9346
            ],
            [
              -70.3286,
              6.9409
            ],
            [
              -70.3442,
              6.9444
            ],
            [
              -70.3713,
              6.9802
            ],
            [
              -70.4028,
              6.9879
            ],
            [
              -70.4167,
              6.9809
            ],
            [
              -70.4277,
              6.9938
            ],
            [
              -70.4306,
              7.007
            ],
            [
              -70.4524,
              7.0111
            ],
            [
              -70.4602,
              7.0023
            ],
            [
              -70.4752,
              7.0017
            ],
            [
              -70.4905,
              7.009
            ],
            [
              -70.5031,
              7.0062
            ],
            [
              -70.5165,
              7.0314
            ],
            [
              -70.5277,
              7.0413
            ],
            [
              -70.5487,
              7.074
            ],
            [
              -70.5675,
              7.0808
            ],
            [
              -70.5867,
              7.0682
            ],
            [
              -70.6087,
              7.064
            ],
            [
              -70.6245,
              7.0705
            ],
            [
              -70.6408,
              7.0688
            ],
            [
              -70.6479,
              7.0787
            ],
            [
              -70.6709,
              7.0851
            ],
            [
              -70.6843,
              7.1036
            ],
            [
              -70.697,
              7.094
            ],
            [
              -70.715,
              7.094
            ],
            [
              -70.7423,
              7.0889
            ],
            [
              -70.7584,
              7.0975
            ],
            [
              -70.7699,
              7.0889
            ],
            [
              -70.7774,
              7.0767
            ],
            [
              -70.7876,
              7.0834
            ],
            [
              -70.8184,
              7.0794
            ],
            [
              -70.8216,
              7.0702
            ],
            [
              -70.8351,
              7.0778
            ],
            [
              -70.8533,
              7.0777
            ],
            [
              -70.8523,
              7.0606
            ],
            [
              -70.861,
              7.0546
            ],
            [
              -70.8724,
              7.064
            ],
            [
              -70.894,
              7.0607
            ],
            [
              -70.9048,
              7.0428
            ],
            [
              -70.919,
              7.0526
            ],
            [
              -70.9274,
              7.0462
            ],
            [
              -70.9237,
              7.0225
            ],
            [
              -70.9387,
              7.0127
            ],
            [
              -70.9629,
              7.0174
            ],
            [
              -70.9738,
              7.0135
            ],
            [
              -70.9754,
              7.0041
            ],
            [
              -70.9954,
              6.9831
            ],
            [
              -71.022,
              6.974
            ],
            [
              -71.0414,
              6.9821
            ],
            [
              -71.0556,
              6.9805
            ],
            [
              -71.0893,
              6.9834
            ],
            [
              -71.2083,
              6.8692
            ],
            [
              -71.1812,
              6.8664
            ],
            [
              -71.1706,
              6.8711
            ],
            [
              -71.1274,
              6.8594
            ],
            [
              -71.1186,
              6.8491
            ],
            [
              -71.1041,
              6.8573
            ],
            [
              -71.0788,
              6.844
            ],
            [
              -71.0698,
              6.8473
            ],
            [
              -71.0577,
              6.8392
            ],
            [
              -71.049,
              6.8431
            ],
            [
              -71.0393,
              6.8351
            ],
            [
              -71.0357,
              6.8172
            ],
            [
              -71.0268,
              6.8148
            ],
            [
              -71.0213,
              6.7993
            ],
            [
              -71.0225,
              6.7833
            ],
            [
              -71.0113,
              6.7734
            ],
            [
              -70.9579,
              6.6546
            ],
            [
              -70.9529,
              6.6467
            ],
            [
              -70.9375,
              6.6471
            ],
            [
              -70.9175,
              6.641
            ],
            [
              -70.9059,
              6.6312
            ],
            [
              -70.8853,
              6.6228
            ],
            [
              -70.8583,
              6.6069
            ],
            [
              -70.8484,
              6.6072
            ],
            [
              -70.8419,
              6.5974
            ],
            [
              -70.8191,
              6.5941
            ],
            [
              -70.8179,
              6.5796
            ],
            [
              -70.8019,
              6.5768
            ],
            [
              -70.7784,
              6.5788
            ],
            [
              -70.7734,
              6.5739
            ],
            [
              -70.7528,
              6.5722
            ],
            [
              -70.7422,
              6.5838
            ],
            [
              -70.7258,
              6.5891
            ],
            [
              -70.6922,
              6.5601
            ],
            [
              -70.6845,
              6.5374
            ],
            [
              -70.6664,
              6.534
            ],
            [
              -70.6556,
              6.5156
            ],
            [
              -70.6595,
              6.504
            ],
            [
              -70.6552,
              6.4849
            ],
            [
              -70.4102,
              6.6474
            ],
            [
              -70.3962,
              6.6373
            ],
            [
              -70.3748,
              6.6354
            ],
            [
              -70.3578,
              6.6401
            ],
            [
              -70.3302,
              6.6285
            ],
            [
              -70.3099,
              6.6354
            ],
            [
              -70.2966,
              6.6303
            ],
            [
              -70.2815,
              6.6318
            ],
            [
              -70.2702,
              6.6182
            ],
            [
              -70.2629,
              6.6179
            ],
            [
              -70.2549,
              6.5991
            ],
            [
              -70.2448,
              6.5974
            ],
            [
              -70.24,
              6.6067
            ],
            [
              -70.2211,
              6.5979
            ],
            [
              -70.1988,
              6.5968
            ],
            [
              -70.1936,
              6.605
            ],
            [
              -70.1736,
              6.6048
            ],
            [
              -70.152,
              6.5852
            ],
            [
              -70.1397,
              6.5822
            ],
            [
              -70.1296,
              6.5877
            ],
            [
              -70.1128,
              6.5812
            ],
            [
              -70.0841,
              6.5812
            ],
            [
              -70.0747,
              6.5766
            ],
            [
              -70.0617,
              6.5794
            ],
            [
              -70.0465,
              6.5703
            ],
            [
              -70.0381,
              6.574
            ],
            [
              -70.027,
              6.5649
            ],
            [
              -70.0155,
              6.5624
            ],
            [
              -69.9829,
              6.5653
            ],
            [
              -69.98,
              6.5575
            ],
            [
              -69.9603,
              6.5633
            ],
            [
              -69.9569,
              6.5531
            ],
            [
              -69.9334,
              6.5462
            ],
            [
              -69.9234,
              6.5546
            ],
            [
              -69.8985,
              6.5482
            ],
            [
              -69.8998,
              6.5335
            ],
            [
              -69.8764,
              6.507
            ],
            [
              -69.8357,
              6.4966
            ],
            [
              -69.8287,
              6.5089
            ],
            [
              -69.8046,
              6.529
            ],
            [
              -69.7849,
              6.5321
            ],
            [
              -69.7616,
              6.5303
            ]
          ]
        ]
      },
      "properties": {
        "OBJECTID": 1048,
        "DPTO_CCDGO": "40",
        "MPIO_CCDGO": "001",
        "name": "40001",
        "MPIO_CRSLC": "1959",
        "MPIO_NANO_": 1993,
        "MPIO_NAREA": 5768.85140115,
        "MPIO_CSMBL": "4",
        "MPIO_CCNCT": "81001",
        "MPIO_NANO": 2012,
        "SHAPE_Leng": 4.60275976757,
        "SHAPE_Area": 0.471834190085,
        "NOMBRE": "ARAUCA",
        "DANE": {
          "dpto_ccdgo": "81",
          "mpio_ccdgo": "001",
          "mpio_cdpmp": "81001",
          "dpto_cnmbr": "ARAUCA",
          "mpio_cnmbr": "ARAUCA",
          "mpio_crslc": "1959",
          "mpio_tipo": "MUNICIPIO",
          "mpio_narea": 5787.89044103,
          "mpio_nano": 2024,
          "shape_Leng": 4.66919950274,
          "shape_Area": 0.471617291477
        }
      }
    },
    {
      "type": "Feature",
      "geometry": {
        "type": "Polygon",
        "coordinates": [
          [
            [
              -71.0893,
              6.9834
            ],
            [
              -71.1117,
              6.9899
            ],
            [
              -71.1076,
              7.0113
            ],
            [
              -71.1209,
              7.0111
            ],
            [
              -71.1286,
              7.0322
            ],
            [
              -71.1451,
              7.0325
            ],
            [
              -71.1502,
              7.027
            ],
            [
              -71.166,
              7.0266
            ],
            [
              -71.1915,
              7.019
            ],
            [
              -71.1994,
              7.0251
            ],
            [
              -71.2122,
              7.019
            ],
            [
              -71.2279,
              7.0274
            ],
            [
              -71.2394,
              7.0123
            ],
            [
              -71.2586,
              7.0191
            ],
            [
              -71.2698,
              7.0312
            ],
            [
              -71.2865,
              7.0245
            ],
            [
              -71.2996,
              7.0288
            ],
            [
              -71.334,
              7.0169
            ],
            [
              -71.3586,
              7.0195
            ],
            [
              -71.379,
              7.018
            ],
            [
              -71.3917,
              7.0359
            ],
            [
              -71.4244,
              7.0389
            ],
            [
              -71.4353,
              7.0252
            ],
            [
              -71.4469,
              7.0281
            ],
            [
              -71.4492,
              7.0139
            ],
            [
              -71.4588,
              7.0135
            ],
            [
              -71.4583,
              7.0364
            ],
            [
              -71.4723,
              7.0337
            ],
            [
              -71.4692,
              7.0235
            ],
            [
              -71.486,
              7.0165
            ],
            [
              -71.4919,
              7.0314
            ],
            [
              -71.5025,
              7.0347
            ],
            [
              -71.514,
              7.0214
            ],
            [
              -71.5343,
              7.0349
            ],
            [
              -71.556,
              7.0273
            ],
            [
              -71.5744,
              7.0261
            ],
            [
              -71.5909,
              7.0186
            ],
            [
              -71.5924,
              7.0327
            ],
            [
              -71.584,
              7.0519
            ],
            [
              -71.6064,
              7.0436
            ],
            [
              -71.625,
              7.0447
            ],
            [
              -71.6309,
              7.0516
            ],
            [
              -71.6484,
              7.0504
            ],
            [
              -71.6559,
              7.0367
            ],
            [
              -71.6643,
              7.033
            ],
            [
              -71.6773,
              7.0381
            ],
            [
              -71.693,
              7.0372
            ],
            [
              -71.6703,
              6.8746
            ],
            [
              -71.4535,
              6.6754
            ],
            [
              -71.3383,
              6.5694
            ],
            [
              -71.3111,
              6.5736
            ],
            [
              -71.3113,
              6.5873
            ],
            [
              -71.2925,
              6.5806
            ],
            [
              -71.2561,
              6.5742
            ],
            [
              -71.25,
              6.5765
            ],
            [
              -71.2356,
              6.5601
            ],
            [
              -71.2078,
              6.5482
            ],
            [
              -71.2024,
              6.5517
            ],
            [
              -71.1846,
              6.5414
            ],
            [
              -71.1743,
              6.5561
            ],
            [
              -71.1378,
              6.5478
            ],
            [
              -71.1037,
              6.5574
            ],
            [
              -71.0595,
              6.5441
            ],
            [
              -71.0391,
              6.5429
            ],
            [
              -71.0289,
              6.5558
            ],
            [
              -71.0222,
              6.5503
            ],
            [
              -70.9896,
              6.5442
            ],
            [
              -70.9766,
              6.5595
            ],
            [
              -70.9529,
              6.5606
            ],
            [
              -70.9326,
              6.5453
            ],
            [
              -70.9042,
              6.5517
            ],
            [
              -70.8887,
              6.5299
            ],
            [
              -70.8683,
              6.5286
            ],
            [
              -70.8853,
              6.6228
            ],
            [
              -70.9059,
              6.6312
            ],
            [
              -70.9175,
              6.641
            ],
            [
              -70.9375,
              6.6471
            ],
            [
              -70.9529,
              6.6467
            ],
            [
              -70.9579,
              6.6546
            ],
            [
              -71.0113,
              6.7734
            ],
            [
              -71.0225,
              6.7833
            ],
            [
              -71.0213,
              6.7993
            ],
            [
              -71.0268,
              6.8148
            ],
            [
              -71.0357,
              6.8172
            ],
            [
              -71.0393,
              6.8351
            ],
            [
              -71.049,
              6.8431
            ],
            [
              -71.0577,
              6.8392
            ],
            [
              -71.0698,
              6.8473
            ],
            [
              -71.0788,
              6.844
            ],
            [
              -71.1041,
              6.8573
            ],
            [
              -71.1186,
              6.8491
            ],
            [
              -71.1274,
              6.8594
            ],
            [
              -71.1706,
              6.8711
            ],
            [
              -71.1812,
              6.8664
            ],
            [
              -71.2083,
              6.8692
            ],
            [
              -71.0893,
              6.9834
            ]
          ]
        ]
      },
      "properties": {
        "OBJECTID": 1049,
        "DPTO_CCDGO": "40",
        "MPIO_CCDGO": "065",
        "name": "40010",
        "MPIO_CRSLC": "Decreto 1447 del 28 de Julio de 1971",
        "MPIO_NANO_": 1993,
        "MPIO_NAREA": 3163.94255237,
        "MPIO_CSMBL": "4",
        "MPIO_CCNCT": "81065",
        "MPIO_NANO": 2012,
        "SHAPE_Leng": 3.14023003309,
        "SHAPE_Area": 0.258806395669,
        "NOMBRE": "ARAUQUITA",
        "DANE": {
          "dpto_ccdgo": "81",
          "mpio_ccdgo": "065",
          "mpio_cdpmp": "81065",
          "dpto_cnmbr": "ARAUCA",
          "mpio_cnmbr": "ARAUQUITA",
          "mpio_crslc": "Decreto 1447 del 28 de Julio de 1971",
          "mpio_tipo": "MUNICIPIO",
          "mpio_narea": 3046.89620605,
          "mpio_nano": 2024,
          "shape_Leng": 3.25994797488,
          "shape_Area": 0.24865542379
        }
      }
    },
    {
      "type": "Feature",
      "geometry": {
        "type": "Polygon",
        "coordinates": [
          [
            [
              -69.7616,
              6.5303
            ],
            [
              -69.7849,
              6.5321
            ],
            [
              -69.8046,
              6.529
            ],
            [
              -69.8287,
              6.5089
            ],
            [
              -69.8357,
              6.4966
            ],
            [
              -69.8764,
              6.507
            ],
            [
              -69.8998,
              6.5335
            ],
            [
              -69.8985,
              6.5482
            ],
            [
              -69.9234,
              6.5546
            ],
            [
              -69.9334,
              6.5462
            ],
            [
              -69.9569,
              6.5531
            ],
            [
              -69.9603,
              6.5633
            ],
            [
              -69.98,
              6.5575
            ],
            [
              -69.9829,
              6.5653
            ],
            [
              -70.0155,
              6.5624
            ],
            [
              -70.027,
              6.5649
            ],
            [
              -70.0381,
              6.574
            ],
            [
              -70.0465,
              6.5703
            ],
            [
              -70.0617,
              6.5794
            ],
            [
              -70.0747,
              6.5766
            ],
            [
              -70.0841,
              6.5812
            ],
            [
              -70.1128,
              6.5812
            ],
            [
              -70.1296,
              6.5877
            ],
            [
              -70.1397,
              6.5822
            ],
            [
              -70.152,
              6.5852
            ],
            [
              -70.1736,
              6.6048
            ],
            [
              -70.1936,
              6.605
            ],
            [
              -70.1988,
              6.5968
            ],
            [
              -70.2211,
              6.5979
            ],
            [
              -70.24,
              6.6067
            ],
            [
              -70.2448,
              6.5974
            ],
            [
              -70.2549,
              6.5991
            ],
            [
              -70.2629,
              6.6179
            ],
            [
              -70.2702,
              6.6182
            ],
            [
              -70.2815,
              6.6318
            ],
            [
              -70.2966,
              6.6303
            ],
            [
              -70.3099,
              6.6354
            ],
            [
              -70.3302,
              6.6285
            ],
            [
              -70.3578,
              6.6401
            ],
            [
              -70.3748,
              6.6354
            ],
            [
              -70.3962,
              6.6373
            ],
            [
              -70.4102,
              6.6474
            ],
            [
              -70.6552,
              6.4849
            ],
            [
              -70.7201,
              6.2208
            ],
            [
              -70.7051,
              6.2212
            ],
            [
              -70.6918,
              6.2274
            ],
            [
              -70.6767,
              6.2214
            ],
            [
              -70.6714,
              6.226
            ],
            [
              -70.6412,
              6.2352
            ],
            [
              -70.631,
              6.2271
            ],
            [
              -70.6243,
              6.2347
            ],
            [
              -70.6097,
              6.2398
            ],
            [
              -70.6004,
              6.2368
            ],
            [
              -70.5561,
              6.2455
            ],
            [
              -70.5507,
              6.2382
            ],
            [
              -70.5367,
              6.2437
            ],
            [
              -70.5305,
              6.2301
            ],
            [
              -70.5174,
              6.2343
            ],
            [
              -70.503,
              6.2471
            ],
            [
              -70.4821,
              6.2508
            ],
            [
              -70.4766,
              6.2651
            ],
            [
              -70.4572,
              6.2675
            ],
            [
              -70.449,
              6.2735
            ],
            [
              -70.4283,
              6.2797
            ],
            [
              -70.4307,
              6.2915
            ],
            [
              -70.3904,
              6.2932
            ],
            [
              -70.3803,
              6.3024
            ],
            [
              -70.3671,
              6.3027
            ],
            [
              -70.3557,
              6.2959
            ],
            [
              -70.3307,
              6.2938
            ],
            [
              -70.3232,
              6.2799
            ],
            [
              -70.2986,
              6.278
            ],
            [
              -70.2895,
              6.2852
            ],
            [
              -70.2733,
              6.2744
            ],
            [
              -70.2545,
              6.2868
            ],
            [
              -70.2387,
              6.2863
            ],
            [
              -70.2239,
              6.2928
            ],
            [
              -70.2097,
              6.2877
            ],
            [
              -70.1994,
              6.2954
            ],
            [
              -70.1767,
              6.279
            ],
            [
              -70.1682,
              6.2853
            ],
            [
              -70.1632,
              6.2983
            ],
            [
              -70.1546,
              6.2972
            ],
            [
              -70.1545,
              6.2762
            ],
            [
              -70.1471,
              6.2678
            ],
            [
              -70.1352,
              6.2706
            ],
            [
              -70.1209,
              6.258
            ],
            [
              -70.12,
              6.2411
            ],
            [
              -70.1147,
              6.2328
            ],
            [
              -70.0973,
              6.2339
            ],
            [
              -70.0808,
              6.2176
            ],
            [
              -70.0639,
              6.2091
            ],
            [
              -70.0638,
              6.1908
            ],
            [
              -70.0478,
              6.1866
            ],
            [
              -70.0412,
              6.178
            ],
            [
              -70.0588,
              6.1728
            ],
            [
              -70.0624,
              6.1632
            ],
            [
              -70.051,
              6.1555
            ],
            [
              -70.0337,
              6.1616
            ],
            [
              -70.0027,
              6.1489
            ],
            [
              -69.9942,
              6.164
            ],
            [
              -69.9824,
              6.1586
            ],
            [
              -69.987,
              6.14
            ],
            [
              -69.9778,
              6.1338
            ],
            [
              -69.9532,
              6.1431
            ],
            [
              -69.9436,
              6.1391
            ],
            [
              -69.9326,
              6.1167
            ],
            [
              -69.8995,
              6.0963
            ],
            [
              -69.9041,
              6.0729
            ],
            [
              -69.8919,
              6.0541
            ],
            [
              -69.8682,
              6.0417
            ],
            [
              -69.8359,
              6.0413
            ],
            [
              -69.8042,
              6.0554
            ],
            [
              -69.7843,
              6.0586
            ],
            [
              -69.7439,
              6.043
            ],
            [
              -69.7045,
              6.0457
            ],
            [
              -69.6826,
              6.0384
            ],
            [
              -69.6578,
              6.0398
            ],
            [
              -69.6395,
              6.0366
            ],
            [
              -69.614,
              6.0363
            ],
            [
              -69.571,
              6.0445
            ],
            [
              -69.5357,
              6.0452
            ],
            [
              -69.5028,
              6.0592
            ],
            [
              -69.4855,
              6.07
            ],
            [
              -69.4532,
              6.083
            ],
            [
              -69.4359,
              6.1046
            ],
            [
              -69.4276,
              6.1073
            ],
            [
              -69.5226,
              6.2277
            ],
            [
              -69.6495,
              6.3884
            ],
            [
              -69.7616,
              6.5303
            ]
          ]
        ]
      },
      "properties": {
        "OBJECTID": 1050,
        "DPTO_CCDGO": "40",
        "MPIO_CCDGO": "220",
        "name": "40015",
        "MPIO_CRSLC": "Decreto Nal 677 de Abril 13 de  1987",
        "MPIO_NANO_": 1993,
        "MPIO_NAREA": 5154.26656753,
        "MPIO_CSMBL": "4",
        "MPIO_CCNCT": "81220",
        "MPIO_NANO": 2012,
        "SHAPE_Leng": 3.93394340988,
        "SHAPE_Area": 0.421107551579,
        "NOMBRE": "CRAVO NORTE",
        "DANE": {
          "dpto_ccdgo": "81",
          "mpio_ccdgo": "220",
          "mpio_cdpmp": "81220",
          "dpto_cnmbr": "ARAUCA",
          "mpio_cnmbr": "CRAVO NORTE",
          "mpio_crslc": "Decreto Nal 677 de Abril 13 de  1987",
          "mpio_tipo": "MUNICIPIO",
          "mpio_narea": 5212.56909644,
          "mpio_nano": 2024,
          "shape_Leng": 3.96393713555,
          "shape_Area": 0.423933314614
        }
      }
    },
    {
      "type": "Feature",
      "geometry": {
        "type": "Polygon",
        "coordinates": [
          [
            [
              -71.4535,
              6.6754
            ],
            [
              -71.6703,
              6.8746
            ],
            [
              -71.7592,
              6.811
            ],
            [
              -71.9802,
              6.7656
            ],
            [
              -72.1001,
              6.7465
            ],
            [
              -72.095,
              6.7296
            ],
            [
              -72.1,
              6.7237
            ],
            [
              -72.0985,
              6.6793
            ],
            [
              -72.0913,
              6.6485
            ],
            [
              -72.0947,
              6.6345
            ],
            [
              -72.1132,
              6.6105
            ],
            [
              -72.112,
              6.5916
            ],
            [
              -72.1183,
              6.5793
            ],
            [
              -72.124,
              6.5401
            ],
            [
              -72.129,
              6.5247
            ],
            [
              -72.1142,
              6.5203
            ],
            [
              -72.1035,
              6.5305
            ],
            [
              -72.086,
              6.5281
            ],
            [
              -72.0708,
              6.5191
            ],
            [
              -72.0604,
              6.5196
            ],
            [
              -72.0049,
              6.5425
            ],
            [
              -72.0009,
              6.5499
            ],
            [
              -71.9803,
              6.5548
            ],
            [
              -71.98,
              6.5637
            ],
            [
              -71.9705,
              6.5729
            ],
            [
              -71.9693,
              6.5843
            ],
            [
              -71.9608,
              6.5948
            ],
            [
              -71.9425,
              6.6
            ],
            [
              -71.943,
              6.6215
            ],
            [
              -71.9355,
              6.6327
            ],
            [
              -71.9226,
              6.6374
            ],
            [
              -71.9037,
              6.6498
            ],
            [
              -71.8982,
              6.6594
            ],
            [
              -71.8981,
              6.6744
            ],
            [
              -71.8865,
              6.6839
            ],
            [
              -71.8666,
              6.6847
            ],
            [
              -71.8524,
              6.6912
            ],
            [
              -71.8253,
              6.6958
            ],
            [
              -71.8125,
              6.6939
            ],
            [
              -71.7801,
              6.6964
            ],
            [
              -71.7661,
              6.702
            ],
            [
              -71.7281,
              6.7018
            ],
            [
              -71.6984,
              6.6821
            ],
            [
              -71.6897,
              6.6658
            ],
            [
              -71.6683,
              6.6491
            ],
            [
              -71.6526,
              6.6452
            ],
            [
              -71.6456,
              6.6558
            ],
            [
              -71.6218,
              6.6554
            ],
            [
              -71.6095,
              6.6438
            ],
            [
              -71.5952,
              6.651
            ],
            [
              -71.5851,
              6.6365
            ],
            [
              -71.5789,
              6.6545
            ],
            [
              -71.5665,
              6.6509
            ],
            [
              -71.5522,
              6.6528
            ],
            [
              -71.5289,
              6.6622
            ],
            [
              -71.5193,
              6.6743
            ],
            [
              -71.5047,
              6.6827
            ],
            [
              -71.4954,
              6.6726
            ],
            [
              -71.4863,
              6.6754
            ],
            [
              -71.4766,
              6.6675
            ],
            [
              -71.468,
              6.6741
            ],
            [
              -71.4535,
              6.6754
            ]
          ]
        ]
      },
      "properties": {
        "OBJECTID": 1051,
        "DPTO_CCDGO": "40",
        "MPIO_CCDGO": "300",
        "name": "40017",
        "MPIO_CRSLC": "Decreto 2926 de 1989",
        "MPIO_NANO_": 1993,
        "MPIO_NAREA": 1103.42024623,
        "MPIO_CSMBL": "4",
        "MPIO_CCNCT": "81300",
        "MPIO_NANO": 2012,
        "SHAPE_Leng": 1.98870917,
        "SHAPE_Area": 0.0902246487501,
        "NOMBRE": "FORTUL",
        "DANE": {
          "dpto_ccdgo": "81",
          "mpio_ccdgo": "300",
          "mpio_cdpmp": "81300",
          "dpto_cnmbr": "ARAUCA",
          "mpio_cnmbr": "FORTUL",
          "mpio_crslc": "Decreto 2926 de 1989",
          "mpio_tipo": "MUNICIPIO",
          "mpio_narea": 1158.59610303,
          "mpio_nano": 2024,
          "shape_Leng": 2.05643251274,
          "shape_Area": 0.0946106259072
        }
      }
    },
    {
      "type": "Feature",
      "geometry": {
        "type": "Polygon",
        "coordinates": [
          [
            [
              -70.6552,
              6.4849
            ],
            [
              -70.6595,
              6.504
            ],
            [
              -70.6556,
              6.5156
            ],
            [
              -70.6664,
              6.534
            ],
            [
              -70.6845,
              6.5374
            ],
            [
              -70.6922,
              6.5601
            ],
            [
              -70.7258,
              6.5891
            ],
            [
              -70.7422,
              6.5838
            ],
            [
              -70.7528,
              6.5722
            ],
            [
              -70.7734,
              6.5739
            ],
            [
              -70.7784,
              6.5788
            ],
            [
              -70.8019,
              6.5768
            ],
            [
              -70.8179,
              6.5796
            ],
            [
              -70.8191,
              6.5941
            ],
            [
              -70.8419,
              6.5974
            ],
            [
              -70.8484,
              6.6072
            ],
            [
              -70.8583,
              6.6069
            ],
            [
              -70.8853,
              6.6228
            ],
            [
              -70.8683,
              6.5286
            ],
            [
              -70.8887,
              6.5299
            ],
            [
              -70.9042,
              6.5517
            ],
            [
              -70.9326,
              6.5453
            ],
            [
              -70.9529,
              6.5606
            ],
            [
              -70.9766,
              6.5595
            ],
            [
              -70.9896,
              6.5442
            ],
            [
              -71.0222,
              6.5503
            ],
            [
              -71.0289,
              6.5558
            ],
            [
              -71.0391,
              6.5429
            ],
            [
              -71.0595,
              6.5441
            ],
            [
              -71.1037,
              6.5574
            ],
            [
              -71.1378,
              6.5478
            ],
            [
              -71.1743,
              6.5561
            ],
            [
              -71.1846,
              6.5414
            ],
            [
              -71.2024,
              6.5517
            ],
            [
              -71.2078,
              6.5482
            ],
            [
              -71.2356,
              6.5601
            ],
            [
              -71.25,
              6.5765
            ],
            [
              -71.2561,
              6.5742
            ],
            [
              -71.2925,
              6.5806
            ],
            [
              -71.3113,
              6.5873
            ],
            [
              -71.3111,
              6.5736
            ],
            [
              -71.3383,
              6.5694
            ],
            [
              -71.2678,
              6.5055
            ],
            [
              -71.2778,
              6.3035
            ],
            [
              -71.2567,
              6.2896
            ],
            [
              -71.2254,
              6.2954
            ],
            [
              -71.2195,
              6.2984
            ],
            [
              -71.208,
              6.2882
            ],
            [
              -71.19,
              6.2783
            ],
            [
              -71.1817,
              6.2812
            ],
            [
              -71.1603,
              6.2719
            ],
            [
              -71.1581,
              6.2629
            ],
            [
              -71.1414,
              6.2646
            ],
            [
              -71.1319,
              6.2599
            ],
            [
              -71.1268,
              6.2723
            ],
            [
              -71.1168,
              6.2654
            ],
            [
              -71.107,
              6.2664
            ],
            [
              -71.0967,
              6.2777
            ],
            [
              -71.0709,
              6.2645
            ],
            [
              -71.0636,
              6.2558
            ],
            [
              -71.0336,
              6.2573
            ],
            [
              -71.0114,
              6.2541
            ],
            [
              -70.984,
              6.2288
            ],
            [
              -70.9721,
              6.2357
            ],
            [
              -70.9525,
              6.2351
            ],
            [
              -70.9354,
              6.2258
            ],
            [
              -70.9157,
              6.2351
            ],
            [
              -70.9059,
              6.2314
            ],
            [
              -70.8951,
              6.2354
            ],
            [
              -70.8792,
              6.2319
            ],
            [
              -70.8693,
              6.2216
            ],
            [
              -70.8643,
              6.2365
            ],
            [
              -70.8309,
              6.2392
            ],
            [
              -70.8211,
              6.2519
            ],
            [
              -70.7872,
              6.2511
            ],
            [
              -70.7722,
              6.2441
            ],
            [
              -70.7694,
              6.2287
            ],
            [
              -70.7542,
              6.2314
            ],
            [
              -70.7314,
              6.2203
            ],
            [
              -70.7201,
              6.2208
            ],
            [
              -70.6552,
              6.4849
            ]
          ]
        ]
      },
      "properties": {
        "OBJECTID": 1052,
        "DPTO_CCDGO": "40",
        "MPIO_CCDGO": "591",
        "name": "40020",
        "MPIO_CRSLC": "Decreto Nal 677 de Abril 13 de  1987",
        "MPIO_NANO_": 1993,
        "MPIO_NAREA": 2253.0220546,
        "MPIO_CSMBL": "4",
        "MPIO_CCNCT": "81591",
        "MPIO_NANO": 2012,
        "SHAPE_Leng": 2.8125124219,
        "SHAPE_Area": 0.184156469772,
        "NOMBRE": "PUERTO RONDON",
        "DANE": {
          "dpto_ccdgo": "81",
          "mpio_ccdgo": "591",
          "mpio_cdpmp": "81591",
          "dpto_cnmbr": "ARAUCA",
          "mpio_cnmbr": "PUERTO RONDÓN",
          "mpio_crslc": "Decreto Nal 677 de Abril 13 de  1987",
          "mpio_tipo": "MUNICIPIO",
          "mpio_narea": 2281.46025247,
          "mpio_nano": 2024,
          "shape_Leng": 2.93237623622,
          "shape_Area": 0.185936024133
        }
      }
    },
    {
      "type": "Feature",
      "geometry": {
        "type": "Polygon",
        "coordinates": [
          [
            [
              -71.693,
              7.0372
            ],
            [
              -71.7146,
              7.0345
            ],
            [
              -71.7177,
              7.0539
            ],
            [
              -71.7354,
              7.0583
            ],
            [
              -71.7462,
              7.0657
            ],
            [
              -71.767,
              7.0663
            ],
            [
              -71.8119,
              7.0624
            ],
            [
              -71.8262,
              7.0524
            ],
            [
              -71.8219,
              7.0371
            ],
            [
              -71.835,
              7.0257
            ],
            [
              -71.8517,
              7.0278
            ],
            [
              -71.8624,
              7.0205
            ],
            [
              -71.8778,
              7.0181
            ],
            [
              -71.889,
              7.0214
            ],
            [
              -71.9153,
              7.0171
            ],
            [
              -71.9378,
              7.0062
            ],
            [
              -71.9489,
              7.0113
            ],
            [
              -71.9602,
              7.0016
            ],
            [
              -71.9619,
              6.9897
            ],
            [
              -71.9778,
              6.9651
            ],
            [
              -71.9937,
              6.927
            ],
            [
              -71.9966,
              6.9089
            ],
            [
              -72.0173,
              6.8691
            ],
            [
              -72.0181,
              6.8609
            ],
            [
              -72.0345,
              6.8297
            ],
            [
              -72.0387,
              6.8143
            ],
            [
              -72.0376,
              6.7967
            ],
            [
              -72.0508,
              6.7686
            ],
            [
              -72.0599,
              6.7675
            ],
            [
              -72.0787,
              6.7509
            ],
            [
              -72.0927,
              6.7538
            ],
            [
              -72.1001,
              6.7465
            ],
            [
              -71.9802,
              6.7656
            ],
            [
              -71.7592,
              6.811
            ],
            [
              -71.6703,
              6.8746
            ],
            [
              -71.693,
              7.0372
            ]
          ]
        ]
      },
      "properties": {
        "OBJECTID": 1053,
        "DPTO_CCDGO": "40",
        "MPIO_CCDGO": "736",
        "name": "40025",
        "MPIO_CRSLC": "Decreto Nal 204 de Feb 3 de 1976",
        "MPIO_NANO_": 1993,
        "MPIO_NAREA": 923.02114798,
        "MPIO_CSMBL": "4",
        "MPIO_CCNCT": "81736",
        "MPIO_NANO": 2012,
        "SHAPE_Leng": 1.43506598836,
        "SHAPE_Area": 0.075506517033,
        "NOMBRE": "SARAVENA",
        "DANE": {
          "dpto_ccdgo": "81",
          "mpio_ccdgo": "736",
          "mpio_cdpmp": "81736",
          "dpto_cnmbr": "ARAUCA",
          "mpio_cnmbr": "SARAVENA",
          "mpio_crslc": "Decreto Nal 204 de Feb 3 de 1976",
          "mpio_tipo": "MUNICIPIO",
          "mpio_narea": 945.136070593,
          "mpio_nano": 2024,
          "shape_Leng": 1.29412600167,
          "shape_Area": 0.0772141268292
        }
      }
    },
    {
      "type": "Feature",
      "geometry": {
        "type": "Polygon",
        "coordinates": [
          [
            [
              -71.4535,
              6.6754
            ],
            [
              -71.468,
              6.6741
            ],
            [
              -71.4766,
              6.6675
            ],
            [
              -71.4863,
              6.6754
            ],
            [
              -71.4954,
              6.6726
            ],
            [
              -71.5047,
              6.6827
            ],
            [
              -71.5193,
              6.6743
            ],
            [
              -71.5289,
              6.6622
            ],
            [
              -71.5522,
              6.6528
            ],
            [
              -71.5665,
              6.6509
            ],
            [
              -71.5789,
              6.6545
            ],
            [
              -71.5851,
              6.6365
            ],
            [
              -71.5952,
              6.651
            ],
            [
              -71.6095,
              6.6438
            ],
            [
              -71.6218,
              6.6554
            ],
            [
              -71.6456,
              6.6558
            ],
            [
              -71.6526,
              6.6452
            ],
            [
              -71.6683,
              6.6491
            ],
            [
              -71.6897,
              6.6658
            ],
            [
              -71.6984,
              6.6821
            ],
            [
              -71.7281,
              6.7018
            ],
            [
              -71.7661,
              6.702
            ],
            [
              -71.7801,
              6.6964
            ],
            [
              -71.8125,
              6.6939
            ],
            [
              -71.8253,
              6.6958
            ],
            [
              -71.8524,
              6.6912
            ],
            [
              -71.8666,
              6.6847
            ],
            [
              -71.8865,
              6.6839
            ],
            [
              -71.8981,
              6.6744
            ],
            [
              -71.8982,
              6.6594
            ],
            [
              -71.9037,
              6.6498
            ],
            [
              -71.9226,
              6.6374
            ],
            [
              -71.9355,
              6.6327
            ],
            [
              -71.943,
              6.6215
            ],
            [
              -71.9425,
              6.6
            ],
            [
              -71.9608,
              6.5948
            ],
            [
              -71.9693,
              6.5843
            ],
            [
              -71.9705,
              6.5729
            ],
            [
              -71.98,
              6.5637
            ],
            [
              -71.9803,
              6.5548
            ],
            [
              -72.0009,
              6.5499
            ],
            [
              -72.0049,
              6.5425
            ],
            [
              -72.0604,
              6.5196
            ],
            [
              -72.0708,
              6.5191
            ],
            [
              -72.086,
              6.5281
            ],
            [
              -72.1035,
              6.5305
            ],
            [
              -72.1142,
              6.5203
            ],
            [
              -72.129,
              6.5247
            ],
            [
              -72.1386,
              6.5142
            ],
            [
              -72.1532,
              6.5134
            ],
            [
              -72.1669,
              6.5007
            ],
            [
              -72.1779,
              6.4968
            ],
            [
              -72.1729,
              6.4802
            ],
            [
              -72.1747,
              6.463
            ],
            [
              -72.1816,
              6.4594
            ],
            [
              -72.2029,
              6.4689
            ],
            [
              -72.213,
              6.466
            ],
            [
              -72.219,
              6.4384
            ],
            [
              -72.2329,
              6.4233
            ],
            [
              -72.246,
              6.4205
            ],
            [
              -72.2479,
              6.4293
            ],
            [
              -72.2606,
              6.4422
            ],
            [
              -72.2707,
              6.4383
            ],
            [
              -72.2718,
              6.4278
            ],
            [
              -72.2824,
              6.4163
            ],
            [
              -72.2867,
              6.3961
            ],
            [
              -72.28,
              6.3885
            ],
            [
              -72.2918,
              6.377
            ],
            [
              -72.3021,
              6.3593
            ],
            [
              -72.3149,
              6.358
            ],
            [
              -72.3171,
              6.3347
            ],
            [
              -72.334,
              6.3378
            ],
            [
              -72.3385,
              6.3456
            ],
            [
              -72.3523,
              6.3312
            ],
            [
              -72.3532,
              6.3193
            ],
            [
              -72.3666,
              6.3069
            ],
            [
              -72.3593,
              6.2852
            ],
            [
              -72.3637,
              6.2708
            ],
            [
              -72.3585,
              6.2573
            ],
            [
              -72.3468,
              6.2436
            ],
            [
              -72.3431,
              6.2257
            ],
            [
              -72.3295,
              6.2209
            ],
            [
              -72.3248,
              6.2098
            ],
            [
              -72.292,
              6.2041
            ],
            [
              -72.2822,
              6.1763
            ],
            [
              -72.289,
              6.1632
            ],
            [
              -72.2797,
              6.1568
            ],
            [
              -72.2775,
              6.1366
            ],
            [
              -72.2726,
              6.1311
            ],
            [
              -72.2241,
              6.1046
            ],
            [
              -72.1949,
              6.0972
            ],
            [
              -72.1871,
              6.0891
            ],
            [
              -72.1568,
              6.072
            ],
            [
              -72.1377,
              6.0666
            ],
            [
              -72.1119,
              6.0757
            ],
            [
              -72.0774,
              6.1129
            ],
            [
              -72.0613,
              6.1172
            ],
            [
              -72.0475,
              6.1226
            ],
            [
              -72.0327,
              6.122
            ],
            [
              -72.0104,
              6.13
            ],
            [
              -71.9885,
              6.1488
            ],
            [
              -71.9665,
              6.1635
            ],
            [
              -71.9505,
              6.1698
            ],
            [
              -71.9368,
              6.1702
            ],
            [
              -71.9097,
              6.1604
            ],
            [
              -71.8794,
              6.1591
            ],
            [
              -71.8628,
              6.1621
            ],
            [
              -71.8438,
              6.172
            ],
            [
              -71.8306,
              6.1849
            ],
            [
              -71.7905,
              6.1895
            ],
            [
              -71.7768,
              6.1934
            ],
            [
              -71.7448,
              6.1912
            ],
            [
              -71.7389,
              6.1931
            ],
            [
              -71.6939,
              6.1904
            ],
            [
              -71.6673,
              6.1918
            ],
            [
              -71.6442,
              6.2089
            ],
            [
              -71.6427,
              6.2213
            ],
            [
              -71.614,
              6.2268
            ],
            [
              -71.6078,
              6.2089
            ],
            [
              -71.591,
              6.2106
            ],
            [
              -71.5789,
              6.1936
            ],
            [
              -71.5686,
              6.2121
            ],
            [
              -71.558,
              6.1974
            ],
            [
              -71.5514,
              6.2121
            ],
            [
              -71.533,
              6.214
            ],
            [
              -71.5036,
              6.1999
            ],
            [
              -71.5014,
              6.2123
            ],
            [
              -71.4929,
              6.214
            ],
            [
              -71.4876,
              6.2014
            ],
            [
              -71.4707,
              6.2122
            ],
            [
              -71.4618,
              6.2116
            ],
            [
              -71.4536,
              6.222
            ],
            [
              -71.4381,
              6.2184
            ],
            [
              -71.4392,
              6.2302
            ],
            [
              -71.4176,
              6.2256
            ],
            [
              -71.417,
              6.2426
            ],
            [
              -71.3946,
              6.2367
            ],
            [
              -71.3855,
              6.2421
            ],
            [
              -71.3638,
              6.2286
            ],
            [
              -71.3453,
              6.2314
            ],
            [
              -71.3429,
              6.2435
            ],
            [
              -71.3331,
              6.2438
            ],
            [
              -71.3309,
              6.2573
            ],
            [
              -71.318,
              6.2536
            ],
            [
              -71.3027,
              6.2688
            ],
            [
              -71.2855,
              6.2751
            ],
            [
              -71.276,
              6.2719
            ],
            [
              -71.2657,
              6.2851
            ],
            [
              -71.251,
              6.2715
            ],
            [
              -71.2366,
              6.2636
            ],
            [
              -71.2316,
              6.2802
            ],
            [
              -71.2198,
              6.2838
            ],
            [
              -71.2254,
              6.2954
            ],
            [
              -71.2567,
              6.2896
            ],
            [
              -71.2778,
              6.3035
            ],
            [
              -71.2678,
              6.5055
            ],
            [
              -71.3383,
              6.5694
            ],
            [
              -71.4535,
              6.6754
            ]
          ]
        ]
      },
      "properties": {
        "OBJECTID": 1054,
        "DPTO_CCDGO": "40",
        "MPIO_CCDGO": "794",
        "name": "40005",
        "MPIO_CRSLC": "1959",
        "MPIO_NANO_": 1993,
        "MPIO_NAREA": 5368.43305583,
        "MPIO_CSMBL": "4",
        "MPIO_CCNCT": "81794",
        "MPIO_NANO": 2012,
        "SHAPE_Leng": 3.80000450833,
        "SHAPE_Area": 0.438713891008,
        "NOMBRE": "TAME",
        "DANE": {
          "dpto_ccdgo": "81",
          "mpio_ccdgo": "794",
          "mpio_cdpmp": "81794",
          "dpto_cnmbr": "ARAUCA",
          "mpio_cnmbr": "TAME",
          "mpio_crslc": "1959",
          "mpio_tipo": "MUNICIPIO",
          "mpio_narea": 5418.70888948,
          "mpio_nano": 2024,
          "shape_Leng": 3.93808710361,
          "shape_Area": 0.442190097327
        }
      }
    }
  ],
  "name": "40"
}