{
  "type": "FeatureCollection",
  "crs": {
    "type": "name",
    "properties": {
      "name": "urn:ogc:def:crs:OGC:1.3:CRS84"
    }
  },
  "features": [
    {
      "type": "Feature",
      "geometry": {
        "type": "Polygon",
        "coordinates": [
          [
            [
              -72.6477,
              11.4284
            ],
            [
              -72.6615,
              11.4353
            ],
            [
              -72.7001,
              11.4487
            ],
            [
              -72.6967,
              11.4578
            ],
            [
              -72.7091,
              11.4664
            ],
            [
              -72.718,
              11.4809
            ],
            [
              -72.7348,
              11.4846
            ],
            [
              -72.7544,
              11.4784
            ],
            [
              -72.7671,
              11.4913
            ],
            [
              -72.7855,
              11.4878
            ],
            [
              -72.7936,
              11.5074
            ],
            [
              -72.8022,
              11.5028
            ],
            [
              -72.8391,
              11.5152
            ],
            [
              -72.8522,
              11.5135
            ],
            [
              -72.866,
              11.5175
            ],
            [
              -72.8779,
              11.5284
            ],
            [
              -72.8798,
              11.5477
            ],
            [
              -72.8906,
              11.5603
            ],
            [
              -72.9089,
              11.5547
            ],
            [
              -72.9476,
              11.5339
            ],
            [
              -72.965,
              11.5213
            ],
            [
              -72.9918,
              11.5128
            ],
            [
              -73.0243,
              11.495
            ],
            [
              -73.0484,
              11.4741
            ],
            [
              -73.0592,
              11.4609
            ],
            [
              -73.0935,
              11.4266
            ],
            [
              -73.1179,
              11.414
            ],
            [
              -73.143,
              11.4076
            ],
            [
              -73.1584,
              11.3862
            ],
            [
              -73.1891,
              11.3659
            ],
            [
              -73.1957,
              11.345
            ],
            [
              -73.2168,
              11.3299
            ],
            [
              -73.2088,
              11.3094
            ],
            [
              -73.1972,
              11.3064
            ],
            [
              -73.1915,
              11.2943
            ],
            [
              -73.1491,
              11.2517
            ],
            [
              -73.1636,
              11.2276
            ],
            [
              -73.1604,
              11.2096
            ],
            [
              -73.1673,
              11.1973
            ],
            [
              -73.1648,
              11.187
            ],
            [
              -73.1823,
              11.162
            ],
            [
              -73.2099,
              11.1565
            ],
            [
              -73.2116,
              11.1342
            ],
            [
              -73.222,
              11.122
            ],
            [
              -73.2341,
              11.0994
            ],
            [
              -73.2617,
              11.0825
            ],
            [
              -73.2658,
              11.0753
            ],
            [
              -73.2881,
              11.0674
            ],
            [
              -73.3069,
              11.0573
            ],
            [
              -73.308,
              11.0505
            ],
            [
              -73.3228,
              11.0425
            ],
            [
              -73.3281,
              11.0272
            ],
            [
              -73.3156,
              11.012
            ],
            [
              -73.3193,
              10.9904
            ],
            [
              -73.3313,
              10.9729
            ],
            [
              -73.3484,
              10.972
            ],
            [
              -73.3605,
              10.967
            ],
            [
              -73.3644,
              10.9433
            ],
            [
              -73.3871,
              10.9219
            ],
            [
              -73.3858,
              10.9165
            ],
            [
              -73.3791,
              10.9142
            ],
            [
              -73.3551,
              10.9185
            ],
            [
              -73.3453,
              10.9104
            ],
            [
              -73.3092,
              10.9272
            ],
            [
              -73.2978,
              10.9255
            ],
            [
              -73.291,
              10.937
            ],
            [
              -73.2766,
              10.9397
            ],
            [
              -73.261,
              10.9297
            ],
            [
              -73.2464,
              10.9335
            ],
            [
              -73.222,
              10.9334
            ],
            [
              -73.193,
              10.9432
            ],
            [
              -73.1575,
              10.9505
            ],
            [
              -73.1418,
              10.9664
            ],
            [
              -73.13,
              10.9707
            ],
            [
              -73.1142,
              10.9871
            ],
            [
              -73.0893,
              10.9725
            ],
            [
              -73.082,
              10.9756
            ],
            [
              -73.0791,
              10.9886
            ],
            [
              -73.0661,
              10.9903
            ],
            [
              -73.0537,
              11.0017
            ],
            [
              -73.0268,
              11.013
            ],
            [
              -73.0186,
              11.0073
            ],
            [
              -72.9992,
              11.0242
            ],
            [
              -72.9859,
              11.0304
            ],
            [
              -72.976,
              11.0263
            ],
            [
              -72.9524,
              11.0299
            ],
            [
              -72.9319,
              11.0178
            ],
            [
              -72.9232,
              11.0307
            ],
            [
              -72.9148,
              11.0319
            ],
            [
              -72.9122,
              11.034
            ],
            [
              -72.8849,
              11.0698
            ],
            [
              -72.8699,
              11.0767
            ],
            [
              -72.8675,
              11.0959
            ],
            [
              -72.8568,
              11.097
            ],
            [
              -72.8218,
              11.1084
            ],
            [
              -72.8078,
              11.1166
            ],
            [
              -72.7887,
              11.135
            ],
            [
              -72.7765,
              11.1366
            ],
            [
              -72.7515,
              11.148
            ],
            [
              -72.732,
              11.1486
            ],
            [
              -72.7159,
              11.1605
            ],
            [
              -72.6914,
              11.1672
            ],
            [
              -72.6726,
              11.162
            ],
            [
              -72.6602,
              11.1686
            ],
            [
              -72.6484,
              11.1641
            ],
            [
              -72.6461,
              11.1788
            ],
            [
              -72.6477,
              11.2114
            ],
            [
              -72.6435,
              11.2168
            ],
            [
              -72.6215,
              11.2097
            ],
            [
              -72.6155,
              11.2161
            ],
            [
              -72.6187,
              11.23
            ],
            [
              -72.6094,
              11.2326
            ],
            [
              -72.6023,
              11.2445
            ],
            [
              -72.6051,
              11.2638
            ],
            [
              -72.6147,
              11.2941
            ],
            [
              -72.6093,
              11.3039
            ],
            [
              -72.6141,
              11.3227
            ],
            [
              -72.6127,
              11.342
            ],
            [
              -72.6206,
              11.3679
            ],
            [
              -72.6285,
              11.382
            ],
            [
              -72.6368,
              11.4157
            ],
            [
              -72.6477,
              11.4284
            ]
          ]
        ]
      },
      "properties": {
        "OBJECTID": 642,
        "DPTO_CCDGO": "48",
        "MPIO_CCDGO": "001",
        "name": "48001",
        "MPIO_CRSLC": "1954",
        "MPIO_NANO_": 1993,
        "MPIO_NAREA": 3079.5712987,
        "MPIO_CSMBL": "4",
        "MPIO_CCNCT": "44001",
        "MPIO_NANO": 2012,
        "SHAPE_Leng": 2.91127732601,
        "SHAPE_Area": 0.254857476048,
        "NOMBRE": "RIOHACHA",
        "DANE": {
          "dpto_ccdgo": "44",
          "mpio_ccdgo": "001",
          "mpio_cdpmp": "44001",
          "dpto_cnmbr": "LA GUAJIRA",
          "mpio_cnmbr": "RIOHACHA",
          "mpio_crslc": "1954",
          "mpio_tipo": "MUNICIPIO",
          "mpio_narea": 3088.63478633,
          "mpio_nano": 2024,
          "shape_Leng": 3.03058951859,
          "shape_Area": 0.255607084831
        }
      }
    },
    {
      "type": "Feature",
      "geometry": {
        "type": "Polygon",
        "coordinates": [
          [
            [
              -72.4588,
              11.1159
            ],
            [
              -72.467,
              11.1271
            ],
            [
              -72.4807,
              11.1363
            ],
            [
              -72.5001,
              11.1359
            ],
            [
              -72.514,
              11.1422
            ],
            [
              -72.5284,
              11.1597
            ],
            [
              -72.511,
              11.1625
            ],
            [
              -72.4956,
              11.1502
            ],
            [
              -72.485,
              11.1535
            ],
            [
              -72.4433,
              11.1504
            ],
            [
              -72.4305,
              11.1607
            ],
            [
              -72.4074,
              11.165
            ],
            [
              -72.4043,
              11.1745
            ],
            [
              -72.4115,
              11.209
            ],
            [
              -72.4193,
              11.2349
            ],
            [
              -72.4289,
              11.2457
            ],
            [
              -72.4359,
              11.2767
            ],
            [
              -72.452,
              11.3015
            ],
            [
              -72.4833,
              11.3132
            ],
            [
              -72.4887,
              11.3214
            ],
            [
              -72.4878,
              11.338
            ],
            [
              -72.5065,
              11.3498
            ],
            [
              -72.5116,
              11.3708
            ],
            [
              -72.5195,
              11.3782
            ],
            [
              -72.5227,
              11.4009
            ],
            [
              -72.5345,
              11.4021
            ],
            [
              -72.5404,
              11.3954
            ],
            [
              -72.5733,
              11.3991
            ],
            [
              -72.5845,
              11.3813
            ],
            [
              -72.5663,
              11.3787
            ],
            [
              -72.5657,
              11.371
            ],
            [
              -72.5771,
              11.336
            ],
            [
              -72.5905,
              11.3313
            ],
            [
              -72.6012,
              11.3178
            ],
            [
              -72.6141,
              11.3227
            ],
            [
              -72.6093,
              11.3039
            ],
            [
              -72.6147,
              11.2941
            ],
            [
              -72.6051,
              11.2638
            ],
            [
              -72.6023,
              11.2445
            ],
            [
              -72.6094,
              11.2326
            ],
            [
              -72.6187,
              11.23
            ],
            [
              -72.6155,
              11.2161
            ],
            [
              -72.6215,
              11.2097
            ],
            [
              -72.6435,
              11.2168
            ],
            [
              -72.6477,
              11.2114
            ],
            [
              -72.6461,
              11.1788
            ],
            [
              -72.6484,
              11.1641
            ],
            [
              -72.6575,
              11.1507
            ],
            [
              -72.6393,
              11.1375
            ],
            [
              -72.6375,
              11.1224
            ],
            [
              -72.6294,
              11.1176
            ],
            [
              -72.6167,
              11.1238
            ],
            [
              -72.6179,
              11.1302
            ],
            [
              -72.6037,
              11.1333
            ],
            [
              -72.5938,
              11.1428
            ],
            [
              -72.5981,
              11.1242
            ],
            [
              -72.5922,
              11.1126
            ],
            [
              -72.5766,
              11.1072
            ],
            [
              -72.5606,
              11.1111
            ],
            [
              -72.5492,
              11.1071
            ],
            [
              -72.5428,
              11.0982
            ],
            [
              -72.5103,
              11.0966
            ],
            [
              -72.496,
              11.0813
            ],
            [
              -72.4847,
              11.0991
            ],
            [
              -72.4588,
              11.1159
            ]
          ]
        ]
      },
      "properties": {
        "OBJECTID": 643,
        "DPTO_CCDGO": "48",
        "MPIO_CCDGO": "035",
        "name": "48002",
        "MPIO_CRSLC": "Ordenanza 001 del 27 de Marzo del 2000",
        "MPIO_NANO_": 2000,
        "MPIO_NAREA": 545.70347008,
        "MPIO_CSMBL": "4",
        "MPIO_CCNCT": "44035",
        "MPIO_NANO": 2012,
        "SHAPE_Leng": 1.44251549102,
        "SHAPE_Area": 0.0451475334823,
        "NOMBRE": "ALBANIA",
        "DANE": {
          "dpto_ccdgo": "44",
          "mpio_ccdgo": "035",
          "mpio_cdpmp": "44035",
          "dpto_cnmbr": "LA GUAJIRA",
          "mpio_cnmbr": "ALBANIA",
          "mpio_crslc": "Ordenanza 001 del 27 de Marzo del 2000",
          "mpio_tipo": "MUNICIPIO",
          "mpio_narea": 546.026552486,
          "mpio_nano": 2024,
          "shape_Leng": 1.4854163157,
          "shape_Area": 0.0451706016063
        }
      }
    },
    {
      "type": "Feature",
      "geometry": {
        "type": "Polygon",
        "coordinates": [
          [
            [
              -72.4924,
              11.0797
            ],
            [
              -72.5001,
              11.0792
            ],
            [
              -72.5122,
              11.0938
            ],
            [
              -72.5379,
              11.0935
            ],
            [
              -72.5612,
              11.1074
            ],
            [
              -72.5772,
              11.1044
            ],
            [
              -72.5947,
              11.111
            ],
            [
              -72.6032,
              11.1291
            ],
            [
              -72.6157,
              11.1268
            ],
            [
              -72.6151,
              11.1213
            ],
            [
              -72.6235,
              11.1137
            ],
            [
              -72.6294,
              11.1176
            ],
            [
              -72.6375,
              11.1224
            ],
            [
              -72.6856,
              11.0786
            ],
            [
              -72.6868,
              11.0681
            ],
            [
              -72.6982,
              11.0593
            ],
            [
              -72.7065,
              11.0429
            ],
            [
              -72.705,
              11.0354
            ],
            [
              -72.7155,
              11.0271
            ],
            [
              -72.7344,
              11.0311
            ],
            [
              -72.7489,
              11.0271
            ],
            [
              -72.7747,
              11.0403
            ],
            [
              -72.7848,
              11.0521
            ],
            [
              -72.8046,
              11.063
            ],
            [
              -72.8279,
              11.0668
            ],
            [
              -72.8503,
              11.0805
            ],
            [
              -72.8568,
              11.097
            ],
            [
              -72.8675,
              11.0959
            ],
            [
              -72.8699,
              11.0767
            ],
            [
              -72.8849,
              11.0698
            ],
            [
              -72.9122,
              11.034
            ],
            [
              -72.8832,
              11.0028
            ],
            [
              -72.8539,
              10.9781
            ],
            [
              -72.8482,
              10.9598
            ],
            [
              -72.8397,
              10.9478
            ],
            [
              -72.8373,
              10.934
            ],
            [
              -72.823,
              10.9311
            ],
            [
              -72.8076,
              10.9223
            ],
            [
              -72.7949,
              10.9035
            ],
            [
              -72.7971,
              10.895
            ],
            [
              -72.7829,
              10.8771
            ],
            [
              -72.771,
              10.8793
            ],
            [
              -72.7555,
              10.8758
            ],
            [
              -72.7437,
              10.8676
            ],
            [
              -72.727,
              10.8634
            ],
            [
              -72.6954,
              10.8423
            ],
            [
              -72.676,
              10.8193
            ],
            [
              -72.6616,
              10.8322
            ],
            [
              -72.6631,
              10.8389
            ],
            [
              -72.6498,
              10.8665
            ],
            [
              -72.6495,
              10.8775
            ],
            [
              -72.6378,
              10.885
            ],
            [
              -72.6204,
              10.887
            ],
            [
              -72.6124,
              10.8827
            ],
            [
              -72.6055,
              10.8955
            ],
            [
              -72.5799,
              10.9108
            ],
            [
              -72.5634,
              10.9279
            ],
            [
              -72.5371,
              10.9749
            ],
            [
              -72.537,
              10.9838
            ],
            [
              -72.5191,
              11.0032
            ],
            [
              -72.5176,
              11.0191
            ],
            [
              -72.5088,
              11.0227
            ],
            [
              -72.5075,
              11.0342
            ],
            [
              -72.4985,
              11.0413
            ],
            [
              -72.4848,
              11.0615
            ],
            [
              -72.4924,
              11.0797
            ]
          ]
        ]
      },
      "properties": {
        "OBJECTID": 644,
        "DPTO_CCDGO": "48",
        "MPIO_CCDGO": "078",
        "name": "48004",
        "MPIO_CRSLC": "1935",
        "MPIO_NANO_": 1993,
        "MPIO_NAREA": 785.02457497,
        "MPIO_CSMBL": "4",
        "MPIO_CCNCT": "44078",
        "MPIO_NANO": 2012,
        "SHAPE_Leng": 1.43724755991,
        "SHAPE_Area": 0.064898415493,
        "NOMBRE": "BARRANCAS",
        "DANE": {
          "dpto_ccdgo": "44",
          "mpio_ccdgo": "078",
          "mpio_cdpmp": "44078",
          "dpto_cnmbr": "LA GUAJIRA",
          "mpio_cnmbr": "BARRANCAS",
          "mpio_crslc": "1935",
          "mpio_tipo": "MUNICIPIO",
          "mpio_narea": 800.941764717,
          "mpio_nano": 2024,
          "shape_Leng": 1.49535743903,
          "shape_Area": 0.0662144732442
        }
      }
    },
    {
      "type": "Feature",
      "geometry": {
        "type": "Polygon",
        "coordinates": [
          [
            [
              -73.3858,
              10.9165
            ],
            [
              -73.3871,
              10.9219
            ],
            [
              -73.3644,
              10.9433
            ],
            [
              -73.3605,
              10.967
            ],
            [
              -73.3484,
              10.972
            ],
            [
              -73.3313,
              10.9729
            ],
            [
              -73.3193,
              10.9904
            ],
            [
              -73.3156,
              11.012
            ],
            [
              -73.3281,
              11.0272
            ],
            [
              -73.3228,
              11.0425
            ],
            [
              -73.308,
              11.0505
            ],
            [
              -73.3069,
              11.0573
            ],
            [
              -73.2881,
              11.0674
            ],
            [
              -73.2658,
              11.0753
            ],
            [
              -73.2617,
              11.0825
            ],
            [
              -73.2341,
              11.0994
            ],
            [
              -73.222,
              11.122
            ],
            [
              -73.2116,
              11.1342
            ],
            [
              -73.2099,
              11.1565
            ],
            [
              -73.1823,
              11.162
            ],
            [
              -73.1648,
              11.187
            ],
            [
              -73.1673,
              11.1973
            ],
            [
              -73.1604,
              11.2096
            ],
            [
              -73.1636,
              11.2276
            ],
            [
              -73.1491,
              11.2517
            ],
            [
              -73.1915,
              11.2943
            ],
            [
              -73.1972,
              11.3064
            ],
            [
              -73.2088,
              11.3094
            ],
            [
              -73.2168,
              11.3299
            ],
            [
              -73.2204,
              11.3251
            ],
            [
              -73.2518,
              11.3079
            ],
            [
              -73.2538,
              11.302
            ],
            [
              -73.2756,
              11.2863
            ],
            [
              -73.3013,
              11.2769
            ],
            [
              -73.3383,
              11.2696
            ],
            [
              -73.3627,
              11.2622
            ],
            [
              -73.4175,
              11.2627
            ],
            [
              -73.4346,
              11.2574
            ],
            [
              -73.4819,
              11.2632
            ],
            [
              -73.5319,
              11.2511
            ],
            [
              -73.5749,
              11.2597
            ],
            [
              -73.5655,
              11.2554
            ],
            [
              -73.5682,
              11.2322
            ],
            [
              -73.582,
              11.2165
            ],
            [
              -73.5839,
              11.1894
            ],
            [
              -73.6119,
              11.1695
            ],
            [
              -73.6183,
              11.1508
            ],
            [
              -73.6286,
              11.1421
            ],
            [
              -73.6451,
              11.1436
            ],
            [
              -73.6534,
              11.1374
            ],
            [
              -73.6519,
              11.1274
            ],
            [
              -73.6422,
              11.1207
            ],
            [
              -73.6374,
              11.1088
            ],
            [
              -73.6485,
              11.0965
            ],
            [
              -73.642,
              11.0797
            ],
            [
              -73.6492,
              11.0601
            ],
            [
              -73.641,
              11.0542
            ],
            [
              -73.6365,
              11.0406
            ],
            [
              -73.6534,
              11.0285
            ],
            [
              -73.6481,
              11.0189
            ],
            [
              -73.6582,
              11.0055
            ],
            [
              -73.6649,
              10.9896
            ],
            [
              -73.6617,
              10.9809
            ],
            [
              -73.6485,
              10.9733
            ],
            [
              -73.6379,
              10.9474
            ],
            [
              -73.6404,
              10.9292
            ],
            [
              -73.6336,
              10.9005
            ],
            [
              -73.6153,
              10.8823
            ],
            [
              -73.6111,
              10.8603
            ],
            [
              -73.5986,
              10.836
            ],
            [
              -73.5653,
              10.8463
            ],
            [
              -73.5459,
              10.845
            ],
            [
              -73.5202,
              10.8476
            ],
            [
              -73.5007,
              10.8593
            ],
            [
              -73.4945,
              10.8575
            ],
            [
              -73.4794,
              10.8672
            ],
            [
              -73.467,
              10.8664
            ],
            [
              -73.437,
              10.8755
            ],
            [
              -73.4157,
              10.8963
            ],
            [
              -73.3858,
              10.9165
            ]
          ]
        ]
      },
      "properties": {
        "OBJECTID": 645,
        "DPTO_CCDGO": "48",
        "MPIO_CCDGO": "090",
        "name": "48005",
        "MPIO_CRSLC": "Ordenanza 30 de Noviembre 15 de 1995",
        "MPIO_NANO_": 1996,
        "MPIO_NAREA": 1748.52972801,
        "MPIO_CSMBL": "4",
        "MPIO_CCNCT": "44090",
        "MPIO_NANO": 2012,
        "SHAPE_Leng": 1.9226142059,
        "SHAPE_Area": 0.144665923104,
        "NOMBRE": "DIBULLA",
        "DANE": {
          "dpto_ccdgo": "44",
          "mpio_ccdgo": "090",
          "mpio_cdpmp": "44090",
          "dpto_cnmbr": "LA GUAJIRA",
          "mpio_cnmbr": "DIBULLA",
          "mpio_crslc": "Ordenanza 30 de Noviembre 15 de 1995",
          "mpio_tipo": "MUNICIPIO",
          "mpio_narea": 1749.74317922,
          "mpio_nano": 2024,
          "shape_Leng": 2.01518922084,
          "shape_Area": 0.144766133109
        }
      }
    },
    {
      "type": "Feature",
      "geometry": {
        "type": "Polygon",
        "coordinates": [
          [
            [
              -72.9148,
              11.0319
            ],
            [
              -72.9232,
              11.0307
            ],
            [
              -72.9319,
              11.0178
            ],
            [
              -72.9524,
              11.0299
            ],
            [
              -72.976,
              11.0263
            ],
            [
              -72.9859,
              11.0304
            ],
            [
              -72.9992,
              11.0242
            ],
            [
              -73.0186,
              11.0073
            ],
            [
              -73.0186,
              10.9918
            ],
            [
              -73.0079,
              10.9829
            ],
            [
              -73.0062,
              10.9655
            ],
            [
              -72.9989,
              10.9531
            ],
            [
              -73.0175,
              10.9339
            ],
            [
              -73.0159,
              10.9101
            ],
            [
              -72.9968,
              10.9035
            ],
            [
              -72.9951,
              10.888
            ],
            [
              -72.9787,
              10.8941
            ],
            [
              -72.9628,
              10.8947
            ],
            [
              -72.9412,
              10.8771
            ],
            [
              -72.9504,
              10.862
            ],
            [
              -72.9504,
              10.8496
            ],
            [
              -72.9438,
              10.8412
            ],
            [
              -72.9436,
              10.8246
            ],
            [
              -72.9225,
              10.8179
            ],
            [
              -72.9039,
              10.7996
            ],
            [
              -72.8989,
              10.7902
            ],
            [
              -72.881,
              10.7943
            ],
            [
              -72.8971,
              10.8212
            ],
            [
              -72.8928,
              10.8306
            ],
            [
              -72.8723,
              10.8408
            ],
            [
              -72.8723,
              10.8563
            ],
            [
              -72.8793,
              10.8577
            ],
            [
              -72.8819,
              10.8828
            ],
            [
              -72.8789,
              10.912
            ],
            [
              -72.8969,
              10.9283
            ],
            [
              -72.9118,
              10.9493
            ],
            [
              -72.9216,
              10.9507
            ],
            [
              -72.915,
              10.9711
            ],
            [
              -72.923,
              10.991
            ],
            [
              -72.9148,
              11.0319
            ]
          ]
        ]
      },
      "properties": {
        "OBJECTID": 646,
        "DPTO_CCDGO": "48",
        "MPIO_CCDGO": "098",
        "name": "48008",
        "MPIO_CRSLC": "Ordenanza 41 de Noviembre 30 de 1995",
        "MPIO_NANO_": 1996,
        "MPIO_NAREA": 231.28501771,
        "MPIO_CSMBL": "4",
        "MPIO_CCNCT": "44098",
        "MPIO_NANO": 2012,
        "SHAPE_Leng": 0.874932675448,
        "SHAPE_Area": 0.0191201346389,
        "NOMBRE": "DISTRACCION",
        "DANE": {
          "dpto_ccdgo": "44",
          "mpio_ccdgo": "098",
          "mpio_cdpmp": "44098",
          "dpto_cnmbr": "LA GUAJIRA",
          "mpio_cnmbr": "DISTRACCIÓN",
          "mpio_crslc": "Ordenanza 41 de Noviembre 30 de 1995",
          "mpio_tipo": "MUNICIPIO",
          "mpio_narea": 231.872841286,
          "mpio_nano": 2024,
          "shape_Leng": 0.901856254519,
          "shape_Area": 0.0191687723628
        }
      }
    },
    {
      "type": "Feature",
      "geometry": {
        "type": "Polygon",
        "coordinates": [
          [
            [
              -72.7814,
              10.6124
            ],
            [
              -72.8016,
              10.6484
            ],
            [
              -72.8142,
              10.6651
            ],
            [
              -72.8215,
              10.6816
            ],
            [
              -72.8622,
              10.6786
            ],
            [
              -72.8681,
              10.6888
            ],
            [
              -72.898,
              10.6891
            ],
            [
              -72.93,
              10.7001
            ],
            [
              -72.948,
              10.7116
            ],
            [
              -72.9737,
              10.7164
            ],
            [
              -72.9979,
              10.6927
            ],
            [
              -73.0133,
              10.6681
            ],
            [
              -72.9868,
              10.6694
            ],
            [
              -72.9879,
              10.659
            ],
            [
              -72.9672,
              10.6474
            ],
            [
              -72.9564,
              10.6355
            ],
            [
              -72.9544,
              10.6202
            ],
            [
              -72.9393,
              10.6109
            ],
            [
              -72.9157,
              10.6045
            ],
            [
              -72.8908,
              10.5857
            ],
            [
              -72.8742,
              10.563
            ],
            [
              -72.8574,
              10.5565
            ],
            [
              -72.8566,
              10.5474
            ],
            [
              -72.8425,
              10.5391
            ],
            [
              -72.8333,
              10.5409
            ],
            [
              -72.8242,
              10.552
            ],
            [
              -72.8198,
              10.5702
            ],
            [
              -72.7928,
              10.5885
            ],
            [
              -72.7897,
              10.6041
            ],
            [
              -72.7814,
              10.6124
            ]
          ]
        ]
      },
      "properties": {
        "OBJECTID": 647,
        "DPTO_CCDGO": "48",
        "MPIO_CCDGO": "110",
        "name": "48006",
        "MPIO_CRSLC": "Ordenanza015 del 29 de Noviembre de 1989",
        "MPIO_NANO_": 1993,
        "MPIO_NAREA": 169.16217902,
        "MPIO_CSMBL": "4",
        "MPIO_CCNCT": "44110",
        "MPIO_NANO": 2012,
        "SHAPE_Leng": 0.660716270496,
        "SHAPE_Area": 0.0139709388527,
        "NOMBRE": "EL MOLINO",
        "DANE": {
          "dpto_ccdgo": "44",
          "mpio_ccdgo": "110",
          "mpio_cdpmp": "44110",
          "dpto_cnmbr": "LA GUAJIRA",
          "mpio_cnmbr": "EL MOLINO",
          "mpio_crslc": "Ordenanza015 del 29 de Noviembre de 1989",
          "mpio_tipo": "MUNICIPIO",
          "mpio_narea": 242.184814638,
          "mpio_nano": 2024,
          "shape_Leng": 0.710049634464,
          "shape_Area": 0.020001737514
        }
      }
    },
    {
      "type": "Feature",
      "geometry": {
        "type": "Polygon",
        "coordinates": [
          [
            [
              -72.676,
              10.8193
            ],
            [
              -72.6954,
              10.8423
            ],
            [
              -72.727,
              10.8634
            ],
            [
              -72.7437,
              10.8676
            ],
            [
              -72.7555,
              10.8758
            ],
            [
              -72.771,
              10.8793
            ],
            [
              -72.7829,
              10.8771
            ],
            [
              -72.7971,
              10.895
            ],
            [
              -72.7949,
              10.9035
            ],
            [
              -72.8076,
              10.9223
            ],
            [
              -72.823,
              10.9311
            ],
            [
              -72.8373,
              10.934
            ],
            [
              -72.8397,
              10.9478
            ],
            [
              -72.8482,
              10.9598
            ],
            [
              -72.8539,
              10.9781
            ],
            [
              -72.8832,
              11.0028
            ],
            [
              -72.9122,
              11.034
            ],
            [
              -72.9148,
              11.0319
            ],
            [
              -72.923,
              10.991
            ],
            [
              -72.915,
              10.9711
            ],
            [
              -72.9216,
              10.9507
            ],
            [
              -72.9118,
              10.9493
            ],
            [
              -72.8969,
              10.9283
            ],
            [
              -72.8789,
              10.912
            ],
            [
              -72.8819,
              10.8828
            ],
            [
              -72.8793,
              10.8577
            ],
            [
              -72.8723,
              10.8563
            ],
            [
              -72.8723,
              10.8408
            ],
            [
              -72.8928,
              10.8306
            ],
            [
              -72.8971,
              10.8212
            ],
            [
              -72.881,
              10.7943
            ],
            [
              -72.8989,
              10.7902
            ],
            [
              -72.89,
              10.7767
            ],
            [
              -72.8752,
              10.77
            ],
            [
              -72.8422,
              10.7668
            ],
            [
              -72.832,
              10.7696
            ],
            [
              -72.8259,
              10.7091
            ],
            [
              -72.8134,
              10.7019
            ],
            [
              -72.8061,
              10.7098
            ],
            [
              -72.7914,
              10.7103
            ],
            [
              -72.7678,
              10.6952
            ],
            [
              -72.753,
              10.6578
            ],
            [
              -72.7482,
              10.6523
            ],
            [
              -72.7402,
              10.652
            ],
            [
              -72.7394,
              10.6704
            ],
            [
              -72.7293,
              10.6971
            ],
            [
              -72.716,
              10.7073
            ],
            [
              -72.7193,
              10.722
            ],
            [
              -72.7114,
              10.7519
            ],
            [
              -72.7052,
              10.7584
            ],
            [
              -72.6892,
              10.7572
            ],
            [
              -72.6784,
              10.7842
            ],
            [
              -72.6825,
              10.7944
            ],
            [
              -72.6764,
              10.8042
            ],
            [
              -72.676,
              10.8193
            ]
          ]
        ]
      },
      "properties": {
        "OBJECTID": 648,
        "DPTO_CCDGO": "48",
        "MPIO_CCDGO": "279",
        "name": "48007",
        "MPIO_CRSLC": "1954",
        "MPIO_NANO_": 1993,
        "MPIO_NAREA": 474.41252243,
        "MPIO_CSMBL": "4",
        "MPIO_CCNCT": "44279",
        "MPIO_NANO": 2012,
        "SHAPE_Leng": 1.26819265603,
        "SHAPE_Area": 0.0392029492581,
        "NOMBRE": "FONSECA",
        "DANE": {
          "dpto_ccdgo": "44",
          "mpio_ccdgo": "279",
          "mpio_cdpmp": "44279",
          "dpto_cnmbr": "LA GUAJIRA",
          "mpio_cnmbr": "FONSECA",
          "mpio_crslc": "1954",
          "mpio_tipo": "MUNICIPIO",
          "mpio_narea": 473.522416327,
          "mpio_nano": 2024,
          "shape_Leng": 1.31860273934,
          "shape_Area": 0.0391294213456
        }
      }
    },
    {
      "type": "Feature",
      "geometry": {
        "type": "MultiPolygon",
        "coordinates": [
          [
            [
              [
                -72.496,
                11.0813
              ],
              [
                -72.5103,
                11.0966
              ],
              [
                -72.5428,
                11.0982
              ],
              [
                -72.5492,
                11.1071
              ],
              [
                -72.5606,
                11.1111
              ],
              [
                -72.5766,
                11.1072
              ],
              [
                -72.5922,
                11.1126
              ],
              [
                -72.5981,
                11.1242
              ],
              [
                -72.5938,
                11.1428
              ],
              [
                -72.6037,
                11.1333
              ],
              [
                -72.6179,
                11.1302
              ],
              [
                -72.6167,
                11.1238
              ],
              [
                -72.6294,
                11.1176
              ],
              [
                -72.6235,
                11.1137
              ],
              [
                -72.6151,
                11.1213
              ],
              [
                -72.6157,
                11.1268
              ],
              [
                -72.6032,
                11.1291
              ],
              [
                -72.5947,
                11.111
              ],
              [
                -72.5772,
                11.1044
              ],
              [
                -72.5612,
                11.1074
              ],
              [
                -72.5379,
                11.0935
              ],
              [
                -72.5122,
                11.0938
              ],
              [
                -72.5001,
                11.0792
              ],
              [
                -72.4924,
                11.0797
              ],
              [
                -72.496,
                11.0813
              ]
            ]
          ],
          [
            [
              [
                -72.6484,
                11.1641
              ],
              [
                -72.6602,
                11.1686
              ],
              [
                -72.6726,
                11.162
              ],
              [
                -72.6914,
                11.1672
              ],
              [
                -72.7159,
                11.1605
              ],
              [
                -72.732,
                11.1486
              ],
              [
                -72.7515,
                11.148
              ],
              [
                -72.7765,
                11.1366
              ],
              [
                -72.7887,
                11.135
              ],
              [
                -72.8078,
                11.1166
              ],
              [
                -72.8218,
                11.1084
              ],
              [
                -72.8568,
                11.097
              ],
              [
                -72.8503,
                11.0805
              ],
              [
                -72.8279,
                11.0668
              ],
              [
                -72.8046,
                11.063
              ],
              [
                -72.7848,
                11.0521
              ],
              [
                -72.7747,
                11.0403
              ],
              [
                -72.7489,
                11.0271
              ],
              [
                -72.7344,
                11.0311
              ],
              [
                -72.7155,
                11.0271
              ],
              [
                -72.705,
                11.0354
              ],
              [
                -72.7065,
                11.0429
              ],
              [
                -72.6982,
                11.0593
              ],
              [
                -72.6868,
                11.0681
              ],
              [
                -72.6856,
                11.0786
              ],
              [
                -72.6375,
                11.1224
              ],
              [
                -72.6393,
                11.1375
              ],
              [
                -72.6575,
                11.1507
              ],
              [
                -72.6484,
                11.1641
              ]
            ]
          ]
        ]
      },
      "properties": {
        "OBJECTID": 649,
        "DPTO_CCDGO": "48",
        "MPIO_CCDGO": "378",
        "name": "48009",
        "MPIO_CRSLC": "Ordenanza 57 de Noviembre 9 de 1994",
        "MPIO_NANO_": 1999,
        "MPIO_NAREA": 239.14376021,
        "MPIO_CSMBL": "4",
        "MPIO_CCNCT": "44378",
        "MPIO_NANO": 2012,
        "SHAPE_Leng": 1.23062394631,
        "SHAPE_Area": 0.0197779074028,
        "NOMBRE": "HATONUEVO",
        "DANE": {
          "dpto_ccdgo": "44",
          "mpio_ccdgo": "378",
          "mpio_cdpmp": "44378",
          "dpto_cnmbr": "LA GUAJIRA",
          "mpio_cnmbr": "HATONUEVO",
          "mpio_crslc": "Ordenanza 57 de Noviembre 9 de 1994",
          "mpio_tipo": "MUNICIPIO",
          "mpio_narea": 214.639917404,
          "mpio_nano": 2024,
          "shape_Leng": 1.14535243305,
          "shape_Area": 0.0177516228246
        }
      }
    },
    {
      "type": "Feature",
      "geometry": {
        "type": "Polygon",
        "coordinates": [
          [
            [
              -72.8868,
              10.4532
            ],
            [
              -72.9176,
              10.4533
            ],
            [
              -72.9176,
              10.4443
            ],
            [
              -72.9359,
              10.4444
            ],
            [
              -72.9359,
              10.4353
            ],
            [
              -72.9633,
              10.4354
            ],
            [
              -72.9634,
              10.4264
            ],
            [
              -72.9816,
              10.4265
            ],
            [
              -72.9817,
              10.4174
            ],
            [
              -73.0273,
              10.4175
            ],
            [
              -73.0271,
              10.5172
            ],
            [
              -73.0727,
              10.5171
            ],
            [
              -73.0725,
              10.5285
            ],
            [
              -73.0863,
              10.5353
            ],
            [
              -73.1107,
              10.4951
            ],
            [
              -73.1352,
              10.4974
            ],
            [
              -73.1541,
              10.4852
            ],
            [
              -73.1627,
              10.4894
            ],
            [
              -73.1734,
              10.4823
            ],
            [
              -73.1714,
              10.4719
            ],
            [
              -73.1777,
              10.4565
            ],
            [
              -73.1675,
              10.4611
            ],
            [
              -73.1553,
              10.4522
            ],
            [
              -73.1419,
              10.4348
            ],
            [
              -73.1459,
              10.4002
            ],
            [
              -73.1284,
              10.3988
            ],
            [
              -73.0878,
              10.4251
            ],
            [
              -73.0713,
              10.424
            ],
            [
              -73.0363,
              10.4035
            ],
            [
              -73.0142,
              10.4115
            ],
            [
              -73.011,
              10.4048
            ],
            [
              -72.9867,
              10.4005
            ],
            [
              -72.9728,
              10.4093
            ],
            [
              -72.9576,
              10.4131
            ],
            [
              -72.9429,
              10.4268
            ],
            [
              -72.9008,
              10.4361
            ],
            [
              -72.8868,
              10.4532
            ]
          ]
        ]
      },
      "properties": {
        "OBJECTID": 650,
        "DPTO_CCDGO": "48",
        "MPIO_CCDGO": "420",
        "name": "48012",
        "MPIO_CRSLC": "Decreto presidencial 609 del 26 de Marzo de 1996 y ratificad",
        "MPIO_NANO_": 1998,
        "MPIO_NAREA": 179.54399974,
        "MPIO_CSMBL": "4",
        "MPIO_CCNCT": "44420",
        "MPIO_NANO": 2012,
        "SHAPE_Leng": 0.95809602953,
        "SHAPE_Area": 0.0148216757931,
        "NOMBRE": "LA JAGUA DEL PILAR",
        "DANE": {
          "dpto_ccdgo": "44",
          "mpio_ccdgo": "420",
          "mpio_cdpmp": "44420",
          "dpto_cnmbr": "LA GUAJIRA",
          "mpio_cnmbr": "LA JAGUA DEL PILAR",
          "mpio_crslc": "Decreto presidencial 609 del 26 de Marzo de 1996 y ratificad",
          "mpio_tipo": "MUNICIPIO",
          "mpio_narea": 179.590796284,
          "mpio_nano": 2024,
          "shape_Leng": 0.980501123071,
          "shape_Area": 0.0148255648167
        }
      }
    },
    {
      "type": "Feature",
      "geometry": {
        "type": "Polygon",
        "coordinates": [
          [
            [
              -72.2614,
              11.5269
            ],
            [
              -72.2624,
              11.526
            ],
            [
              -72.3818,
              11.5255
            ],
            [
              -72.3983,
              11.5013
            ],
            [
              -72.479,
              11.4676
            ],
            [
              -72.49,
              11.4536
            ],
            [
              -72.5301,
              11.4539
            ],
            [
              -72.5367,
              11.4434
            ],
            [
              -72.6051,
              11.459
            ],
            [
              -72.6181,
              11.429
            ],
            [
              -72.6297,
              11.4239
            ],
            [
              -72.6477,
              11.4284
            ],
            [
              -72.6368,
              11.4157
            ],
            [
              -72.6285,
              11.382
            ],
            [
              -72.6206,
              11.3679
            ],
            [
              -72.6127,
              11.342
            ],
            [
              -72.6141,
              11.3227
            ],
            [
              -72.6012,
              11.3178
            ],
            [
              -72.5905,
              11.3313
            ],
            [
              -72.5771,
              11.336
            ],
            [
              -72.5657,
              11.371
            ],
            [
              -72.5663,
              11.3787
            ],
            [
              -72.5845,
              11.3813
            ],
            [
              -72.5733,
              11.3991
            ],
            [
              -72.5404,
              11.3954
            ],
            [
              -72.5345,
              11.4021
            ],
            [
              -72.5227,
              11.4009
            ],
            [
              -72.5195,
              11.3782
            ],
            [
              -72.5116,
              11.3708
            ],
            [
              -72.5065,
              11.3498
            ],
            [
              -72.4878,
              11.338
            ],
            [
              -72.4887,
              11.3214
            ],
            [
              -72.4833,
              11.3132
            ],
            [
              -72.452,
              11.3015
            ],
            [
              -72.4359,
              11.2767
            ],
            [
              -72.4289,
              11.2457
            ],
            [
              -72.4193,
              11.2349
            ],
            [
              -72.4115,
              11.209
            ],
            [
              -72.4043,
              11.1745
            ],
            [
              -72.4074,
              11.165
            ],
            [
              -72.4305,
              11.1607
            ],
            [
              -72.4433,
              11.1504
            ],
            [
              -72.485,
              11.1535
            ],
            [
              -72.4956,
              11.1502
            ],
            [
              -72.511,
              11.1625
            ],
            [
              -72.5284,
              11.1597
            ],
            [
              -72.514,
              11.1422
            ],
            [
              -72.5001,
              11.1359
            ],
            [
              -72.4807,
              11.1363
            ],
            [
              -72.467,
              11.1271
            ],
            [
              -72.4588,
              11.1159
            ],
            [
              -72.4489,
              11.1249
            ],
            [
              -72.4379,
              11.1153
            ],
            [
              -72.4233,
              11.1258
            ],
            [
              -72.4079,
              11.1264
            ],
            [
              -72.3658,
              11.1394
            ],
            [
              -72.3493,
              11.1514
            ],
            [
              -72.3154,
              11.1442
            ],
            [
              -72.2866,
              11.1432
            ],
            [
              -72.2769,
              11.1392
            ],
            [
              -72.2498,
              11.1398
            ],
            [
              -72.2457,
              11.1452
            ],
            [
              -72.144,
              11.332
            ],
            [
              -72.0353,
              11.529
            ],
            [
              -71.9794,
              11.6309
            ],
            [
              -71.9759,
              11.6693
            ],
            [
              -71.9874,
              11.6773
            ],
            [
              -71.9937,
              11.6903
            ],
            [
              -72.0042,
              11.6944
            ],
            [
              -72.0196,
              11.6926
            ],
            [
              -72.0429,
              11.6637
            ],
            [
              -72.1248,
              11.5328
            ],
            [
              -72.142,
              11.5298
            ],
            [
              -72.1507,
              11.5369
            ],
            [
              -72.1638,
              11.5306
            ],
            [
              -72.2305,
              11.5239
            ],
            [
              -72.2439,
              11.5279
            ],
            [
              -72.2614,
              11.5269
            ]
          ]
        ]
      },
      "properties": {
        "OBJECTID": 651,
        "DPTO_CCDGO": "48",
        "MPIO_CCDGO": "430",
        "name": "48010",
        "MPIO_CRSLC": "1956",
        "MPIO_NANO_": 1993,
        "MPIO_NAREA": 1770.91856376,
        "MPIO_CSMBL": "4",
        "MPIO_CCNCT": "44430",
        "MPIO_NANO": 2012,
        "SHAPE_Leng": 2.77848898438,
        "SHAPE_Area": 0.146615725686,
        "NOMBRE": "MAICAO",
        "DANE": {
          "dpto_ccdgo": "44",
          "mpio_ccdgo": "430",
          "mpio_cdpmp": "44430",
          "dpto_cnmbr": "LA GUAJIRA",
          "mpio_cnmbr": "MAICAO",
          "mpio_crslc": "1956",
          "mpio_tipo": "MUNICIPIO",
          "mpio_narea": 1768.73272612,
          "mpio_nano": 2024,
          "shape_Leng": 2.74050059163,
          "shape_Area": 0.146361853849
        }
      }
    },
    {
      "type": "Feature",
      "geometry": {
        "type": "Polygon",
        "coordinates": [
          [
            [
              -72.6477,
              11.4284
            ],
            [
              -72.6297,
              11.4239
            ],
            [
              -72.6181,
              11.429
            ],
            [
              -72.6051,
              11.459
            ],
            [
              -72.5367,
              11.4434
            ],
            [
              -72.5301,
              11.4539
            ],
            [
              -72.49,
              11.4536
            ],
            [
              -72.479,
              11.4676
            ],
            [
              -72.3983,
              11.5013
            ],
            [
              -72.3818,
              11.5255
            ],
            [
              -72.2624,
              11.526
            ],
            [
              -72.2614,
              11.5269
            ],
            [
              -72.2669,
              11.5281
            ],
            [
              -72.2956,
              11.5517
            ],
            [
              -72.3198,
              11.5543
            ],
            [
              -72.3201,
              11.5861
            ],
            [
              -72.3292,
              11.602
            ],
            [
              -72.3403,
              11.6108
            ],
            [
              -72.3623,
              11.6164
            ],
            [
              -72.3783,
              11.6347
            ],
            [
              -72.3802,
              11.655
            ],
            [
              -72.3729,
              11.6702
            ],
            [
              -72.3643,
              11.6701
            ],
            [
              -72.3713,
              11.698
            ],
            [
              -72.3606,
              11.7248
            ],
            [
              -72.3441,
              11.7497
            ],
            [
              -72.3469,
              11.7597
            ],
            [
              -72.331,
              11.7723
            ],
            [
              -72.3358,
              11.7899
            ],
            [
              -72.3422,
              11.7962
            ],
            [
              -72.345,
              11.8111
            ],
            [
              -72.3551,
              11.8281
            ],
            [
              -72.3809,
              11.8183
            ],
            [
              -72.4044,
              11.7977
            ],
            [
              -72.4151,
              11.7914
            ],
            [
              -72.4396,
              11.7857
            ],
            [
              -72.4579,
              11.7778
            ],
            [
              -72.5148,
              11.7769
            ],
            [
              -72.5321,
              11.7693
            ],
            [
              -72.5583,
              11.7464
            ],
            [
              -72.57,
              11.743
            ],
            [
              -72.5925,
              11.7468
            ],
            [
              -72.6264,
              11.7206
            ],
            [
              -72.6556,
              11.7187
            ],
            [
              -72.6835,
              11.7061
            ],
            [
              -72.723,
              11.7001
            ],
            [
              -72.7285,
              11.6955
            ],
            [
              -72.7774,
              11.674
            ],
            [
              -72.7881,
              11.6604
            ],
            [
              -72.8044,
              11.6472
            ],
            [
              -72.8265,
              11.6356
            ],
            [
              -72.8464,
              11.609
            ],
            [
              -72.8699,
              11.585
            ],
            [
              -72.8794,
              11.567
            ],
            [
              -72.8906,
              11.5603
            ],
            [
              -72.8798,
              11.5477
            ],
            [
              -72.8779,
              11.5284
            ],
            [
              -72.866,
              11.5175
            ],
            [
              -72.8522,
              11.5135
            ],
            [
              -72.8391,
              11.5152
            ],
            [
              -72.8022,
              11.5028
            ],
            [
              -72.7936,
              11.5074
            ],
            [
              -72.7855,
              11.4878
            ],
            [
              -72.7671,
              11.4913
            ],
            [
              -72.7544,
              11.4784
            ],
            [
              -72.7348,
              11.4846
            ],
            [
              -72.718,
              11.4809
            ],
            [
              -72.7091,
              11.4664
            ],
            [
              -72.6967,
              11.4578
            ],
            [
              -72.7001,
              11.4487
            ],
            [
              -72.6615,
              11.4353
            ],
            [
              -72.6477,
              11.4284
            ]
          ]
        ]
      },
      "properties": {
        "OBJECTID": 652,
        "DPTO_CCDGO": "48",
        "MPIO_CCDGO": "560",
        "name": "48011",
        "MPIO_CRSLC": "Ordenanza 15 de Noviembre 27 de 1973",
        "MPIO_NANO_": 1993,
        "MPIO_NAREA": 1615.01503686,
        "MPIO_CSMBL": "4",
        "MPIO_CCNCT": "44560",
        "MPIO_NANO": 2012,
        "SHAPE_Leng": 2.20922325806,
        "SHAPE_Area": 0.133782747328,
        "NOMBRE": "MANAURE",
        "DANE": {
          "dpto_ccdgo": "44",
          "mpio_ccdgo": "560",
          "mpio_cdpmp": "44560",
          "dpto_cnmbr": "LA GUAJIRA",
          "mpio_cnmbr": "MANAURE",
          "mpio_crslc": "Ordenanza 15 de Noviembre 27 de 1973",
          "mpio_tipo": "MUNICIPIO",
          "mpio_narea": 1619.40520807,
          "mpio_nano": 2024,
          "shape_Leng": 2.06887334091,
          "shape_Area": 0.134144817851
        }
      }
    },
    {
      "type": "Feature",
      "geometry": {
        "type": "Polygon",
        "coordinates": [
          [
            [
              -73.0186,
              11.0073
            ],
            [
              -73.0268,
              11.013
            ],
            [
              -73.0537,
              11.0017
            ],
            [
              -73.0661,
              10.9903
            ],
            [
              -73.0791,
              10.9886
            ],
            [
              -73.082,
              10.9756
            ],
            [
              -73.0893,
              10.9725
            ],
            [
              -73.1142,
              10.9871
            ],
            [
              -73.13,
              10.9707
            ],
            [
              -73.1418,
              10.9664
            ],
            [
              -73.1575,
              10.9505
            ],
            [
              -73.193,
              10.9432
            ],
            [
              -73.222,
              10.9334
            ],
            [
              -73.2464,
              10.9335
            ],
            [
              -73.261,
              10.9297
            ],
            [
              -73.2766,
              10.9397
            ],
            [
              -73.291,
              10.937
            ],
            [
              -73.2978,
              10.9255
            ],
            [
              -73.3092,
              10.9272
            ],
            [
              -73.3453,
              10.9104
            ],
            [
              -73.3551,
              10.9185
            ],
            [
              -73.3791,
              10.9142
            ],
            [
              -73.3858,
              10.9165
            ],
            [
              -73.4157,
              10.8963
            ],
            [
              -73.437,
              10.8755
            ],
            [
              -73.467,
              10.8664
            ],
            [
              -73.4425,
              10.8653
            ],
            [
              -73.3928,
              10.8674
            ],
            [
              -73.382,
              10.8601
            ],
            [
              -73.3444,
              10.8603
            ],
            [
              -73.3248,
              10.8578
            ],
            [
              -73.3125,
              10.8462
            ],
            [
              -73.2908,
              10.8619
            ],
            [
              -73.2778,
              10.849
            ],
            [
              -73.2644,
              10.8428
            ],
            [
              -73.258,
              10.8293
            ],
            [
              -73.2515,
              10.8043
            ],
            [
              -73.258,
              10.7869
            ],
            [
              -73.2524,
              10.7707
            ],
            [
              -73.2635,
              10.7574
            ],
            [
              -73.2741,
              10.7365
            ],
            [
              -73.2483,
              10.7315
            ],
            [
              -73.2371,
              10.7404
            ],
            [
              -73.2152,
              10.7263
            ],
            [
              -73.2103,
              10.7116
            ],
            [
              -73.196,
              10.7075
            ],
            [
              -73.162,
              10.7158
            ],
            [
              -73.1552,
              10.7005
            ],
            [
              -73.1392,
              10.6864
            ],
            [
              -73.1072,
              10.6775
            ],
            [
              -73.0964,
              10.6595
            ],
            [
              -73.0824,
              10.6281
            ],
            [
              -73.0651,
              10.643
            ],
            [
              -73.0397,
              10.6541
            ],
            [
              -73.0356,
              10.6613
            ],
            [
              -73.0133,
              10.6681
            ],
            [
              -72.9979,
              10.6927
            ],
            [
              -72.9737,
              10.7164
            ],
            [
              -72.948,
              10.7116
            ],
            [
              -72.93,
              10.7001
            ],
            [
              -72.898,
              10.6891
            ],
            [
              -72.8681,
              10.6888
            ],
            [
              -72.8622,
              10.6786
            ],
            [
              -72.8215,
              10.6816
            ],
            [
              -72.8142,
              10.6651
            ],
            [
              -72.8016,
              10.6484
            ],
            [
              -72.7814,
              10.6124
            ],
            [
              -72.7501,
              10.6341
            ],
            [
              -72.7482,
              10.6523
            ],
            [
              -72.753,
              10.6578
            ],
            [
              -72.7678,
              10.6952
            ],
            [
              -72.7914,
              10.7103
            ],
            [
              -72.8061,
              10.7098
            ],
            [
              -72.8134,
              10.7019
            ],
            [
              -72.8259,
              10.7091
            ],
            [
              -72.832,
              10.7696
            ],
            [
              -72.8422,
              10.7668
            ],
            [
              -72.8752,
              10.77
            ],
            [
              -72.89,
              10.7767
            ],
            [
              -72.8989,
              10.7902
            ],
            [
              -72.9039,
              10.7996
            ],
            [
              -72.9225,
              10.8179
            ],
            [
              -72.9436,
              10.8246
            ],
            [
              -72.9438,
              10.8412
            ],
            [
              -72.9504,
              10.8496
            ],
            [
              -72.9504,
              10.862
            ],
            [
              -72.9412,
              10.8771
            ],
            [
              -72.9628,
              10.8947
            ],
            [
              -72.9787,
              10.8941
            ],
            [
              -72.9951,
              10.888
            ],
            [
              -72.9968,
              10.9035
            ],
            [
              -73.0159,
              10.9101
            ],
            [
              -73.0175,
              10.9339
            ],
            [
              -72.9989,
              10.9531
            ],
            [
              -73.0062,
              10.9655
            ],
            [
              -73.0079,
              10.9829
            ],
            [
              -73.0186,
              10.9918
            ],
            [
              -73.0186,
              11.0073
            ]
          ]
        ]
      },
      "properties": {
        "OBJECTID": 653,
        "DPTO_CCDGO": "48",
        "MPIO_CCDGO": "650",
        "name": "48013",
        "MPIO_CRSLC": "1954",
        "MPIO_NANO_": 1993,
        "MPIO_NAREA": 1388.37495302,
        "MPIO_CSMBL": "4",
        "MPIO_CCNCT": "44650",
        "MPIO_NANO": 2012,
        "SHAPE_Leng": 2.46906214548,
        "SHAPE_Area": 0.11473950276,
        "NOMBRE": "SAN JUAN DEL CESAR",
        "DANE": {
          "dpto_ccdgo": "44",
          "mpio_ccdgo": "650",
          "mpio_cdpmp": "44650",
          "dpto_cnmbr": "LA GUAJIRA",
          "mpio_cnmbr": "SAN JUAN DEL CESAR",
          "mpio_crslc": "1954",
          "mpio_tipo": "MUNICIPIO",
          "mpio_narea": 1311.03122293,
          "mpio_nano": 2024,
          "shape_Leng": 2.515437087,
          "shape_Area": 0.108351604512
        }
      }
    },
    {
      "type": "Feature",
      "geometry": {
        "type": "Polygon",
        "coordinates": [
          [
            [
              -71.9794,
              11.6309
            ],
            [
              -71.9714,
              11.6463
            ],
            [
              -71.9313,
              11.6529
            ],
            [
              -71.8414,
              11.6741
            ],
            [
              -71.8022,
              11.68
            ],
            [
              -71.6478,
              11.7326
            ],
            [
              -71.611,
              11.7463
            ],
            [
              -71.4571,
              11.7865
            ],
            [
              -71.3837,
              11.8105
            ],
            [
              -71.3885,
              11.828
            ],
            [
              -71.3542,
              11.8377
            ],
            [
              -71.3431,
              11.8483
            ],
            [
              -71.3233,
              11.8556
            ],
            [
              -71.3091,
              11.8835
            ],
            [
              -71.3031,
              11.8868
            ],
            [
              -71.3013,
              11.8987
            ],
            [
              -71.2952,
              11.9173
            ],
            [
              -71.3056,
              11.9128
            ],
            [
              -71.3154,
              11.9025
            ],
            [
              -71.3307,
              11.9036
            ],
            [
              -71.327,
              11.9212
            ],
            [
              -71.3116,
              11.9152
            ],
            [
              -71.3006,
              11.918
            ],
            [
              -71.2939,
              11.9182
            ],
            [
              -71.2889,
              11.9151
            ],
            [
              -71.2822,
              11.9061
            ],
            [
              -71.2679,
              11.9141
            ],
            [
              -71.2663,
              11.9217
            ],
            [
              -71.2353,
              11.9524
            ],
            [
              -71.2289,
              11.9528
            ],
            [
              -71.1917,
              11.9807
            ],
            [
              -71.1796,
              11.9809
            ],
            [
              -71.1749,
              11.9894
            ],
            [
              -71.1361,
              12.0027
            ],
            [
              -71.1161,
              12.0347
            ],
            [
              -71.1131,
              12.0505
            ],
            [
              -71.1168,
              12.0681
            ],
            [
              -71.1149,
              12.0851
            ],
            [
              -71.1249,
              12.1049
            ],
            [
              -71.1631,
              12.1629
            ],
            [
              -71.1982,
              12.2263
            ],
            [
              -71.2196,
              12.2603
            ],
            [
              -71.2249,
              12.2726
            ],
            [
              -71.2283,
              12.3006
            ],
            [
              -71.2458,
              12.3157
            ],
            [
              -71.2825,
              12.3432
            ],
            [
              -71.3097,
              12.3545
            ],
            [
              -71.3264,
              12.349
            ],
            [
              -71.3527,
              12.3683
            ],
            [
              -71.4026,
              12.384
            ],
            [
              -71.4152,
              12.381
            ],
            [
              -71.4283,
              12.3861
            ],
            [
              -71.4431,
              12.3849
            ],
            [
              -71.4569,
              12.4046
            ],
            [
              -71.4778,
              12.418
            ],
            [
              -71.5105,
              12.4286
            ],
            [
              -71.5241,
              12.4358
            ],
            [
              -71.5427,
              12.4404
            ],
            [
              -71.5568,
              12.4349
            ],
            [
              -71.5733,
              12.4425
            ],
            [
              -71.5767,
              12.4359
            ],
            [
              -71.6242,
              12.4402
            ],
            [
              -71.6445,
              12.4535
            ],
            [
              -71.6707,
              12.4594
            ],
            [
              -71.6898,
              12.4474
            ],
            [
              -71.7197,
              12.4373
            ],
            [
              -71.7286,
              12.4279
            ],
            [
              -71.7346,
              12.4086
            ],
            [
              -71.7022,
              12.4209
            ],
            [
              -71.683,
              12.4225
            ],
            [
              -71.6735,
              12.4282
            ],
            [
              -71.6522,
              12.4333
            ],
            [
              -71.6691,
              12.4115
            ],
            [
              -71.6286,
              12.413
            ],
            [
              -71.6402,
              12.4022
            ],
            [
              -71.6492,
              12.4065
            ],
            [
              -71.6579,
              12.3977
            ],
            [
              -71.6746,
              12.3893
            ],
            [
              -71.687,
              12.3911
            ],
            [
              -71.6993,
              12.383
            ],
            [
              -71.6864,
              12.3746
            ],
            [
              -71.6919,
              12.3651
            ],
            [
              -71.7069,
              12.373
            ],
            [
              -71.7243,
              12.3771
            ],
            [
              -71.7257,
              12.3871
            ],
            [
              -71.7123,
              12.3939
            ],
            [
              -71.7178,
              12.4119
            ],
            [
              -71.7286,
              12.4089
            ],
            [
              -71.7299,
              12.3997
            ],
            [
              -71.7406,
              12.3893
            ],
            [
              -71.7421,
              12.377
            ],
            [
              -71.7374,
              12.3588
            ],
            [
              -71.7462,
              12.342
            ],
            [
              -71.7563,
              12.3328
            ],
            [
              -71.7933,
              12.3283
            ],
            [
              -71.7973,
              12.3135
            ],
            [
              -71.8054,
              12.3052
            ],
            [
              -71.8214,
              12.311
            ],
            [
              -71.8304,
              12.3198
            ],
            [
              -71.8397,
              12.339
            ],
            [
              -71.8385,
              12.345
            ],
            [
              -71.8068,
              12.3662
            ],
            [
              -71.8129,
              12.3726
            ],
            [
              -71.8246,
              12.3701
            ],
            [
              -71.8268,
              12.3617
            ],
            [
              -71.8446,
              12.351
            ],
            [
              -71.8601,
              12.3562
            ],
            [
              -71.9008,
              12.3143
            ],
            [
              -71.928,
              12.2976
            ],
            [
              -71.9374,
              12.2852
            ],
            [
              -71.9512,
              12.2765
            ],
            [
              -71.9215,
              12.274
            ],
            [
              -71.8999,
              12.2778
            ],
            [
              -71.8879,
              12.2715
            ],
            [
              -71.8891,
              12.2549
            ],
            [
              -71.8769,
              12.252
            ],
            [
              -71.8779,
              12.2319
            ],
            [
              -71.8604,
              12.2107
            ],
            [
              -71.8715,
              12.1903
            ],
            [
              -71.8968,
              12.1952
            ],
            [
              -71.9201,
              12.184
            ],
            [
              -71.9193,
              12.1672
            ],
            [
              -71.9276,
              12.1586
            ],
            [
              -71.9632,
              12.1495
            ],
            [
              -71.9646,
              12.1646
            ],
            [
              -71.9788,
              12.15
            ],
            [
              -71.9861,
              12.1538
            ],
            [
              -71.9791,
              12.1707
            ],
            [
              -71.9951,
              12.1864
            ],
            [
              -71.9886,
              12.2101
            ],
            [
              -71.9695,
              12.22
            ],
            [
              -71.9568,
              12.2486
            ],
            [
              -71.9647,
              12.2567
            ],
            [
              -72.0108,
              12.2428
            ],
            [
              -72.0308,
              12.2431
            ],
            [
              -72.0751,
              12.2333
            ],
            [
              -72.1125,
              12.2343
            ],
            [
              -72.1432,
              12.2394
            ],
            [
              -72.165,
              12.221
            ],
            [
              -72.1771,
              12.2171
            ],
            [
              -72.1742,
              12.205
            ],
            [
              -72.1519,
              12.205
            ],
            [
              -72.1483,
              12.1995
            ],
            [
              -72.142,
              12.1562
            ],
            [
              -72.1419,
              12.1204
            ],
            [
              -72.1388,
              12.1046
            ],
            [
              -72.1637,
              12.0445
            ],
            [
              -72.1782,
              12.0195
            ],
            [
              -72.1851,
              11.996
            ],
            [
              -72.1993,
              11.9775
            ],
            [
              -72.2147,
              11.9304
            ],
            [
              -72.2248,
              11.9135
            ],
            [
              -72.2408,
              11.8962
            ],
            [
              -72.2298,
              11.888
            ],
            [
              -72.2435,
              11.8791
            ],
            [
              -72.2496,
              11.8832
            ],
            [
              -72.2688,
              11.8786
            ],
            [
              -72.2938,
              11.8589
            ],
            [
              -72.3387,
              11.8388
            ],
            [
              -72.3551,
              11.8281
            ],
            [
              -72.345,
              11.8111
            ],
            [
              -72.3422,
              11.7962
            ],
            [
              -72.3358,
              11.7899
            ],
            [
              -72.331,
              11.7723
            ],
            [
              -72.3469,
              11.7597
            ],
            [
              -72.3441,
              11.7497
            ],
            [
              -72.3606,
              11.7248
            ],
            [
              -72.3713,
              11.698
            ],
            [
              -72.3643,
              11.6701
            ],
            [
              -72.3729,
              11.6702
            ],
            [
              -72.3802,
              11.655
            ],
            [
              -72.3783,
              11.6347
            ],
            [
              -72.3623,
              11.6164
            ],
            [
              -72.3403,
              11.6108
            ],
            [
              -72.3292,
              11.602
            ],
            [
              -72.3201,
              11.5861
            ],
            [
              -72.3198,
              11.5543
            ],
            [
              -72.2956,
              11.5517
            ],
            [
              -72.2669,
              11.5281
            ],
            [
              -72.2614,
              11.5269
            ],
            [
              -72.2439,
              11.5279
            ],
            [
              -72.2305,
              11.5239
            ],
            [
              -72.1638,
              11.5306
            ],
            [
              -72.1507,
              11.5369
            ],
            [
              -72.142,
              11.5298
            ],
            [
              -72.1248,
              11.5328
            ],
            [
              -72.0429,
              11.6637
            ],
            [
              -72.0196,
              11.6926
            ],
            [
              -72.0042,
              11.6944
            ],
            [
              -71.9937,
              11.6903
            ],
            [
              -71.9874,
              11.6773
            ],
            [
              -71.9759,
              11.6693
            ],
            [
              -71.9794,
              11.6309
            ]
          ]
        ]
      },
      "properties": {
        "OBJECTID": 654,
        "DPTO_CCDGO": "48",
        "MPIO_CCDGO": "847",
        "name": "48016",
        "MPIO_CRSLC": "1954",
        "MPIO_NANO_": 1993,
        "MPIO_NAREA": 7922.88134483,
        "MPIO_CSMBL": "4",
        "MPIO_CCNCT": "44847",
        "MPIO_NANO": 2012,
        "SHAPE_Leng": 5.45699497216,
        "SHAPE_Area": 0.657562104326,
        "NOMBRE": "URIBIA",
        "DANE": {
          "dpto_ccdgo": "44",
          "mpio_ccdgo": "847",
          "mpio_cdpmp": "44847",
          "dpto_cnmbr": "LA GUAJIRA",
          "mpio_cnmbr": "URIBIA",
          "mpio_crslc": "1954",
          "mpio_tipo": "MUNICIPIO",
          "mpio_narea": 7887.5422505,
          "mpio_nano": 2024,
          "shape_Leng": 6.11827819756,
          "shape_Area": 0.653672380239
        }
      }
    },
    {
      "type": "Feature",
      "geometry": {
        "type": "Polygon",
        "coordinates": [
          [
            [
              -72.8433,
              10.5079
            ],
            [
              -72.8705,
              10.5147
            ],
            [
              -72.8916,
              10.5039
            ],
            [
              -72.9023,
              10.5035
            ],
            [
              -72.9213,
              10.5146
            ],
            [
              -72.9542,
              10.5271
            ],
            [
              -72.9575,
              10.5349
            ],
            [
              -73.0065,
              10.5568
            ],
            [
              -73.0113,
              10.5727
            ],
            [
              -73.0239,
              10.5619
            ],
            [
              -73.0531,
              10.5639
            ],
            [
              -73.0855,
              10.5519
            ],
            [
              -73.0991,
              10.5524
            ],
            [
              -73.1082,
              10.5393
            ],
            [
              -73.1392,
              10.525
            ],
            [
              -73.1397,
              10.5138
            ],
            [
              -73.1485,
              10.4996
            ],
            [
              -73.1627,
              10.4894
            ],
            [
              -73.1541,
              10.4852
            ],
            [
              -73.1352,
              10.4974
            ],
            [
              -73.1107,
              10.4951
            ],
            [
              -73.0863,
              10.5353
            ],
            [
              -73.0725,
              10.5285
            ],
            [
              -73.0727,
              10.5171
            ],
            [
              -73.0271,
              10.5172
            ],
            [
              -73.0273,
              10.4175
            ],
            [
              -72.9817,
              10.4174
            ],
            [
              -72.9816,
              10.4265
            ],
            [
              -72.9634,
              10.4264
            ],
            [
              -72.9633,
              10.4354
            ],
            [
              -72.9359,
              10.4353
            ],
            [
              -72.9359,
              10.4444
            ],
            [
              -72.9176,
              10.4443
            ],
            [
              -72.9176,
              10.4533
            ],
            [
              -72.8868,
              10.4532
            ],
            [
              -72.8669,
              10.4604
            ],
            [
              -72.8536,
              10.4807
            ],
            [
              -72.8445,
              10.4862
            ],
            [
              -72.8433,
              10.5079
            ]
          ]
        ]
      },
      "properties": {
        "OBJECTID": 655,
        "DPTO_CCDGO": "48",
        "MPIO_CCDGO": "855",
        "name": "48018",
        "MPIO_CRSLC": "Ordenanza 36 de Diciembre 20 de 1983",
        "MPIO_NANO_": 1993,
        "MPIO_NAREA": 278.39807842,
        "MPIO_CSMBL": "4",
        "MPIO_CCNCT": "44855",
        "MPIO_NANO": 2012,
        "SHAPE_Leng": 1.06176858227,
        "SHAPE_Area": 0.0229838686993,
        "NOMBRE": "URUMITA",
        "DANE": {
          "dpto_ccdgo": "44",
          "mpio_ccdgo": "855",
          "mpio_cdpmp": "44855",
          "dpto_cnmbr": "LA GUAJIRA",
          "mpio_cnmbr": "URUMITA",
          "mpio_crslc": "Ordenanza 36 de Diciembre 20 de 1983",
          "mpio_tipo": "MUNICIPIO",
          "mpio_narea": 246.274609891,
          "mpio_nano": 2024,
          "shape_Leng": 1.05069237745,
          "shape_Area": 0.020331728442
        }
      }
    },
    {
      "type": "Feature",
      "geometry": {
        "type": "Polygon",
        "coordinates": [
          [
            [
              -72.8425,
              10.5391
            ],
            [
              -72.8566,
              10.5474
            ],
            [
              -72.8574,
              10.5565
            ],
            [
              -72.8742,
              10.563
            ],
            [
              -72.8908,
              10.5857
            ],
            [
              -72.9157,
              10.6045
            ],
            [
              -72.9393,
              10.6109
            ],
            [
              -72.9544,
              10.6202
            ],
            [
              -72.9564,
              10.6355
            ],
            [
              -72.9672,
              10.6474
            ],
            [
              -72.9879,
              10.659
            ],
            [
              -72.9868,
              10.6694
            ],
            [
              -73.0133,
              10.6681
            ],
            [
              -73.0356,
              10.6613
            ],
            [
              -73.0397,
              10.6541
            ],
            [
              -73.0651,
              10.643
            ],
            [
              -73.0824,
              10.6281
            ],
            [
              -73.0863,
              10.6234
            ],
            [
              -73.0892,
              10.582
            ],
            [
              -73.1016,
              10.5706
            ],
            [
              -73.0991,
              10.5524
            ],
            [
              -73.0855,
              10.5519
            ],
            [
              -73.0531,
              10.5639
            ],
            [
              -73.0239,
              10.5619
            ],
            [
              -73.0113,
              10.5727
            ],
            [
              -73.0065,
              10.5568
            ],
            [
              -72.9575,
              10.5349
            ],
            [
              -72.9542,
              10.5271
            ],
            [
              -72.9213,
              10.5146
            ],
            [
              -72.9023,
              10.5035
            ],
            [
              -72.8916,
              10.5039
            ],
            [
              -72.8705,
              10.5147
            ],
            [
              -72.8433,
              10.5079
            ],
            [
              -72.8344,
              10.5185
            ],
            [
              -72.8425,
              10.5391
            ]
          ]
        ]
      },
      "properties": {
        "OBJECTID": 656,
        "DPTO_CCDGO": "48",
        "MPIO_CCDGO": "874",
        "name": "48020",
        "MPIO_CRSLC": "1888",
        "MPIO_NANO_": 1993,
        "MPIO_NAREA": 229.11196981,
        "MPIO_CSMBL": "4",
        "MPIO_CCNCT": "44874",
        "MPIO_NANO": 2012,
        "SHAPE_Leng": 0.878964122476,
        "SHAPE_Area": 0.0189206596269,
        "NOMBRE": "VILLANUEVA",
        "DANE": {
          "dpto_ccdgo": "44",
          "mpio_ccdgo": "874",
          "mpio_cdpmp": "44874",
          "dpto_cnmbr": "LA GUAJIRA",
          "mpio_cnmbr": "VILLANUEVA",
          "mpio_crslc": "1888",
          "mpio_tipo": "MUNICIPIO",
          "mpio_narea": 260.095936544,
          "mpio_nano": 2024,
          "shape_Leng": 0.883065455137,
          "shape_Area": 0.0214786578531
        }
      }
    }
  ],
  "name": "48"
}