{
  "type": "FeatureCollection",
  "crs": {
    "type": "name",
    "properties": { "name": "urn:ogc:def:crs:OGC:1.3:CRS84" }
  },
  "features": [
    {
      "type": "Feature",
      "geometry": {
        "type": "MultiPolygon",
        "coordinates": [
          [
            [
              [-77.715, 12.285],
              [-77.679, 12.189],
              [-77.58, 12.175],
              [-77.564, 12.152],
              [-77.627, 12.059],
              [-77.605, 12.055],
              [-77.622, 12.022],
              [-77.605, 12.025],
              [-77.557, 11.919],
              [-77.598, 11.914],
              [-77.61, 11.901],
              [-77.497, 11.928],
              [-77.495, 11.855],
              [-77.599, 11.802],
              [-77.58, 11.654],
              [-77.644, 11.516],
              [-77.778, 11.483],
              [-77.899, 11.359],
              [-77.966, 11.359],
              [-78.043, 11.306],
              [-78.085, 11.312],
              [-78.135, 11.392],
              [-78.114, 11.465],
              [-78.142, 11.559],
              [-78.195, 11.588],
              [-78.146, 11.72],
              [-78.136, 11.883],
              [-78.018, 12.057],
              [-77.938, 12.077],
              [-77.927, 12.053],
              [-77.87, 12.044],
              [-77.832, 12.066],
              [-77.799, 12.115],
              [-77.808, 12.213],
              [-77.755, 12.245],
              [-77.75, 12.285],
              [-77.715, 12.285]
            ]
          ],
          [
            [
              [-77.804, 12.409],
              [-77.785, 12.407],
              [-77.821, 12.37],
              [-77.823, 12.31],
              [-77.778, 12.29],
              [-77.811, 12.236],
              [-77.905, 12.224],
              [-77.97, 12.29],
              [-77.952, 12.373],
              [-77.916, 12.404],
              [-77.804, 12.409]
            ]
          ]
        ]
      },
      "properties": {
        "OBJECTID": 1087,
        "DPTO_CCDGO": "56",
        "MPIO_CCDGO": "564",
        "name": "56004",
        "MPIO_CRSLC": "Decreto  2964B del 13 de Noviembre de 1953",
        "MPIO_NANO_": 1951,
        "MPIO_NAREA": 21.96421334,
        "MPIO_CSMBL": "4",
        "MPIO_CCNCT": "88564",
        "MPIO_NANO": 2012,
        "SHAPE_Leng": 0.284360122408,
        "SHAPE_Area": 0.00183112259933,
        "NOMBRE": "PROVIDENCIA"
      }
    },
    {
      "type": "Feature",
      "geometry": {
        "type": "Polygon",
        "coordinates": [
          [
            [-79.067, 12.424],
            [-78.989, 12.356],
            [-79.006, 12.346],
            [-78.983, 12.311],
            [-78.839, 12.256],
            [-78.805, 12.214],
            [-78.819, 12.194],
            [-78.947, 12.196],
            [-79.044, 12.13],
            [-78.999, 12.05],
            [-79.032, 12.017],
            [-79.061, 12.042],
            [-79.098, 12.049],
            [-79.059, 12.056],
            [-79.112, 12.086],
            [-79.114, 12.048],
            [-79.081, 12.015],
            [-79.057, 12.032],
            [-79.043, 12.002],
            [-79.001, 11.996],
            [-79.008, 11.966],
            [-79.111, 11.946],
            [-79.106, 11.917],
            [-79.056, 11.91],
            [-79.069, 11.745],
            [-79.051, 11.662],
            [-79.114, 11.612],
            [-79.096, 11.485],
            [-79.117, 11.433],
            [-79.199, 11.35],
            [-79.233, 11.068],
            [-79.395, 10.744],
            [-79.452, 10.703],
            [-79.497, 10.736],
            [-79.532, 10.879],
            [-79.52, 10.959],
            [-79.447, 11.07],
            [-79.431, 11.342],
            [-79.45, 11.374],
            [-79.412, 11.391],
            [-79.513, 11.419],
            [-79.535, 11.46],
            [-79.475, 11.674],
            [-79.443, 11.716],
            [-79.468, 11.739],
            [-79.487, 11.827],
            [-79.346, 12.007],
            [-79.326, 12.196],
            [-79.14, 12.39],
            [-79.067, 12.424]
          ]
        ]
      },
      "properties": {
        "OBJECTID": 1122,
        "DPTO_CCDGO": "56",
        "MPIO_CCDGO": "001",
        "name": "56001",
        "MPIO_CRSLC": "Const. política. Art. 309 del 4 de Julio de 1991",
        "MPIO_NANO_": 1943,
        "MPIO_NAREA": 26.77665095,
        "MPIO_CSMBL": "4",
        "MPIO_CCNCT": "88001",
        "MPIO_NANO": 2012,
        "SHAPE_Leng": 0.375781572761,
        "SHAPE_Area": 0.00222593769732,
        "NOMBRE": "SAN ANDRES"
      }
    }
  ],
  "name": "56"
}
