{
  "type": "FeatureCollection",
  "crs": {
    "type": "name",
    "properties": {
      "name": "urn:ogc:def:crs:OGC:1.3:CRS84"
    }
  },
  "features": [
    {
      "type": "Feature",
      "geometry": {
        "type": "Polygon",
        "coordinates": [
          [
            [
              -76.5676,
              1.0821
            ],
            [
              -76.5618,
              1.0965
            ],
            [
              -76.568,
              1.1026
            ],
            [
              -76.5537,
              1.1125
            ],
            [
              -76.547,
              1.1319
            ],
            [
              -76.5509,
              1.1412
            ],
            [
              -76.5437,
              1.1602
            ],
            [
              -76.54,
              1.2049
            ],
            [
              -76.5429,
              1.2219
            ],
            [
              -76.5625,
              1.234
            ],
            [
              -76.5695,
              1.2504
            ],
            [
              -76.5738,
              1.2827
            ],
            [
              -76.586,
              1.3006
            ],
            [
              -76.5709,
              1.329
            ],
            [
              -76.5823,
              1.3373
            ],
            [
              -76.5774,
              1.3487
            ],
            [
              -76.5796,
              1.3741
            ],
            [
              -76.576,
              1.3878
            ],
            [
              -76.5921,
              1.3925
            ],
            [
              -76.6018,
              1.4047
            ],
            [
              -76.6013,
              1.4134
            ],
            [
              -76.6148,
              1.4233
            ],
            [
              -76.6251,
              1.423
            ],
            [
              -76.6386,
              1.4433
            ],
            [
              -76.6635,
              1.4646
            ],
            [
              -76.6766,
              1.4662
            ],
            [
              -76.6976,
              1.4439
            ],
            [
              -76.7186,
              1.439
            ],
            [
              -76.7282,
              1.4315
            ],
            [
              -76.741,
              1.4296
            ],
            [
              -76.751,
              1.4201
            ],
            [
              -76.7663,
              1.4176
            ],
            [
              -76.7794,
              1.41
            ],
            [
              -76.7901,
              1.4124
            ],
            [
              -76.8067,
              1.4013
            ],
            [
              -76.8503,
              1.3848
            ],
            [
              -76.8615,
              1.3751
            ],
            [
              -76.8753,
              1.37
            ],
            [
              -76.8852,
              1.3726
            ],
            [
              -76.9141,
              1.3421
            ],
            [
              -76.9206,
              1.3456
            ],
            [
              -76.9216,
              1.3379
            ],
            [
              -76.9042,
              1.3209
            ],
            [
              -76.9038,
              1.3007
            ],
            [
              -76.8829,
              1.2996
            ],
            [
              -76.8769,
              1.2895
            ],
            [
              -76.8654,
              1.289
            ],
            [
              -76.8664,
              1.2778
            ],
            [
              -76.8568,
              1.2729
            ],
            [
              -76.8556,
              1.2505
            ],
            [
              -76.8237,
              1.2429
            ],
            [
              -76.8151,
              1.22
            ],
            [
              -76.7859,
              1.2241
            ],
            [
              -76.7617,
              1.2141
            ],
            [
              -76.7424,
              1.2109
            ],
            [
              -76.7481,
              1.1778
            ],
            [
              -76.7621,
              1.1577
            ],
            [
              -76.7774,
              1.141
            ],
            [
              -76.7851,
              1.1396
            ],
            [
              -76.7911,
              1.1213
            ],
            [
              -76.769,
              1.1065
            ],
            [
              -76.7681,
              1.0909
            ],
            [
              -76.7759,
              1.0731
            ],
            [
              -76.7787,
              1.0561
            ],
            [
              -76.7626,
              1.0447
            ],
            [
              -76.7593,
              1.0354
            ],
            [
              -76.7367,
              1.0094
            ],
            [
              -76.7405,
              1.0062
            ],
            [
              -76.7219,
              1.0006
            ],
            [
              -76.725,
              1.0141
            ],
            [
              -76.6365,
              1.0755
            ],
            [
              -76.6297,
              1.0564
            ],
            [
              -76.6028,
              1.0335
            ],
            [
              -76.5919,
              1.0367
            ],
            [
              -76.5716,
              1.0295
            ],
            [
              -76.5607,
              1.0306
            ],
            [
              -76.543,
              1.0002
            ],
            [
              -76.5346,
              0.9944
            ],
            [
              -76.5241,
              0.9668
            ],
            [
              -76.5222,
              0.9481
            ],
            [
              -76.4991,
              0.9117
            ],
            [
              -76.4805,
              0.9035
            ],
            [
              -76.4752,
              0.8799
            ],
            [
              -76.4657,
              0.8685
            ],
            [
              -76.4102,
              0.8685
            ],
            [
              -76.4251,
              0.8861
            ],
            [
              -76.4632,
              0.9089
            ],
            [
              -76.4739,
              0.9221
            ],
            [
              -76.5158,
              0.9954
            ],
            [
              -76.4855,
              1.0079
            ],
            [
              -76.4935,
              1.0282
            ],
            [
              -76.5233,
              1.0306
            ],
            [
              -76.5445,
              1.0373
            ],
            [
              -76.5548,
              1.0591
            ],
            [
              -76.5558,
              1.0696
            ],
            [
              -76.5676,
              1.0821
            ]
          ]
        ]
      },
      "properties": {
        "OBJECTID": 1074,
        "DPTO_CCDGO": "64",
        "MPIO_CCDGO": "001",
        "name": "64001",
        "MPIO_CRSLC": "1958",
        "MPIO_NANO_": 1993,
        "MPIO_NAREA": 1343.46163558,
        "MPIO_CSMBL": "4",
        "MPIO_CCNCT": "86001",
        "MPIO_NANO": 2012,
        "SHAPE_Leng": 2.78559696277,
        "SHAPE_Area": 0.109162498675,
        "NOMBRE": "MOCOA",
        "DANE": {
          "dpto_ccdgo": "86",
          "mpio_ccdgo": "001",
          "mpio_cdpmp": "86001",
          "dpto_cnmbr": "PUTUMAYO",
          "mpio_cnmbr": "MOCOA",
          "mpio_crslc": "1958",
          "mpio_tipo": "MUNICIPIO",
          "mpio_narea": 1304.63788021,
          "mpio_nano": 2024,
          "shape_Leng": 2.47522808714,
          "shape_Area": 0.105792947173
        }
      }
    },
    {
      "type": "Feature",
      "geometry": {
        "type": "Polygon",
        "coordinates": [
          [
            [
              -76.9331,
              1.2854
            ],
            [
              -76.9401,
              1.2725
            ],
            [
              -76.9642,
              1.277
            ],
            [
              -76.9794,
              1.2867
            ],
            [
              -76.9831,
              1.2672
            ],
            [
              -76.9714,
              1.2526
            ],
            [
              -76.9789,
              1.2251
            ],
            [
              -77.0131,
              1.2063
            ],
            [
              -77.021,
              1.1962
            ],
            [
              -77.0102,
              1.1989
            ],
            [
              -76.9655,
              1.1573
            ],
            [
              -76.9539,
              1.1798
            ],
            [
              -76.9506,
              1.1947
            ],
            [
              -76.9405,
              1.2095
            ],
            [
              -76.9374,
              1.2476
            ],
            [
              -76.9422,
              1.2564
            ],
            [
              -76.9266,
              1.2734
            ],
            [
              -76.9331,
              1.2854
            ]
          ]
        ]
      },
      "properties": {
        "OBJECTID": 1075,
        "DPTO_CCDGO": "64",
        "MPIO_CCDGO": "219",
        "name": "64007",
        "MPIO_CRSLC": "Decreto 2830 de Diciembre 2 de 1989",
        "MPIO_NANO_": 1993,
        "MPIO_NAREA": 92.24993613,
        "MPIO_CSMBL": "4",
        "MPIO_CCNCT": "86219",
        "MPIO_NANO": 2012,
        "SHAPE_Leng": 0.542872311731,
        "SHAPE_Area": 0.00749612261269,
        "NOMBRE": "COLON",
        "DANE": {
          "dpto_ccdgo": "86",
          "mpio_ccdgo": "219",
          "mpio_cdpmp": "86219",
          "dpto_cnmbr": "PUTUMAYO",
          "mpio_cnmbr": "COLÓN",
          "mpio_crslc": "Decreto 2830 de Diciembre 2 de 1989",
          "mpio_tipo": "MUNICIPIO",
          "mpio_narea": 64.2746184176,
          "mpio_nano": 2024,
          "shape_Leng": 0.454886401905,
          "shape_Area": 0.00520953328381
        }
      }
    },
    {
      "type": "Feature",
      "geometry": {
        "type": "Polygon",
        "coordinates": [
          [
            [
              -76.6541,
              0.6477
            ],
            [
              -76.6519,
              0.6999
            ],
            [
              -76.666,
              0.6959
            ],
            [
              -76.6782,
              0.7078
            ],
            [
              -76.6903,
              0.7057
            ],
            [
              -76.6908,
              0.7166
            ],
            [
              -76.6992,
              0.7234
            ],
            [
              -76.699,
              0.7451
            ],
            [
              -76.7174,
              0.7527
            ],
            [
              -76.7389,
              0.7759
            ],
            [
              -76.76,
              0.7826
            ],
            [
              -76.7661,
              0.793
            ],
            [
              -76.777,
              0.788
            ],
            [
              -76.814,
              0.7879
            ],
            [
              -76.8367,
              0.7786
            ],
            [
              -76.8628,
              0.781
            ],
            [
              -76.8909,
              0.77
            ],
            [
              -76.9113,
              0.8035
            ],
            [
              -76.9305,
              0.8156
            ],
            [
              -76.9298,
              0.8272
            ],
            [
              -76.9354,
              0.8764
            ],
            [
              -76.9502,
              0.9018
            ],
            [
              -76.9692,
              0.9035
            ],
            [
              -76.9805,
              0.9132
            ],
            [
              -77.0014,
              0.8998
            ],
            [
              -77.0239,
              0.9063
            ],
            [
              -77.0393,
              0.9148
            ],
            [
              -77.0498,
              0.9159
            ],
            [
              -77.0704,
              0.9336
            ],
            [
              -77.0728,
              0.9423
            ],
            [
              -77.0797,
              0.9406
            ],
            [
              -77.0912,
              0.9141
            ],
            [
              -77.1005,
              0.9126
            ],
            [
              -77.1175,
              0.9005
            ],
            [
              -77.1227,
              0.8806
            ],
            [
              -77.1164,
              0.8764
            ],
            [
              -77.1178,
              0.8583
            ],
            [
              -77.1024,
              0.8333
            ],
            [
              -77.1392,
              0.8215
            ],
            [
              -77.1592,
              0.7438
            ],
            [
              -77.177,
              0.6711
            ],
            [
              -77.1868,
              0.631
            ],
            [
              -77.1759,
              0.6171
            ],
            [
              -77.1558,
              0.6058
            ],
            [
              -77.128,
              0.6016
            ],
            [
              -77.1173,
              0.5896
            ],
            [
              -77.1203,
              0.5757
            ],
            [
              -77.1154,
              0.564
            ],
            [
              -77.1263,
              0.5561
            ],
            [
              -77.1316,
              0.5397
            ],
            [
              -77.1303,
              0.5252
            ],
            [
              -77.1204,
              0.5083
            ],
            [
              -77.1156,
              0.4831
            ],
            [
              -77.105,
              0.477
            ],
            [
              -77.1014,
              0.4644
            ],
            [
              -77.1083,
              0.4493
            ],
            [
              -77.1052,
              0.4325
            ],
            [
              -77.0966,
              0.4312
            ],
            [
              -77.0898,
              0.4203
            ],
            [
              -77.0214,
              0.5583
            ],
            [
              -77.0159,
              0.5401
            ],
            [
              -77.007,
              0.5328
            ],
            [
              -76.9993,
              0.4925
            ],
            [
              -76.9764,
              0.4848
            ],
            [
              -76.9673,
              0.4869
            ],
            [
              -76.9462,
              0.4817
            ],
            [
              -76.9163,
              0.4848
            ],
            [
              -76.9064,
              0.4912
            ],
            [
              -76.8725,
              0.4828
            ],
            [
              -76.8604,
              0.486
            ],
            [
              -76.8451,
              0.4783
            ],
            [
              -76.8285,
              0.496
            ],
            [
              -76.809,
              0.4956
            ],
            [
              -76.7938,
              0.5131
            ],
            [
              -76.7785,
              0.5031
            ],
            [
              -76.7714,
              0.5052
            ],
            [
              -76.6548,
              0.6316
            ],
            [
              -76.6541,
              0.6477
            ]
          ]
        ]
      },
      "properties": {
        "OBJECTID": 1076,
        "DPTO_CCDGO": "64",
        "MPIO_CCDGO": "320",
        "name": "64023",
        "MPIO_CRSLC": "Decreto 2891 de Diciembre 28 de 1978",
        "MPIO_NANO_": 1993,
        "MPIO_NAREA": 1857.72941105,
        "MPIO_CSMBL": "4",
        "MPIO_CCNCT": "86320",
        "MPIO_NANO": 2012,
        "SHAPE_Leng": 2.10014040119,
        "SHAPE_Area": 0.150932298416,
        "NOMBRE": "ORITO",
        "DANE": {
          "dpto_ccdgo": "86",
          "mpio_ccdgo": "320",
          "mpio_cdpmp": "86320",
          "dpto_cnmbr": "PUTUMAYO",
          "mpio_cnmbr": "ORITO",
          "mpio_crslc": "Decreto 2891 de Diciembre 28 de 1978",
          "mpio_tipo": "MUNICIPIO",
          "mpio_narea": 1939.32978877,
          "mpio_nano": 2024,
          "shape_Leng": 2.1533826819,
          "shape_Area": 0.157166498916
        }
      }
    },
    {
      "type": "Feature",
      "geometry": {
        "type": "Polygon",
        "coordinates": [
          [
            [
              -75.7721,
              0.4398
            ],
            [
              -75.7805,
              0.4508
            ],
            [
              -75.7896,
              0.4458
            ],
            [
              -75.8001,
              0.4672
            ],
            [
              -75.8028,
              0.4825
            ],
            [
              -75.8163,
              0.4976
            ],
            [
              -75.8219,
              0.5159
            ],
            [
              -75.8399,
              0.5298
            ],
            [
              -75.8896,
              0.5642
            ],
            [
              -75.9061,
              0.5728
            ],
            [
              -75.9104,
              0.5872
            ],
            [
              -75.9201,
              0.5897
            ],
            [
              -75.9318,
              0.5802
            ],
            [
              -75.9352,
              0.5659
            ],
            [
              -75.9592,
              0.5546
            ],
            [
              -75.9879,
              0.5657
            ],
            [
              -75.9964,
              0.575
            ],
            [
              -75.9993,
              0.5879
            ],
            [
              -76.01,
              0.5853
            ],
            [
              -76.0319,
              0.5923
            ],
            [
              -76.0332,
              0.5809
            ],
            [
              -76.0459,
              0.5765
            ],
            [
              -76.0464,
              0.5936
            ],
            [
              -76.0665,
              0.5897
            ],
            [
              -76.0742,
              0.607
            ],
            [
              -76.088,
              0.6101
            ],
            [
              -76.0803,
              0.621
            ],
            [
              -76.0915,
              0.6319
            ],
            [
              -76.0976,
              0.6267
            ],
            [
              -76.1164,
              0.6341
            ],
            [
              -76.1104,
              0.6426
            ],
            [
              -76.1253,
              0.6488
            ],
            [
              -76.1392,
              0.635
            ],
            [
              -76.1547,
              0.6383
            ],
            [
              -76.1697,
              0.651
            ],
            [
              -76.1848,
              0.6477
            ],
            [
              -76.1901,
              0.652
            ],
            [
              -76.2013,
              0.6285
            ],
            [
              -76.2094,
              0.622
            ],
            [
              -76.2163,
              0.6348
            ],
            [
              -76.233,
              0.6423
            ],
            [
              -76.237,
              0.6615
            ],
            [
              -76.4427,
              0.6304
            ],
            [
              -76.5944,
              0.6075
            ],
            [
              -76.6154,
              0.6078
            ],
            [
              -76.6115,
              0.6286
            ],
            [
              -76.6467,
              0.639
            ],
            [
              -76.6541,
              0.6477
            ],
            [
              -76.6548,
              0.6316
            ],
            [
              -76.7714,
              0.5052
            ],
            [
              -76.7617,
              0.4913
            ],
            [
              -76.7519,
              0.4948
            ],
            [
              -76.7245,
              0.495
            ],
            [
              -76.7117,
              0.5037
            ],
            [
              -76.7053,
              0.4998
            ],
            [
              -76.6922,
              0.5058
            ],
            [
              -76.6566,
              0.3311
            ],
            [
              -76.6412,
              0.258
            ],
            [
              -76.6325,
              0.2635
            ],
            [
              -76.6189,
              0.2558
            ],
            [
              -76.6028,
              0.2294
            ],
            [
              -76.584,
              0.2198
            ],
            [
              -76.5691,
              0.2431
            ],
            [
              -76.5408,
              0.2573
            ],
            [
              -76.5276,
              0.2556
            ],
            [
              -76.5121,
              0.2401
            ],
            [
              -76.5034,
              0.2362
            ],
            [
              -76.4881,
              0.2412
            ],
            [
              -76.4518,
              0.2388
            ],
            [
              -76.4438,
              0.2563
            ],
            [
              -76.4333,
              0.259
            ],
            [
              -76.4123,
              0.2416
            ],
            [
              -76.4119,
              0.3792
            ],
            [
              -76.3968,
              0.3814
            ],
            [
              -76.3773,
              0.3916
            ],
            [
              -76.3632,
              0.3903
            ],
            [
              -76.3567,
              0.3796
            ],
            [
              -76.3367,
              0.3844
            ],
            [
              -76.3313,
              0.4098
            ],
            [
              -76.3139,
              0.4322
            ],
            [
              -76.3069,
              0.4238
            ],
            [
              -76.2918,
              0.4223
            ],
            [
              -76.2813,
              0.4355
            ],
            [
              -76.2612,
              0.4251
            ],
            [
              -76.2632,
              0.4064
            ],
            [
              -76.2481,
              0.3971
            ],
            [
              -76.2401,
              0.4029
            ],
            [
              -76.2313,
              0.3979
            ],
            [
              -76.2295,
              0.3759
            ],
            [
              -76.2101,
              0.3849
            ],
            [
              -76.1997,
              0.3724
            ],
            [
              -76.1787,
              0.3705
            ],
            [
              -76.1645,
              0.379
            ],
            [
              -76.1443,
              0.3753
            ],
            [
              -75.9997,
              0.3995
            ],
            [
              -75.7721,
              0.4398
            ]
          ]
        ]
      },
      "properties": {
        "OBJECTID": 1077,
        "DPTO_CCDGO": "64",
        "MPIO_CCDGO": "568",
        "name": "64002",
        "MPIO_CRSLC": "Decreto 1951 de Octubre 24 de 1967",
        "MPIO_NANO_": 1993,
        "MPIO_NAREA": 2741.13476829,
        "MPIO_CSMBL": "4",
        "MPIO_CCNCT": "86568",
        "MPIO_NANO": 2012,
        "SHAPE_Leng": 3.70269301779,
        "SHAPE_Area": 0.222656050298,
        "NOMBRE": "PUERTO ASIS",
        "DANE": {
          "dpto_ccdgo": "86",
          "mpio_ccdgo": "568",
          "mpio_cdpmp": "86568",
          "dpto_cnmbr": "PUTUMAYO",
          "mpio_cnmbr": "PUERTO ASÍS",
          "mpio_crslc": "Decreto 1951 de Octubre 24 de 1967",
          "mpio_tipo": "MUNICIPIO",
          "mpio_narea": 2819.15477639,
          "mpio_nano": 2024,
          "shape_Leng": 3.64440206686,
          "shape_Area": 0.228679089097
        }
      }
    },
    {
      "type": "Feature",
      "geometry": {
        "type": "Polygon",
        "coordinates": [
          [
            [
              -76.7661,
              0.793
            ],
            [
              -76.76,
              0.7826
            ],
            [
              -76.7389,
              0.7759
            ],
            [
              -76.7174,
              0.7527
            ],
            [
              -76.699,
              0.7451
            ],
            [
              -76.6992,
              0.7234
            ],
            [
              -76.6908,
              0.7166
            ],
            [
              -76.6903,
              0.7057
            ],
            [
              -76.6782,
              0.7078
            ],
            [
              -76.666,
              0.6959
            ],
            [
              -76.6519,
              0.6999
            ],
            [
              -76.6541,
              0.6477
            ],
            [
              -76.6467,
              0.639
            ],
            [
              -76.6115,
              0.6286
            ],
            [
              -76.6154,
              0.6078
            ],
            [
              -76.5944,
              0.6075
            ],
            [
              -76.4427,
              0.6304
            ],
            [
              -76.237,
              0.6615
            ],
            [
              -76.2386,
              0.6762
            ],
            [
              -76.2314,
              0.6981
            ],
            [
              -76.2473,
              0.7062
            ],
            [
              -76.2501,
              0.7169
            ],
            [
              -76.267,
              0.7375
            ],
            [
              -76.2846,
              0.7438
            ],
            [
              -76.3006,
              0.7642
            ],
            [
              -76.3246,
              0.7669
            ],
            [
              -76.3249,
              0.7751
            ],
            [
              -76.3398,
              0.7874
            ],
            [
              -76.349,
              0.7887
            ],
            [
              -76.3641,
              0.8058
            ],
            [
              -76.3772,
              0.8099
            ],
            [
              -76.3811,
              0.8187
            ],
            [
              -76.3996,
              0.8383
            ],
            [
              -76.4091,
              0.8563
            ],
            [
              -76.4102,
              0.8685
            ],
            [
              -76.4657,
              0.8685
            ],
            [
              -76.5208,
              0.8685
            ],
            [
              -76.5116,
              0.8358
            ],
            [
              -76.4995,
              0.8215
            ],
            [
              -76.493,
              0.8202
            ],
            [
              -76.4846,
              0.8045
            ],
            [
              -76.4907,
              0.7862
            ],
            [
              -76.7661,
              0.793
            ]
          ]
        ]
      },
      "properties": {
        "OBJECTID": 1078,
        "DPTO_CCDGO": "64",
        "MPIO_CCDGO": "569",
        "name": "64026",
        "MPIO_CRSLC": "Ordenanza 12 de Noviembre 24 de 1992",
        "MPIO_NANO_": 1993,
        "MPIO_NAREA": 734.709331,
        "MPIO_CSMBL": "4",
        "MPIO_CCNCT": "86569",
        "MPIO_NANO": 2012,
        "SHAPE_Leng": 1.43356161199,
        "SHAPE_Area": 0.0596865542611,
        "NOMBRE": "PUERTO CAICEDO",
        "DANE": {
          "dpto_ccdgo": "86",
          "mpio_ccdgo": "569",
          "mpio_cdpmp": "86569",
          "dpto_cnmbr": "PUTUMAYO",
          "mpio_cnmbr": "PUERTO CAICEDO",
          "mpio_crslc": "Ordenanza 12 de Noviembre 24 de 1992",
          "mpio_tipo": "MUNICIPIO",
          "mpio_narea": 926.522784931,
          "mpio_nano": 2024,
          "shape_Leng": 1.7207821132,
          "shape_Area": 0.0751438622942
        }
      }
    },
    {
      "type": "Feature",
      "geometry": {
        "type": "Polygon",
        "coordinates": [
          [
            [
              -75.8089,
              0.8955
            ],
            [
              -75.8245,
              0.8757
            ],
            [
              -75.8334,
              0.8741
            ],
            [
              -75.8566,
              0.885
            ],
            [
              -75.8655,
              0.9066
            ],
            [
              -75.87,
              0.9255
            ],
            [
              -75.8949,
              0.9353
            ],
            [
              -75.9031,
              0.9502
            ],
            [
              -75.9044,
              0.9657
            ],
            [
              -75.9207,
              0.9777
            ],
            [
              -75.9457,
              0.9809
            ],
            [
              -75.9439,
              0.989
            ],
            [
              -75.932,
              0.9939
            ],
            [
              -75.9311,
              1.0065
            ],
            [
              -75.9222,
              1.019
            ],
            [
              -75.9212,
              1.0291
            ],
            [
              -75.9516,
              1.0333
            ],
            [
              -75.9756,
              1.0616
            ],
            [
              -75.9863,
              1.0701
            ],
            [
              -75.9889,
              1.0556
            ],
            [
              -75.9857,
              1.0446
            ],
            [
              -75.994,
              1.0272
            ],
            [
              -76.0006,
              1.031
            ],
            [
              -76.0008,
              1.0476
            ],
            [
              -76.0061,
              1.055
            ],
            [
              -76.0199,
              1.0478
            ],
            [
              -76.0385,
              1.0528
            ],
            [
              -76.0471,
              1.0462
            ],
            [
              -76.0641,
              1.0546
            ],
            [
              -76.085,
              1.0576
            ],
            [
              -76.0746,
              1.0325
            ],
            [
              -76.0804,
              1.0212
            ],
            [
              -76.0919,
              1.0189
            ],
            [
              -76.1048,
              1.0247
            ],
            [
              -76.112,
              1.0132
            ],
            [
              -76.1253,
              1.0066
            ],
            [
              -76.1661,
              1.0296
            ],
            [
              -76.1846,
              1.0252
            ],
            [
              -76.1836,
              1.0128
            ],
            [
              -76.1937,
              1.0103
            ],
            [
              -76.2009,
              1.0179
            ],
            [
              -76.2089,
              1.0039
            ],
            [
              -76.1915,
              1.0055
            ],
            [
              -76.1885,
              0.9978
            ],
            [
              -76.2023,
              0.9813
            ],
            [
              -76.2129,
              0.979
            ],
            [
              -76.2527,
              0.9805
            ],
            [
              -76.2667,
              0.9694
            ],
            [
              -76.2715,
              0.9795
            ],
            [
              -76.298,
              0.9606
            ],
            [
              -76.3122,
              0.9658
            ],
            [
              -76.3261,
              0.9586
            ],
            [
              -76.3353,
              0.9807
            ],
            [
              -76.3723,
              0.9837
            ],
            [
              -76.388,
              0.9752
            ],
            [
              -76.401,
              0.9802
            ],
            [
              -76.4133,
              0.9608
            ],
            [
              -76.4275,
              0.9611
            ],
            [
              -76.4453,
              0.9696
            ],
            [
              -76.4453,
              0.9806
            ],
            [
              -76.4672,
              0.9991
            ],
            [
              -76.4855,
              1.0079
            ],
            [
              -76.5158,
              0.9954
            ],
            [
              -76.4739,
              0.9221
            ],
            [
              -76.4632,
              0.9089
            ],
            [
              -76.4251,
              0.8861
            ],
            [
              -76.4102,
              0.8685
            ],
            [
              -76.4091,
              0.8563
            ],
            [
              -76.3996,
              0.8383
            ],
            [
              -76.3811,
              0.8187
            ],
            [
              -76.3772,
              0.8099
            ],
            [
              -76.3641,
              0.8058
            ],
            [
              -76.349,
              0.7887
            ],
            [
              -76.3398,
              0.7874
            ],
            [
              -76.3249,
              0.7751
            ],
            [
              -76.3246,
              0.7669
            ],
            [
              -76.3006,
              0.7642
            ],
            [
              -76.2846,
              0.7438
            ],
            [
              -76.267,
              0.7375
            ],
            [
              -76.2501,
              0.7169
            ],
            [
              -76.2473,
              0.7062
            ],
            [
              -76.2314,
              0.6981
            ],
            [
              -76.2386,
              0.6762
            ],
            [
              -76.237,
              0.6615
            ],
            [
              -76.233,
              0.6423
            ],
            [
              -76.2163,
              0.6348
            ],
            [
              -76.2094,
              0.622
            ],
            [
              -76.2013,
              0.6285
            ],
            [
              -76.1901,
              0.652
            ],
            [
              -76.1848,
              0.6477
            ],
            [
              -76.1697,
              0.651
            ],
            [
              -76.1547,
              0.6383
            ],
            [
              -76.1392,
              0.635
            ],
            [
              -76.1253,
              0.6488
            ],
            [
              -76.1104,
              0.6426
            ],
            [
              -76.1164,
              0.6341
            ],
            [
              -76.0976,
              0.6267
            ],
            [
              -76.0915,
              0.6319
            ],
            [
              -76.0803,
              0.621
            ],
            [
              -76.088,
              0.6101
            ],
            [
              -76.0742,
              0.607
            ],
            [
              -76.0665,
              0.5897
            ],
            [
              -76.0464,
              0.5936
            ],
            [
              -76.0459,
              0.5765
            ],
            [
              -76.0332,
              0.5809
            ],
            [
              -76.0319,
              0.5923
            ],
            [
              -76.01,
              0.5853
            ],
            [
              -75.9993,
              0.5879
            ],
            [
              -75.9964,
              0.575
            ],
            [
              -75.9879,
              0.5657
            ],
            [
              -75.9592,
              0.5546
            ],
            [
              -75.9352,
              0.5659
            ],
            [
              -75.9318,
              0.5802
            ],
            [
              -75.9201,
              0.5897
            ],
            [
              -75.9104,
              0.5872
            ],
            [
              -75.9061,
              0.5728
            ],
            [
              -75.8896,
              0.5642
            ],
            [
              -75.8399,
              0.5298
            ],
            [
              -75.8219,
              0.5159
            ],
            [
              -75.8163,
              0.4976
            ],
            [
              -75.8028,
              0.4825
            ],
            [
              -75.8001,
              0.4672
            ],
            [
              -75.7896,
              0.4458
            ],
            [
              -75.7805,
              0.4508
            ],
            [
              -75.7721,
              0.4398
            ],
            [
              -75.5596,
              0.4773
            ],
            [
              -75.4562,
              0.4953
            ],
            [
              -75.3578,
              0.6169
            ],
            [
              -75.2661,
              0.7234
            ],
            [
              -75.2656,
              0.7256
            ],
            [
              -75.2952,
              0.7284
            ],
            [
              -75.3093,
              0.7477
            ],
            [
              -75.3244,
              0.7462
            ],
            [
              -75.3388,
              0.7684
            ],
            [
              -75.3475,
              0.7662
            ],
            [
              -75.3598,
              0.7504
            ],
            [
              -75.3845,
              0.7539
            ],
            [
              -75.4031,
              0.7387
            ],
            [
              -75.4202,
              0.7381
            ],
            [
              -75.4708,
              0.7603
            ],
            [
              -75.4731,
              0.7729
            ],
            [
              -75.4841,
              0.7831
            ],
            [
              -75.5041,
              0.7668
            ],
            [
              -75.5209,
              0.7757
            ],
            [
              -75.5389,
              0.7899
            ],
            [
              -75.5379,
              0.8268
            ],
            [
              -75.5472,
              0.8327
            ],
            [
              -75.5744,
              0.8343
            ],
            [
              -75.5863,
              0.8392
            ],
            [
              -75.6053,
              0.8371
            ],
            [
              -75.6135,
              0.8461
            ],
            [
              -75.6192,
              0.8677
            ],
            [
              -75.6364,
              0.8767
            ],
            [
              -75.6603,
              0.8733
            ],
            [
              -75.6749,
              0.8602
            ],
            [
              -75.6888,
              0.857
            ],
            [
              -75.7108,
              0.8623
            ],
            [
              -75.7424,
              0.8535
            ],
            [
              -75.7579,
              0.8372
            ],
            [
              -75.7666,
              0.845
            ],
            [
              -75.765,
              0.8535
            ],
            [
              -75.7776,
              0.873
            ],
            [
              -75.7973,
              0.894
            ],
            [
              -75.8089,
              0.8955
            ]
          ]
        ]
      },
      "properties": {
        "OBJECTID": 1079,
        "DPTO_CCDGO": "64",
        "MPIO_CCDGO": "571",
        "name": "64025",
        "MPIO_CRSLC": "Ordenanza 13 de Noviembre 24 de 1992",
        "MPIO_NANO_": 1993,
        "MPIO_NAREA": 4592.49948268,
        "MPIO_CSMBL": "4",
        "MPIO_CCNCT": "86571",
        "MPIO_NANO": 2012,
        "SHAPE_Leng": 4.51201690521,
        "SHAPE_Area": 0.372957207299,
        "NOMBRE": "PUERTO GUZMAN",
        "DANE": {
          "dpto_ccdgo": "86",
          "mpio_ccdgo": "571",
          "mpio_cdpmp": "86571",
          "dpto_cnmbr": "PUTUMAYO",
          "mpio_cnmbr": "PUERTO GUZMÁN",
          "mpio_crslc": "Ordenanza 13 de Noviembre 24 de 1992",
          "mpio_tipo": "MUNICIPIO",
          "mpio_narea": 4576.59155963,
          "mpio_nano": 2024,
          "shape_Leng": 4.73463229394,
          "shape_Area": 0.371458749356
        }
      }
    },
    {
      "type": "Feature",
      "geometry": {
        "type": "Polygon",
        "coordinates": [
          [
            [
              -73.8413,
              -0.398
            ],
            [
              -73.8589,
              -0.3837
            ],
            [
              -73.8819,
              -0.3697
            ],
            [
              -73.9012,
              -0.3684
            ],
            [
              -73.9449,
              -0.3548
            ],
            [
              -73.9989,
              -0.3444
            ],
            [
              -74.0158,
              -0.3349
            ],
            [
              -74.0254,
              -0.3165
            ],
            [
              -74.0353,
              -0.3098
            ],
            [
              -74.0408,
              -0.2972
            ],
            [
              -74.0399,
              -0.2853
            ],
            [
              -74.052,
              -0.2719
            ],
            [
              -74.0698,
              -0.2807
            ],
            [
              -74.084,
              -0.2781
            ],
            [
              -74.1093,
              -0.2364
            ],
            [
              -74.1347,
              -0.2336
            ],
            [
              -74.1461,
              -0.2408
            ],
            [
              -74.1566,
              -0.2611
            ],
            [
              -74.1757,
              -0.2661
            ],
            [
              -74.1883,
              -0.2585
            ],
            [
              -74.1907,
              -0.2272
            ],
            [
              -74.1946,
              -0.2159
            ],
            [
              -74.2084,
              -0.2077
            ],
            [
              -74.2176,
              -0.2101
            ],
            [
              -74.2232,
              -0.2341
            ],
            [
              -74.234,
              -0.2376
            ],
            [
              -74.261,
              -0.2219
            ],
            [
              -74.29,
              -0.1972
            ],
            [
              -74.2872,
              -0.1768
            ],
            [
              -74.264,
              -0.1555
            ],
            [
              -74.2655,
              -0.1444
            ],
            [
              -74.2781,
              -0.1394
            ],
            [
              -74.299,
              -0.1481
            ],
            [
              -74.3063,
              -0.146
            ],
            [
              -74.3305,
              -0.116
            ],
            [
              -74.3511,
              -0.1065
            ],
            [
              -74.3708,
              -0.1113
            ],
            [
              -74.3951,
              -0.1129
            ],
            [
              -74.4115,
              -0.1179
            ],
            [
              -74.429,
              -0.1323
            ],
            [
              -74.4474,
              -0.1391
            ],
            [
              -74.4472,
              -0.1291
            ],
            [
              -74.4265,
              -0.1125
            ],
            [
              -74.4243,
              -0.0944
            ],
            [
              -74.4395,
              -0.0752
            ],
            [
              -74.4514,
              -0.0702
            ],
            [
              -74.4621,
              -0.082
            ],
            [
              -74.4647,
              -0.1111
            ],
            [
              -74.4748,
              -0.1303
            ],
            [
              -74.4862,
              -0.1382
            ],
            [
              -74.4994,
              -0.137
            ],
            [
              -74.5083,
              -0.1269
            ],
            [
              -74.5066,
              -0.1033
            ],
            [
              -74.5142,
              -0.0917
            ],
            [
              -74.5305,
              -0.0888
            ],
            [
              -74.5347,
              -0.1021
            ],
            [
              -74.524,
              -0.1162
            ],
            [
              -74.5302,
              -0.126
            ],
            [
              -74.541,
              -0.1204
            ],
            [
              -74.5784,
              -0.1114
            ],
            [
              -74.5987,
              -0.0983
            ],
            [
              -74.6318,
              -0.0885
            ],
            [
              -74.6326,
              -0.0828
            ],
            [
              -74.618,
              -0.0714
            ],
            [
              -74.6165,
              -0.0563
            ],
            [
              -74.6299,
              -0.0448
            ],
            [
              -74.6475,
              -0.0386
            ],
            [
              -74.6714,
              -0.0601
            ],
            [
              -74.6797,
              -0.047
            ],
            [
              -74.6604,
              -0.0363
            ],
            [
              -74.6559,
              -0.0203
            ],
            [
              -74.6578,
              -0.0087
            ],
            [
              -74.6765,
              0.0099
            ],
            [
              -74.69,
              0.0189
            ],
            [
              -74.704,
              0.0372
            ],
            [
              -74.7019,
              0.0446
            ],
            [
              -74.6836,
              0.0426
            ],
            [
              -74.6601,
              0.0562
            ],
            [
              -74.656,
              0.0717
            ],
            [
              -74.6707,
              0.0827
            ],
            [
              -74.6922,
              0.0785
            ],
            [
              -74.7114,
              0.0891
            ],
            [
              -74.6803,
              0.092
            ],
            [
              -74.6737,
              0.1049
            ],
            [
              -74.6778,
              0.1602
            ],
            [
              -74.6816,
              0.1666
            ],
            [
              -74.7036,
              0.1846
            ],
            [
              -74.7167,
              0.2014
            ],
            [
              -74.7365,
              0.2096
            ],
            [
              -74.7687,
              0.2126
            ],
            [
              -74.778,
              0.2085
            ],
            [
              -74.8169,
              0.2167
            ],
            [
              -74.836,
              0.2124
            ],
            [
              -74.8541,
              0.2178
            ],
            [
              -74.893,
              0.2492
            ],
            [
              -74.9136,
              0.2525
            ],
            [
              -74.9286,
              0.2507
            ],
            [
              -74.9429,
              0.2433
            ],
            [
              -74.9654,
              0.2448
            ],
            [
              -74.9857,
              0.2654
            ],
            [
              -75.0039,
              0.2732
            ],
            [
              -75.0104,
              0.2812
            ],
            [
              -75.0064,
              0.2964
            ],
            [
              -74.9895,
              0.2997
            ],
            [
              -74.9798,
              0.3141
            ],
            [
              -75.0001,
              0.3334
            ],
            [
              -75.012,
              0.3537
            ],
            [
              -75.0156,
              0.3865
            ],
            [
              -75.0072,
              0.3928
            ],
            [
              -74.9887,
              0.3963
            ],
            [
              -74.9828,
              0.4072
            ],
            [
              -74.9852,
              0.4166
            ],
            [
              -75.0038,
              0.4359
            ],
            [
              -75.0136,
              0.4639
            ],
            [
              -75.0256,
              0.4799
            ],
            [
              -75.0339,
              0.4843
            ],
            [
              -75.0454,
              0.4799
            ],
            [
              -75.1009,
              0.4725
            ],
            [
              -75.1063,
              0.4784
            ],
            [
              -75.0954,
              0.4903
            ],
            [
              -75.099,
              0.5111
            ],
            [
              -75.1121,
              0.5129
            ],
            [
              -75.1248,
              0.5069
            ],
            [
              -75.1429,
              0.4875
            ],
            [
              -75.1609,
              0.4806
            ],
            [
              -75.1758,
              0.4865
            ],
            [
              -75.1962,
              0.4792
            ],
            [
              -75.2169,
              0.4866
            ],
            [
              -75.2157,
              0.4957
            ],
            [
              -75.1985,
              0.5014
            ],
            [
              -75.2003,
              0.5093
            ],
            [
              -75.2248,
              0.5354
            ],
            [
              -75.2353,
              0.565
            ],
            [
              -75.2326,
              0.5794
            ],
            [
              -75.2147,
              0.5866
            ],
            [
              -75.2071,
              0.5953
            ],
            [
              -75.2208,
              0.6344
            ],
            [
              -75.2312,
              0.6461
            ],
            [
              -75.2762,
              0.6674
            ],
            [
              -75.2754,
              0.6761
            ],
            [
              -75.2638,
              0.6879
            ],
            [
              -75.2572,
              0.7028
            ],
            [
              -75.2656,
              0.7256
            ],
            [
              -75.2661,
              0.7234
            ],
            [
              -75.3578,
              0.6169
            ],
            [
              -75.4562,
              0.4953
            ],
            [
              -75.5596,
              0.4773
            ],
            [
              -75.7721,
              0.4398
            ],
            [
              -75.9997,
              0.3995
            ],
            [
              -76.1443,
              0.3753
            ],
            [
              -76.1288,
              0.3634
            ],
            [
              -76.1206,
              0.339
            ],
            [
              -76.1217,
              0.3197
            ],
            [
              -76.1041,
              0.3111
            ],
            [
              -76.0951,
              0.3174
            ],
            [
              -76.0851,
              0.3325
            ],
            [
              -76.0639,
              0.3336
            ],
            [
              -76.0544,
              0.3281
            ],
            [
              -76.0466,
              0.3042
            ],
            [
              -76.0118,
              0.2993
            ],
            [
              -76.0038,
              0.2916
            ],
            [
              -76.0065,
              0.278
            ],
            [
              -75.9972,
              0.2632
            ],
            [
              -76.0066,
              0.2496
            ],
            [
              -75.9917,
              0.2422
            ],
            [
              -75.9659,
              0.2364
            ],
            [
              -75.9598,
              0.2243
            ],
            [
              -75.9556,
              0.2012
            ],
            [
              -75.9398,
              0.1989
            ],
            [
              -75.9304,
              0.1921
            ],
            [
              -75.9293,
              0.1816
            ],
            [
              -75.8988,
              0.1542
            ],
            [
              -75.907,
              0.1459
            ],
            [
              -75.906,
              0.136
            ],
            [
              -75.8888,
              0.1406
            ],
            [
              -75.8808,
              0.1337
            ],
            [
              -75.8838,
              0.12
            ],
            [
              -75.8712,
              0.1178
            ],
            [
              -75.8599,
              0.1334
            ],
            [
              -75.8541,
              0.131
            ],
            [
              -75.8447,
              0.1042
            ],
            [
              -75.8223,
              0.082
            ],
            [
              -75.8122,
              0.0509
            ],
            [
              -75.8019,
              0.0471
            ],
            [
              -75.7879,
              0.0542
            ],
            [
              -75.7788,
              0.0408
            ],
            [
              -75.7394,
              0.0316
            ],
            [
              -75.7256,
              0.0346
            ],
            [
              -75.6967,
              0.0308
            ],
            [
              -75.6753,
              0.0386
            ],
            [
              -75.6494,
              0.0267
            ],
            [
              -75.6338,
              0.0456
            ],
            [
              -75.6156,
              0.0276
            ],
            [
              -75.6122,
              0.0145
            ],
            [
              -75.6041,
              0.0099
            ],
            [
              -75.5813,
              0.0138
            ],
            [
              -75.5809,
              0.0029
            ],
            [
              -75.5876,
              -0.0112
            ],
            [
              -75.5801,
              -0.025
            ],
            [
              -75.5696,
              -0.0305
            ],
            [
              -75.5525,
              -0.0249
            ],
            [
              -75.53,
              -0.0267
            ],
            [
              -75.5217,
              -0.0308
            ],
            [
              -75.5084,
              -0.048
            ],
            [
              -75.4993,
              -0.0531
            ],
            [
              -75.4805,
              -0.0514
            ],
            [
              -75.4593,
              -0.0604
            ],
            [
              -75.4513,
              -0.075
            ],
            [
              -75.4255,
              -0.0897
            ],
            [
              -75.3916,
              -0.1022
            ],
            [
              -75.3668,
              -0.0918
            ],
            [
              -75.354,
              -0.0945
            ],
            [
              -75.3374,
              -0.1078
            ],
            [
              -75.3165,
              -0.109
            ],
            [
              -75.2759,
              -0.1274
            ],
            [
              -75.2514,
              -0.1163
            ],
            [
              -75.225,
              -0.09
            ],
            [
              -75.2178,
              -0.0782
            ],
            [
              -75.2136,
              -0.056
            ],
            [
              -75.2022,
              -0.0449
            ],
            [
              -75.1874,
              -0.0419
            ],
            [
              -75.1694,
              -0.0453
            ],
            [
              -75.1614,
              -0.0564
            ],
            [
              -75.1461,
              -0.068
            ],
            [
              -75.1214,
              -0.0798
            ],
            [
              -75.1004,
              -0.0813
            ],
            [
              -75.0794,
              -0.0936
            ],
            [
              -75.069,
              -0.0949
            ],
            [
              -75.0536,
              -0.1123
            ],
            [
              -75.0442,
              -0.1299
            ],
            [
              -75.035,
              -0.1331
            ],
            [
              -75.018,
              -0.1477
            ],
            [
              -74.9981,
              -0.1547
            ],
            [
              -74.9739,
              -0.1583
            ],
            [
              -74.9778,
              -0.1768
            ],
            [
              -74.9748,
              -0.1868
            ],
            [
              -74.9589,
              -0.1951
            ],
            [
              -74.9283,
              -0.2288
            ],
            [
              -74.9062,
              -0.219
            ],
            [
              -74.8965,
              -0.2381
            ],
            [
              -74.8872,
              -0.2449
            ],
            [
              -74.8735,
              -0.2408
            ],
            [
              -74.8543,
              -0.2433
            ],
            [
              -74.8375,
              -0.2237
            ],
            [
              -74.8349,
              -0.2154
            ],
            [
              -74.8095,
              -0.1929
            ],
            [
              -74.8009,
              -0.2016
            ],
            [
              -74.7882,
              -0.2007
            ],
            [
              -74.7779,
              -0.2082
            ],
            [
              -74.7723,
              -0.2278
            ],
            [
              -74.7633,
              -0.2301
            ],
            [
              -74.7533,
              -0.2542
            ],
            [
              -74.7504,
              -0.2848
            ],
            [
              -74.7323,
              -0.3016
            ],
            [
              -74.7312,
              -0.3115
            ],
            [
              -74.7378,
              -0.3292
            ],
            [
              -74.7256,
              -0.3496
            ],
            [
              -74.7022,
              -0.3524
            ],
            [
              -74.6967,
              -0.3385
            ],
            [
              -74.6838,
              -0.3314
            ],
            [
              -74.6835,
              -0.3508
            ],
            [
              -74.6877,
              -0.3651
            ],
            [
              -74.6752,
              -0.3726
            ],
            [
              -74.6516,
              -0.3757
            ],
            [
              -74.6356,
              -0.3611
            ],
            [
              -74.6117,
              -0.3532
            ],
            [
              -74.6169,
              -0.3704
            ],
            [
              -74.6119,
              -0.3826
            ],
            [
              -74.5914,
              -0.3842
            ],
            [
              -74.5758,
              -0.3973
            ],
            [
              -74.5737,
              -0.4129
            ],
            [
              -74.5496,
              -0.4232
            ],
            [
              -74.5479,
              -0.438
            ],
            [
              -74.5379,
              -0.463
            ],
            [
              -74.5303,
              -0.4699
            ],
            [
              -74.5019,
              -0.4759
            ],
            [
              -74.5032,
              -0.4845
            ],
            [
              -74.4896,
              -0.4908
            ],
            [
              -74.4815,
              -0.4777
            ],
            [
              -74.4696,
              -0.4813
            ],
            [
              -74.4687,
              -0.4966
            ],
            [
              -74.452,
              -0.5061
            ],
            [
              -74.4423,
              -0.4974
            ],
            [
              -74.4297,
              -0.4992
            ],
            [
              -74.4223,
              -0.5074
            ],
            [
              -74.4306,
              -0.5348
            ],
            [
              -74.4217,
              -0.5612
            ],
            [
              -74.4085,
              -0.5572
            ],
            [
              -74.3979,
              -0.5426
            ],
            [
              -74.3891,
              -0.5537
            ],
            [
              -74.1802,
              -0.4944
            ],
            [
              -74.0636,
              -0.4613
            ],
            [
              -73.8413,
              -0.398
            ]
          ]
        ]
      },
      "properties": {
        "OBJECTID": 1080,
        "DPTO_CCDGO": "64",
        "MPIO_CCDGO": "573",
        "name": "64004",
        "MPIO_CRSLC": "Decreto 698 de Noviembre 13 de 1953",
        "MPIO_NANO_": 1993,
        "MPIO_NAREA": 10716.8371319,
        "MPIO_CSMBL": "4",
        "MPIO_CCNCT": "86573",
        "MPIO_NANO": 2012,
        "SHAPE_Leng": 7.44003851487,
        "SHAPE_Area": 0.870328052974,
        "NOMBRE": "PUERTO LEGUIZAMO",
        "DANE": {
          "dpto_ccdgo": "86",
          "mpio_ccdgo": "573",
          "mpio_cdpmp": "86573",
          "dpto_cnmbr": "PUTUMAYO",
          "mpio_cnmbr": "PUERTO LEGUÍZAMO",
          "mpio_crslc": "Decreto 698 de Noviembre 13 de 1953",
          "mpio_tipo": "MUNICIPIO",
          "mpio_narea": 10906.8768149,
          "mpio_nano": 2024,
          "shape_Leng": 7.53772788526,
          "shape_Area": 0.885757929212
        }
      }
    },
    {
      "type": "Feature",
      "geometry": {
        "type": "Polygon",
        "coordinates": [
          [
            [
              -76.8769,
              1.2895
            ],
            [
              -76.8829,
              1.2996
            ],
            [
              -76.9038,
              1.3007
            ],
            [
              -76.9042,
              1.3209
            ],
            [
              -76.9304,
              1.2957
            ],
            [
              -76.9331,
              1.2854
            ],
            [
              -76.9266,
              1.2734
            ],
            [
              -76.9422,
              1.2564
            ],
            [
              -76.9374,
              1.2476
            ],
            [
              -76.9405,
              1.2095
            ],
            [
              -76.9506,
              1.1947
            ],
            [
              -76.9539,
              1.1798
            ],
            [
              -76.9655,
              1.1573
            ],
            [
              -76.9558,
              1.1545
            ],
            [
              -76.945,
              1.1661
            ],
            [
              -76.9248,
              1.1673
            ],
            [
              -76.8891,
              1.1731
            ],
            [
              -76.8752,
              1.1875
            ],
            [
              -76.8708,
              1.2013
            ],
            [
              -76.8846,
              1.2248
            ],
            [
              -76.8866,
              1.2385
            ],
            [
              -76.8944,
              1.2563
            ],
            [
              -76.8769,
              1.2895
            ]
          ]
        ]
      },
      "properties": {
        "OBJECTID": 1081,
        "DPTO_CCDGO": "64",
        "MPIO_CCDGO": "749",
        "name": "64019",
        "MPIO_CRSLC": "Decreto 1871 de Julio 1 de 1982",
        "MPIO_NANO_": 1993,
        "MPIO_NAREA": 110.32986321,
        "MPIO_CSMBL": "4",
        "MPIO_CCNCT": "86749",
        "MPIO_NANO": 2012,
        "SHAPE_Leng": 0.465867513129,
        "SHAPE_Area": 0.00896522179099,
        "NOMBRE": "SIBUNDOY",
        "DANE": {
          "dpto_ccdgo": "86",
          "mpio_ccdgo": "749",
          "mpio_cdpmp": "86749",
          "dpto_cnmbr": "PUTUMAYO",
          "mpio_cnmbr": "SIBUNDOY",
          "mpio_crslc": "Decreto 1871 de Julio 1 de 1982",
          "mpio_tipo": "MUNICIPIO",
          "mpio_narea": 97.7346245615,
          "mpio_nano": 2024,
          "shape_Leng": 0.511381875882,
          "shape_Area": 0.00792226887501
        }
      }
    },
    {
      "type": "Feature",
      "geometry": {
        "type": "Polygon",
        "coordinates": [
          [
            [
              -76.7405,
              1.0062
            ],
            [
              -76.7367,
              1.0094
            ],
            [
              -76.7593,
              1.0354
            ],
            [
              -76.7626,
              1.0447
            ],
            [
              -76.7787,
              1.0561
            ],
            [
              -76.7759,
              1.0731
            ],
            [
              -76.7681,
              1.0909
            ],
            [
              -76.769,
              1.1065
            ],
            [
              -76.7911,
              1.1213
            ],
            [
              -76.7851,
              1.1396
            ],
            [
              -76.7774,
              1.141
            ],
            [
              -76.7621,
              1.1577
            ],
            [
              -76.7481,
              1.1778
            ],
            [
              -76.7424,
              1.2109
            ],
            [
              -76.7617,
              1.2141
            ],
            [
              -76.7859,
              1.2241
            ],
            [
              -76.8151,
              1.22
            ],
            [
              -76.8237,
              1.2429
            ],
            [
              -76.8556,
              1.2505
            ],
            [
              -76.8568,
              1.2729
            ],
            [
              -76.8664,
              1.2778
            ],
            [
              -76.8654,
              1.289
            ],
            [
              -76.8769,
              1.2895
            ],
            [
              -76.8944,
              1.2563
            ],
            [
              -76.8866,
              1.2385
            ],
            [
              -76.8846,
              1.2248
            ],
            [
              -76.8708,
              1.2013
            ],
            [
              -76.8752,
              1.1875
            ],
            [
              -76.8891,
              1.1731
            ],
            [
              -76.9248,
              1.1673
            ],
            [
              -76.945,
              1.1661
            ],
            [
              -76.9558,
              1.1545
            ],
            [
              -76.9655,
              1.1573
            ],
            [
              -76.9728,
              1.1461
            ],
            [
              -76.9707,
              1.1276
            ],
            [
              -76.975,
              1.1159
            ],
            [
              -76.9842,
              1.1088
            ],
            [
              -76.9867,
              1.0936
            ],
            [
              -76.9483,
              1.0959
            ],
            [
              -76.9446,
              1.0902
            ],
            [
              -76.9294,
              1.0896
            ],
            [
              -76.9052,
              1.0737
            ],
            [
              -76.901,
              1.0584
            ],
            [
              -76.8816,
              1.0564
            ],
            [
              -76.8536,
              1.0453
            ],
            [
              -76.8411,
              1.0429
            ],
            [
              -76.8094,
              1.0204
            ],
            [
              -76.7946,
              1.0218
            ],
            [
              -76.7782,
              1.0145
            ],
            [
              -76.7593,
              1.0136
            ],
            [
              -76.7405,
              1.0062
            ]
          ]
        ]
      },
      "properties": {
        "OBJECTID": 1082,
        "DPTO_CCDGO": "64",
        "MPIO_CCDGO": "755",
        "name": "64013",
        "MPIO_CRSLC": "Decreto 2830 de Diciembre 2 de 1989",
        "MPIO_NANO_": 1993,
        "MPIO_NAREA": 596.2087433,
        "MPIO_CSMBL": "4",
        "MPIO_CCNCT": "86755",
        "MPIO_NANO": 2012,
        "SHAPE_Leng": 1.3342566027,
        "SHAPE_Area": 0.0484458866955,
        "NOMBRE": "SAN FRANCISCO",
        "DANE": {
          "dpto_ccdgo": "86",
          "mpio_ccdgo": "755",
          "mpio_cdpmp": "86755",
          "dpto_cnmbr": "PUTUMAYO",
          "mpio_cnmbr": "SAN FRANCISCO",
          "mpio_crslc": "Decreto 2830 de Diciembre 2 de 1989",
          "mpio_tipo": "MUNICIPIO",
          "mpio_narea": 407.356740966,
          "mpio_nano": 2024,
          "shape_Leng": 1.17549504939,
          "shape_Area": 0.033022563111
        }
      }
    },
    {
      "type": "Feature",
      "geometry": {
        "type": "Polygon",
        "coordinates": [
          [
            [
              -76.6566,
              0.3311
            ],
            [
              -76.7608,
              0.3419
            ],
            [
              -76.8174,
              0.3059
            ],
            [
              -76.8418,
              0.3025
            ],
            [
              -76.8502,
              0.3169
            ],
            [
              -76.8451,
              0.3228
            ],
            [
              -76.8525,
              0.3389
            ],
            [
              -76.872,
              0.3587
            ],
            [
              -76.8778,
              0.3574
            ],
            [
              -76.8932,
              0.368
            ],
            [
              -76.9071,
              0.3646
            ],
            [
              -76.9185,
              0.3819
            ],
            [
              -76.9472,
              0.3835
            ],
            [
              -76.9599,
              0.3497
            ],
            [
              -76.9897,
              0.3543
            ],
            [
              -77.0001,
              0.3836
            ],
            [
              -77.0222,
              0.3653
            ],
            [
              -77.0245,
              0.3533
            ],
            [
              -77.0107,
              0.3398
            ],
            [
              -77.0118,
              0.3254
            ],
            [
              -77.0233,
              0.3144
            ],
            [
              -77.0382,
              0.3235
            ],
            [
              -77.049,
              0.2893
            ],
            [
              -77.0259,
              0.2783
            ],
            [
              -77.0134,
              0.2925
            ],
            [
              -76.9989,
              0.2901
            ],
            [
              -76.9889,
              0.271
            ],
            [
              -76.9497,
              0.2686
            ],
            [
              -76.9356,
              0.2766
            ],
            [
              -76.9345,
              0.2612
            ],
            [
              -76.9034,
              0.2448
            ],
            [
              -76.8727,
              0.2508
            ],
            [
              -76.8483,
              0.2394
            ],
            [
              -76.8388,
              0.2418
            ],
            [
              -76.8235,
              0.2552
            ],
            [
              -76.798,
              0.2649
            ],
            [
              -76.7858,
              0.2629
            ],
            [
              -76.7704,
              0.2451
            ],
            [
              -76.7529,
              0.2505
            ],
            [
              -76.7548,
              0.2734
            ],
            [
              -76.7274,
              0.2852
            ],
            [
              -76.7119,
              0.2688
            ],
            [
              -76.7055,
              0.2767
            ],
            [
              -76.6912,
              0.2762
            ],
            [
              -76.6777,
              0.2698
            ],
            [
              -76.6629,
              0.2735
            ],
            [
              -76.6412,
              0.258
            ],
            [
              -76.6566,
              0.3311
            ]
          ]
        ]
      },
      "properties": {
        "OBJECTID": 1083,
        "DPTO_CCDGO": "64",
        "MPIO_CCDGO": "757",
        "name": "64018",
        "MPIO_CRSLC": "Ordenanza 45 de Abril 29 de 1994",
        "MPIO_NANO_": 1996,
        "MPIO_NAREA": 382.98681291,
        "MPIO_CSMBL": "4",
        "MPIO_CCNCT": "86757",
        "MPIO_NANO": 2012,
        "SHAPE_Leng": 1.29673224272,
        "SHAPE_Area": 0.0311140589401,
        "NOMBRE": "SAN MIGUEL (LA DORADA)",
        "DANE": {
          "dpto_ccdgo": "86",
          "mpio_ccdgo": "757",
          "mpio_cdpmp": "86757",
          "dpto_cnmbr": "PUTUMAYO",
          "mpio_cnmbr": "SAN MIGUEL",
          "mpio_crslc": "Ordenanza 45 de Abril 29 de 1994",
          "mpio_tipo": "MUNICIPIO",
          "mpio_narea": 379.742131268,
          "mpio_nano": 2024,
          "shape_Leng": 1.32758429346,
          "shape_Area": 0.0307778340932
        }
      }
    },
    {
      "type": "Feature",
      "geometry": {
        "type": "Polygon",
        "coordinates": [
          [
            [
              -77.021,
              1.1962
            ],
            [
              -77.0403,
              1.2016
            ],
            [
              -77.0578,
              1.1943
            ],
            [
              -77.0692,
              1.1848
            ],
            [
              -77.0892,
              1.1825
            ],
            [
              -77.0864,
              1.1744
            ],
            [
              -77.0974,
              1.1633
            ],
            [
              -77.1015,
              1.1423
            ],
            [
              -77.0919,
              1.1106
            ],
            [
              -77.0951,
              1.0823
            ],
            [
              -77.0842,
              1.0619
            ],
            [
              -77.0647,
              1.0516
            ],
            [
              -77.0666,
              1.0419
            ],
            [
              -77.0547,
              1.0334
            ],
            [
              -77.0395,
              1.0395
            ],
            [
              -77.0267,
              1.0134
            ],
            [
              -77.028,
              0.9953
            ],
            [
              -77.0389,
              0.993
            ],
            [
              -77.0465,
              0.9789
            ],
            [
              -77.0082,
              0.9809
            ],
            [
              -76.9721,
              0.9808
            ],
            [
              -76.9654,
              0.9879
            ],
            [
              -76.9495,
              0.9921
            ],
            [
              -76.9292,
              1.0191
            ],
            [
              -76.9038,
              1.0237
            ],
            [
              -76.8868,
              1.0351
            ],
            [
              -76.8707,
              1.0365
            ],
            [
              -76.8654,
              1.0442
            ],
            [
              -76.8536,
              1.0453
            ],
            [
              -76.8816,
              1.0564
            ],
            [
              -76.901,
              1.0584
            ],
            [
              -76.9052,
              1.0737
            ],
            [
              -76.9294,
              1.0896
            ],
            [
              -76.9446,
              1.0902
            ],
            [
              -76.9483,
              1.0959
            ],
            [
              -76.9867,
              1.0936
            ],
            [
              -76.9842,
              1.1088
            ],
            [
              -76.975,
              1.1159
            ],
            [
              -76.9707,
              1.1276
            ],
            [
              -76.9728,
              1.1461
            ],
            [
              -76.9655,
              1.1573
            ],
            [
              -77.0102,
              1.1989
            ],
            [
              -77.021,
              1.1962
            ]
          ]
        ]
      },
      "properties": {
        "OBJECTID": 1084,
        "DPTO_CCDGO": "64",
        "MPIO_CCDGO": "760",
        "name": "64016",
        "MPIO_CRSLC": "Decreto 2830 de Diciembre 2 de 1989",
        "MPIO_NANO_": 1993,
        "MPIO_NAREA": 439.92207496,
        "MPIO_CSMBL": "4",
        "MPIO_CCNCT": "86760",
        "MPIO_NANO": 2012,
        "SHAPE_Leng": 1.23797360026,
        "SHAPE_Area": 0.0357456413647,
        "NOMBRE": "SANTIAGO",
        "DANE": {
          "dpto_ccdgo": "86",
          "mpio_ccdgo": "760",
          "mpio_cdpmp": "86760",
          "dpto_cnmbr": "PUTUMAYO",
          "mpio_cnmbr": "SANTIAGO",
          "mpio_crslc": "Decreto 2830 de Diciembre 2 de 1989",
          "mpio_tipo": "MUNICIPIO",
          "mpio_narea": 341.923819757,
          "mpio_nano": 2024,
          "shape_Leng": 0.988141807874,
          "shape_Area": 0.0277100807164
        }
      }
    },
    {
      "type": "Feature",
      "geometry": {
        "type": "Polygon",
        "coordinates": [
          [
            [
              -76.7714,
              0.5052
            ],
            [
              -76.7785,
              0.5031
            ],
            [
              -76.7938,
              0.5131
            ],
            [
              -76.809,
              0.4956
            ],
            [
              -76.8285,
              0.496
            ],
            [
              -76.8451,
              0.4783
            ],
            [
              -76.8604,
              0.486
            ],
            [
              -76.8725,
              0.4828
            ],
            [
              -76.9064,
              0.4912
            ],
            [
              -76.9163,
              0.4848
            ],
            [
              -76.9462,
              0.4817
            ],
            [
              -76.9673,
              0.4869
            ],
            [
              -76.9764,
              0.4848
            ],
            [
              -76.9993,
              0.4925
            ],
            [
              -77.007,
              0.5328
            ],
            [
              -77.0159,
              0.5401
            ],
            [
              -77.0214,
              0.5583
            ],
            [
              -77.0898,
              0.4203
            ],
            [
              -77.0944,
              0.4138
            ],
            [
              -77.0888,
              0.3938
            ],
            [
              -77.0973,
              0.3832
            ],
            [
              -77.1129,
              0.3814
            ],
            [
              -77.1127,
              0.3727
            ],
            [
              -77.1062,
              0.3444
            ],
            [
              -77.0966,
              0.3265
            ],
            [
              -77.0843,
              0.3194
            ],
            [
              -77.0888,
              0.3036
            ],
            [
              -77.0803,
              0.2873
            ],
            [
              -77.0543,
              0.285
            ],
            [
              -77.049,
              0.2893
            ],
            [
              -77.0382,
              0.3235
            ],
            [
              -77.0233,
              0.3144
            ],
            [
              -77.0118,
              0.3254
            ],
            [
              -77.0107,
              0.3398
            ],
            [
              -77.0245,
              0.3533
            ],
            [
              -77.0222,
              0.3653
            ],
            [
              -77.0001,
              0.3836
            ],
            [
              -76.9897,
              0.3543
            ],
            [
              -76.9599,
              0.3497
            ],
            [
              -76.9472,
              0.3835
            ],
            [
              -76.9185,
              0.3819
            ],
            [
              -76.9071,
              0.3646
            ],
            [
              -76.8932,
              0.368
            ],
            [
              -76.8778,
              0.3574
            ],
            [
              -76.872,
              0.3587
            ],
            [
              -76.8525,
              0.3389
            ],
            [
              -76.8451,
              0.3228
            ],
            [
              -76.8502,
              0.3169
            ],
            [
              -76.8418,
              0.3025
            ],
            [
              -76.8174,
              0.3059
            ],
            [
              -76.7608,
              0.3419
            ],
            [
              -76.6566,
              0.3311
            ],
            [
              -76.6922,
              0.5058
            ],
            [
              -76.7053,
              0.4998
            ],
            [
              -76.7117,
              0.5037
            ],
            [
              -76.7245,
              0.495
            ],
            [
              -76.7519,
              0.4948
            ],
            [
              -76.7617,
              0.4913
            ],
            [
              -76.7714,
              0.5052
            ]
          ]
        ]
      },
      "properties": {
        "OBJECTID": 1085,
        "DPTO_CCDGO": "64",
        "MPIO_CCDGO": "865",
        "name": "64028",
        "MPIO_CRSLC": "Decreto DAINCO 3293 de Noviembre 12 de 1985",
        "MPIO_NANO_": 1993,
        "MPIO_NAREA": 989.55424855,
        "MPIO_CSMBL": "4",
        "MPIO_CCNCT": "86865",
        "MPIO_NANO": 2012,
        "SHAPE_Leng": 1.9893944186,
        "SHAPE_Area": 0.0803925202155,
        "NOMBRE": "VALLE DEL GUAMUEZ (LA HORMIGA)",
        "DANE": {
          "dpto_ccdgo": "86",
          "mpio_ccdgo": "865",
          "mpio_cdpmp": "86865",
          "dpto_cnmbr": "PUTUMAYO",
          "mpio_cnmbr": "VALLE DEL GUAMUEZ",
          "mpio_crslc": "Decreto DAINCO 3293 de Noviembre 12 de 1985",
          "mpio_tipo": "MUNICIPIO",
          "mpio_narea": 815.16156248,
          "mpio_nano": 2024,
          "shape_Leng": 1.71506647948,
          "shape_Area": 0.0660659883138
        }
      }
    },
    {
      "type": "Feature",
      "geometry": {
        "type": "Polygon",
        "coordinates": [
          [
            [
              -77.0728,
              0.9423
            ],
            [
              -77.0704,
              0.9336
            ],
            [
              -77.0498,
              0.9159
            ],
            [
              -77.0393,
              0.9148
            ],
            [
              -77.0239,
              0.9063
            ],
            [
              -77.0014,
              0.8998
            ],
            [
              -76.9805,
              0.9132
            ],
            [
              -76.9692,
              0.9035
            ],
            [
              -76.9502,
              0.9018
            ],
            [
              -76.9354,
              0.8764
            ],
            [
              -76.9298,
              0.8272
            ],
            [
              -76.9305,
              0.8156
            ],
            [
              -76.9113,
              0.8035
            ],
            [
              -76.8909,
              0.77
            ],
            [
              -76.8628,
              0.781
            ],
            [
              -76.8367,
              0.7786
            ],
            [
              -76.814,
              0.7879
            ],
            [
              -76.777,
              0.788
            ],
            [
              -76.7661,
              0.793
            ],
            [
              -76.4907,
              0.7862
            ],
            [
              -76.4846,
              0.8045
            ],
            [
              -76.493,
              0.8202
            ],
            [
              -76.4995,
              0.8215
            ],
            [
              -76.5116,
              0.8358
            ],
            [
              -76.5208,
              0.8685
            ],
            [
              -76.4657,
              0.8685
            ],
            [
              -76.4752,
              0.8799
            ],
            [
              -76.4805,
              0.9035
            ],
            [
              -76.4991,
              0.9117
            ],
            [
              -76.5222,
              0.9481
            ],
            [
              -76.5241,
              0.9668
            ],
            [
              -76.5346,
              0.9944
            ],
            [
              -76.543,
              1.0002
            ],
            [
              -76.5607,
              1.0306
            ],
            [
              -76.5716,
              1.0295
            ],
            [
              -76.5919,
              1.0367
            ],
            [
              -76.6028,
              1.0335
            ],
            [
              -76.6297,
              1.0564
            ],
            [
              -76.6365,
              1.0755
            ],
            [
              -76.725,
              1.0141
            ],
            [
              -76.7219,
              1.0006
            ],
            [
              -76.7405,
              1.0062
            ],
            [
              -76.7593,
              1.0136
            ],
            [
              -76.7782,
              1.0145
            ],
            [
              -76.7946,
              1.0218
            ],
            [
              -76.8094,
              1.0204
            ],
            [
              -76.8411,
              1.0429
            ],
            [
              -76.8536,
              1.0453
            ],
            [
              -76.8654,
              1.0442
            ],
            [
              -76.8707,
              1.0365
            ],
            [
              -76.8868,
              1.0351
            ],
            [
              -76.9038,
              1.0237
            ],
            [
              -76.9292,
              1.0191
            ],
            [
              -76.9495,
              0.9921
            ],
            [
              -76.9654,
              0.9879
            ],
            [
              -76.9721,
              0.9808
            ],
            [
              -77.0082,
              0.9809
            ],
            [
              -77.0465,
              0.9789
            ],
            [
              -77.0658,
              0.9742
            ],
            [
              -77.0786,
              0.9622
            ],
            [
              -77.0728,
              0.9423
            ]
          ]
        ]
      },
      "properties": {
        "OBJECTID": 1086,
        "DPTO_CCDGO": "64",
        "MPIO_CCDGO": "885",
        "name": "64030",
        "MPIO_CRSLC": "Decreto 574 de Marzo 14 de 1977",
        "MPIO_NANO_": 1993,
        "MPIO_NAREA": 1271.11202095,
        "MPIO_CSMBL": "4",
        "MPIO_CCNCT": "86885",
        "MPIO_NANO": 2012,
        "SHAPE_Leng": 1.84389097884,
        "SHAPE_Area": 0.103273981576,
        "NOMBRE": "VILLAGARZON",
        "DANE": {
          "dpto_ccdgo": "86",
          "mpio_ccdgo": "885",
          "mpio_cdpmp": "86885",
          "dpto_cnmbr": "PUTUMAYO",
          "mpio_cnmbr": "VILLAGARZÓN",
          "mpio_crslc": "Decreto 574 de Marzo 14 de 1977",
          "mpio_tipo": "MUNICIPIO",
          "mpio_narea": 1396.97600333,
          "mpio_nano": 2024,
          "shape_Leng": 1.92824713873,
          "shape_Area": 0.113257488924
        }
      }
    }
  ],
  "name": "64"
}