{
  "type": "FeatureCollection",
  "crs": {
    "type": "name",
    "properties": {
      "name": "urn:ogc:def:crs:OGC:1.3:CRS84"
    }
  },
  "features": [
    {
      "type": "Feature",
      "geometry": {
        "type": "Polygon",
        "coordinates": [
          [
            [
              -69.8693,
              1.7185
            ],
            [
              -69.8748,
              1.7157
            ],
            [
              -69.8831,
              1.6926
            ],
            [
              -69.902,
              1.6862
            ],
            [
              -69.9107,
              1.6899
            ],
            [
              -69.9497,
              1.6641
            ],
            [
              -69.964,
              1.6649
            ],
            [
              -69.9933,
              1.6574
            ],
            [
              -70.0025,
              1.6643
            ],
            [
              -70.0322,
              1.6653
            ],
            [
              -70.0471,
              1.6547
            ],
            [
              -70.0662,
              1.6552
            ],
            [
              -70.0851,
              1.6512
            ],
            [
              -70.1067,
              1.6539
            ],
            [
              -70.1183,
              1.6599
            ],
            [
              -70.1292,
              1.6588
            ],
            [
              -70.1409,
              1.6724
            ],
            [
              -70.165,
              1.6837
            ],
            [
              -70.184,
              1.7014
            ],
            [
              -70.1954,
              1.7038
            ],
            [
              -70.2149,
              1.7149
            ],
            [
              -70.246,
              1.7206
            ],
            [
              -70.2629,
              1.7278
            ],
            [
              -70.2739,
              1.7501
            ],
            [
              -70.2898,
              1.7545
            ],
            [
              -70.2956,
              1.7505
            ],
            [
              -70.3279,
              1.751
            ],
            [
              -70.339,
              1.7572
            ],
            [
              -70.3477,
              1.7532
            ],
            [
              -70.3664,
              1.7533
            ],
            [
              -70.3776,
              1.7588
            ],
            [
              -70.423,
              1.7732
            ],
            [
              -70.4262,
              1.7847
            ],
            [
              -70.4539,
              1.7902
            ],
            [
              -70.566,
              1.6608
            ],
            [
              -70.7485,
              1.4501
            ],
            [
              -70.8434,
              1.3406
            ],
            [
              -70.9939,
              1.1534
            ],
            [
              -71.0109,
              0.923
            ],
            [
              -71.0047,
              0.903
            ],
            [
              -71.0083,
              0.8855
            ],
            [
              -71.0194,
              0.8813
            ],
            [
              -71.1186,
              0.7893
            ],
            [
              -71.0364,
              0.5725
            ],
            [
              -71.0143,
              0.5842
            ],
            [
              -70.994,
              0.5662
            ],
            [
              -70.9796,
              0.5715
            ],
            [
              -70.9774,
              0.5476
            ],
            [
              -70.9826,
              0.5323
            ],
            [
              -70.951,
              0.4535
            ],
            [
              -70.9399,
              0.4585
            ],
            [
              -70.924,
              0.4749
            ],
            [
              -70.9249,
              0.4946
            ],
            [
              -70.9187,
              0.5067
            ],
            [
              -70.916,
              0.5258
            ],
            [
              -70.8935,
              0.5418
            ],
            [
              -70.8803,
              0.5374
            ],
            [
              -70.869,
              0.526
            ],
            [
              -70.8728,
              0.5116
            ],
            [
              -70.8663,
              0.4941
            ],
            [
              -70.8567,
              0.4829
            ],
            [
              -70.855,
              0.4607
            ],
            [
              -70.8401,
              0.4522
            ],
            [
              -70.8471,
              0.43
            ],
            [
              -70.8325,
              0.4159
            ],
            [
              -70.8285,
              0.4018
            ],
            [
              -70.648,
              0.604
            ],
            [
              -70.645,
              0.5866
            ],
            [
              -70.6323,
              0.5789
            ],
            [
              -70.6316,
              0.5392
            ],
            [
              -70.6254,
              0.5214
            ],
            [
              -70.6111,
              0.5182
            ],
            [
              -70.6014,
              0.4995
            ],
            [
              -70.6078,
              0.4805
            ],
            [
              -70.6068,
              0.4666
            ],
            [
              -70.616,
              0.4542
            ],
            [
              -70.6145,
              0.4444
            ],
            [
              -70.6262,
              0.4361
            ],
            [
              -70.6254,
              0.4248
            ],
            [
              -70.6114,
              0.4005
            ],
            [
              -70.6165,
              0.3797
            ],
            [
              -70.592,
              0.3639
            ],
            [
              -70.5835,
              0.3637
            ],
            [
              -70.5713,
              0.3483
            ],
            [
              -70.3654,
              0.3472
            ],
            [
              -70.3656,
              0.3292
            ],
            [
              -70.3543,
              0.3222
            ],
            [
              -70.3477,
              0.3038
            ],
            [
              -70.345,
              0.2837
            ],
            [
              -70.3316,
              0.2553
            ],
            [
              -70.3207,
              0.2456
            ],
            [
              -70.3011,
              0.24
            ],
            [
              -70.2881,
              0.2495
            ],
            [
              -70.279,
              0.2486
            ],
            [
              -70.26,
              0.2323
            ],
            [
              -70.211,
              0.1578
            ],
            [
              -70.1833,
              0.1533
            ],
            [
              -70.1663,
              0.1653
            ],
            [
              -70.1565,
              0.1666
            ],
            [
              -70.1262,
              0.1857
            ],
            [
              -70.1153,
              0.2062
            ],
            [
              -70.0998,
              0.2176
            ],
            [
              -70.0902,
              0.2318
            ],
            [
              -70.0639,
              0.2405
            ],
            [
              -70.0557,
              0.24
            ],
            [
              -70.0471,
              0.2594
            ],
            [
              -70.0465,
              0.5632
            ],
            [
              -70.0386,
              0.5664
            ],
            [
              -70.1041,
              0.7439
            ],
            [
              -70.1497,
              0.8678
            ],
            [
              -70.1373,
              0.8625
            ],
            [
              -70.1319,
              0.8432
            ],
            [
              -70.1164,
              0.8269
            ],
            [
              -70.1068,
              0.8292
            ],
            [
              -70.0868,
              0.8435
            ],
            [
              -70.0867,
              0.8537
            ],
            [
              -70.0775,
              0.8616
            ],
            [
              -70.0536,
              0.8666
            ],
            [
              -70.0352,
              0.8596
            ],
            [
              -70.0144,
              0.8644
            ],
            [
              -69.9826,
              0.8477
            ],
            [
              -69.9703,
              0.8534
            ],
            [
              -69.9783,
              0.8698
            ],
            [
              -69.9831,
              0.8968
            ],
            [
              -69.9747,
              0.9183
            ],
            [
              -69.9619,
              0.911
            ],
            [
              -69.9581,
              0.9216
            ],
            [
              -69.9575,
              0.9592
            ],
            [
              -69.9462,
              0.9735
            ],
            [
              -69.933,
              0.9793
            ],
            [
              -69.9233,
              0.9994
            ],
            [
              -69.9143,
              0.9993
            ],
            [
              -69.9042,
              0.9888
            ],
            [
              -69.8958,
              0.9884
            ],
            [
              -69.8875,
              1
            ],
            [
              -69.8889,
              1.008
            ],
            [
              -69.8797,
              1.0212
            ],
            [
              -69.8558,
              1.0299
            ],
            [
              -69.8152,
              1.0647
            ],
            [
              -69.8324,
              1.0807
            ],
            [
              -69.8466,
              1.0778
            ],
            [
              -69.8463,
              1.2878
            ],
            [
              -69.8459,
              1.5776
            ],
            [
              -69.8457,
              1.7139
            ],
            [
              -69.8693,
              1.7185
            ]
          ]
        ]
      },
      "properties": {
        "OBJECTID": 1112,
        "DPTO_CCDGO": "68",
        "MPIO_CCDGO": "001",
        "name": "68001",
        "MPIO_CRSLC": "Decreto Nal 1666 del 6 de Agosto de 1974",
        "MPIO_NANO_": 1993,
        "MPIO_NAREA": 16097.7259154,
        "MPIO_CSMBL": "4",
        "MPIO_CCNCT": "97001",
        "MPIO_NANO": 2012,
        "SHAPE_Leng": 6.26771963205,
        "SHAPE_Area": 1.30781328807,
        "NOMBRE": "MITU",
        "DANE": {
          "dpto_ccdgo": "97",
          "mpio_ccdgo": "001",
          "mpio_cdpmp": "97001",
          "dpto_cnmbr": "VAUPÉS",
          "mpio_cnmbr": "MITÚ",
          "mpio_crslc": "Decreto Nal 1666 del 6 de Agosto de 1974",
          "mpio_tipo": "MUNICIPIO",
          "mpio_narea": 16215.7372636,
          "mpio_nano": 2024,
          "shape_Leng": 6.35259145613,
          "shape_Area": 1.31217098456
        }
      }
    },
    {
      "type": "Feature",
      "geometry": {
        "type": "Polygon",
        "coordinates": [
          [
            [
              -71.2536,
              1.6707
            ],
            [
              -71.2841,
              1.684
            ],
            [
              -71.2977,
              1.6986
            ],
            [
              -71.3059,
              1.701
            ],
            [
              -71.3151,
              1.7144
            ],
            [
              -71.3304,
              1.7051
            ],
            [
              -71.3449,
              1.716
            ],
            [
              -71.3513,
              1.7267
            ],
            [
              -71.3736,
              1.7358
            ],
            [
              -71.3922,
              1.7355
            ],
            [
              -71.4031,
              1.7226
            ],
            [
              -71.4017,
              1.7007
            ],
            [
              -71.3967,
              1.6725
            ],
            [
              -71.3888,
              1.6571
            ],
            [
              -71.3983,
              1.6292
            ],
            [
              -71.3925,
              1.6165
            ],
            [
              -71.3901,
              1.5986
            ],
            [
              -71.412,
              1.5706
            ],
            [
              -71.422,
              1.5684
            ],
            [
              -71.4396,
              1.5447
            ],
            [
              -71.438,
              1.5258
            ],
            [
              -71.4473,
              1.4916
            ],
            [
              -71.4541,
              1.4853
            ],
            [
              -71.4552,
              1.4652
            ],
            [
              -71.4794,
              1.4463
            ],
            [
              -71.4785,
              1.4067
            ],
            [
              -71.4839,
              1.3912
            ],
            [
              -71.5029,
              1.3628
            ],
            [
              -71.5049,
              1.3421
            ],
            [
              -71.5223,
              1.3155
            ],
            [
              -71.5208,
              1.301
            ],
            [
              -71.5307,
              1.2954
            ],
            [
              -71.5312,
              1.278
            ],
            [
              -71.5472,
              1.2702
            ],
            [
              -71.5389,
              1.2299
            ],
            [
              -71.5516,
              1.2194
            ],
            [
              -71.5514,
              1.2053
            ],
            [
              -71.531,
              1.1991
            ],
            [
              -71.5313,
              1.1792
            ],
            [
              -71.5155,
              1.1716
            ],
            [
              -71.5056,
              1.1358
            ],
            [
              -71.4928,
              1.1312
            ],
            [
              -71.4834,
              1.112
            ],
            [
              -71.5027,
              1.1033
            ],
            [
              -71.5239,
              1.114
            ],
            [
              -71.5355,
              1.1241
            ],
            [
              -71.5301,
              1.1558
            ],
            [
              -71.5355,
              1.1625
            ],
            [
              -71.5562,
              1.1555
            ],
            [
              -71.557,
              1.1443
            ],
            [
              -71.5402,
              1.1204
            ],
            [
              -71.5504,
              1.1118
            ],
            [
              -71.5625,
              1.1292
            ],
            [
              -71.5738,
              1.1226
            ],
            [
              -71.5751,
              1.1083
            ],
            [
              -71.5828,
              1.1027
            ],
            [
              -71.58,
              1.0849
            ],
            [
              -71.5744,
              1.0813
            ],
            [
              -71.5987,
              1.0454
            ],
            [
              -71.6159,
              1.037
            ],
            [
              -71.6496,
              0.9843
            ],
            [
              -71.6646,
              0.9733
            ],
            [
              -71.6883,
              0.9703
            ],
            [
              -71.6919,
              0.9824
            ],
            [
              -71.7105,
              0.9904
            ],
            [
              -71.7286,
              0.9837
            ],
            [
              -71.7399,
              0.985
            ],
            [
              -71.7584,
              0.962
            ],
            [
              -71.7698,
              0.9517
            ],
            [
              -71.7675,
              0.9311
            ],
            [
              -71.7741,
              0.9061
            ],
            [
              -71.7869,
              0.8954
            ],
            [
              -71.8034,
              0.8881
            ],
            [
              -71.6907,
              0.7862
            ],
            [
              -71.4804,
              0.5962
            ],
            [
              -71.4732,
              0.612
            ],
            [
              -71.4633,
              0.6188
            ],
            [
              -71.4499,
              0.6178
            ],
            [
              -71.4323,
              0.635
            ],
            [
              -71.417,
              0.6419
            ],
            [
              -71.4039,
              0.6343
            ],
            [
              -71.3894,
              0.6424
            ],
            [
              -71.384,
              0.634
            ],
            [
              -71.3593,
              0.6247
            ],
            [
              -71.3508,
              0.6122
            ],
            [
              -71.3485,
              0.5949
            ],
            [
              -71.3319,
              0.5803
            ],
            [
              -71.2866,
              0.5884
            ],
            [
              -71.2738,
              0.6051
            ],
            [
              -71.2463,
              0.6136
            ],
            [
              -71.2419,
              0.6056
            ],
            [
              -71.2221,
              0.6056
            ],
            [
              -71.2045,
              0.5995
            ],
            [
              -71.1981,
              0.6043
            ],
            [
              -71.1859,
              0.5964
            ],
            [
              -71.1731,
              0.5952
            ],
            [
              -71.1718,
              0.5838
            ],
            [
              -71.1562,
              0.5761
            ],
            [
              -71.1512,
              0.5843
            ],
            [
              -71.1368,
              0.5784
            ],
            [
              -71.1319,
              0.5629
            ],
            [
              -71.1205,
              0.558
            ],
            [
              -71.1051,
              0.5666
            ],
            [
              -71.0776,
              0.5672
            ],
            [
              -71.0639,
              0.56
            ],
            [
              -71.0364,
              0.5725
            ],
            [
              -71.1186,
              0.7893
            ],
            [
              -71.0194,
              0.8813
            ],
            [
              -71.0083,
              0.8855
            ],
            [
              -71.0047,
              0.903
            ],
            [
              -71.0109,
              0.923
            ],
            [
              -70.9939,
              1.1534
            ],
            [
              -71.0774,
              1.3063
            ],
            [
              -71.1441,
              1.4201
            ],
            [
              -71.2592,
              1.6163
            ],
            [
              -71.2574,
              1.6378
            ],
            [
              -71.2476,
              1.6539
            ],
            [
              -71.2536,
              1.6707
            ]
          ]
        ]
      },
      "properties": {
        "OBJECTID": 1113,
        "DPTO_CCDGO": "68",
        "MPIO_CCDGO": "161",
        "name": "68004",
        "MPIO_CRSLC": "Ordenanza 003 del 7 de Agosto de 1993",
        "MPIO_NANO_": 1993,
        "MPIO_NAREA": 7021.22692635,
        "MPIO_CSMBL": "4",
        "MPIO_CCNCT": "97161",
        "MPIO_NANO": 2012,
        "SHAPE_Leng": 4.46038028162,
        "SHAPE_Area": 0.570488590755,
        "NOMBRE": "CARURU",
        "DANE": {
          "dpto_ccdgo": "97",
          "mpio_ccdgo": "161",
          "mpio_cdpmp": "97161",
          "dpto_cnmbr": "VAUPÉS",
          "mpio_cnmbr": "CARURÚ",
          "mpio_crslc": "Ordenanza 003 del 7 de Agosto de 1993",
          "mpio_tipo": "MUNICIPIO",
          "mpio_narea": 6368.48641709,
          "mpio_nano": 2024,
          "shape_Leng": 4.61831785035,
          "shape_Area": 0.516272058259
        }
      }
    },
    {
      "type": "Feature",
      "geometry": {
        "type": "Polygon",
        "coordinates": [
          [
            [
              -71.0364,
              0.5725
            ],
            [
              -71.0639,
              0.56
            ],
            [
              -71.0776,
              0.5672
            ],
            [
              -71.1051,
              0.5666
            ],
            [
              -71.1205,
              0.558
            ],
            [
              -71.1319,
              0.5629
            ],
            [
              -71.1368,
              0.5784
            ],
            [
              -71.1512,
              0.5843
            ],
            [
              -71.1562,
              0.5761
            ],
            [
              -71.1718,
              0.5838
            ],
            [
              -71.1731,
              0.5952
            ],
            [
              -71.1859,
              0.5964
            ],
            [
              -71.1981,
              0.6043
            ],
            [
              -71.2045,
              0.5995
            ],
            [
              -71.2221,
              0.6056
            ],
            [
              -71.2419,
              0.6056
            ],
            [
              -71.2463,
              0.6136
            ],
            [
              -71.2738,
              0.6051
            ],
            [
              -71.2866,
              0.5884
            ],
            [
              -71.3319,
              0.5803
            ],
            [
              -71.3485,
              0.5949
            ],
            [
              -71.3508,
              0.6122
            ],
            [
              -71.3593,
              0.6247
            ],
            [
              -71.384,
              0.634
            ],
            [
              -71.3894,
              0.6424
            ],
            [
              -71.4039,
              0.6343
            ],
            [
              -71.417,
              0.6419
            ],
            [
              -71.4323,
              0.635
            ],
            [
              -71.4499,
              0.6178
            ],
            [
              -71.4633,
              0.6188
            ],
            [
              -71.4732,
              0.612
            ],
            [
              -71.4804,
              0.5962
            ],
            [
              -71.6907,
              0.7862
            ],
            [
              -71.8034,
              0.8881
            ],
            [
              -71.9157,
              0.7787
            ],
            [
              -72.0332,
              0.6643
            ],
            [
              -72.0174,
              0.6547
            ],
            [
              -71.9964,
              0.6553
            ],
            [
              -71.9939,
              0.6321
            ],
            [
              -71.9819,
              0.6291
            ],
            [
              -71.99,
              0.6134
            ],
            [
              -72.007,
              0.5926
            ],
            [
              -71.9891,
              0.5862
            ],
            [
              -71.9908,
              0.5654
            ],
            [
              -71.9869,
              0.5606
            ],
            [
              -71.967,
              0.5578
            ],
            [
              -71.9503,
              0.5406
            ],
            [
              -71.9434,
              0.5506
            ],
            [
              -71.9448,
              0.5681
            ],
            [
              -71.9386,
              0.57
            ],
            [
              -71.9293,
              0.5534
            ],
            [
              -71.9289,
              0.5435
            ],
            [
              -71.9132,
              0.516
            ],
            [
              -71.9291,
              0.4972
            ],
            [
              -71.9219,
              0.4785
            ],
            [
              -71.9054,
              0.4786
            ],
            [
              -71.9033,
              0.468
            ],
            [
              -71.9208,
              0.4601
            ],
            [
              -71.9172,
              0.4487
            ],
            [
              -71.9028,
              0.4427
            ],
            [
              -71.8886,
              0.4483
            ],
            [
              -71.8871,
              0.4694
            ],
            [
              -71.859,
              0.457
            ],
            [
              -71.8473,
              0.4381
            ],
            [
              -71.8469,
              0.4136
            ],
            [
              -71.8356,
              0.4065
            ],
            [
              -71.8329,
              0.3735
            ],
            [
              -71.8357,
              0.3658
            ],
            [
              -71.851,
              0.3504
            ],
            [
              -71.8318,
              0.3389
            ],
            [
              -71.8106,
              0.3444
            ],
            [
              -71.8036,
              0.3505
            ],
            [
              -71.8026,
              0.3625
            ],
            [
              -71.766,
              0.3672
            ],
            [
              -71.7732,
              0.349
            ],
            [
              -71.7843,
              0.346
            ],
            [
              -71.7891,
              0.3357
            ],
            [
              -71.7693,
              0.3275
            ],
            [
              -71.753,
              0.3317
            ],
            [
              -71.7513,
              0.2972
            ],
            [
              -71.7338,
              0.2868
            ],
            [
              -71.7272,
              0.3086
            ],
            [
              -71.705,
              0.3184
            ],
            [
              -71.6991,
              0.3038
            ],
            [
              -71.7034,
              0.2962
            ],
            [
              -71.7244,
              0.2881
            ],
            [
              -71.7263,
              0.281
            ],
            [
              -71.6979,
              0.2375
            ],
            [
              -71.6558,
              0.2194
            ],
            [
              -71.6439,
              0.2096
            ],
            [
              -71.627,
              0.2159
            ],
            [
              -71.6268,
              0.2031
            ],
            [
              -71.6178,
              0.1969
            ],
            [
              -71.6248,
              0.1843
            ],
            [
              -71.6058,
              0.1833
            ],
            [
              -71.5711,
              0.2153
            ],
            [
              -71.5629,
              0.207
            ],
            [
              -71.5772,
              0.198
            ],
            [
              -71.5773,
              0.1813
            ],
            [
              -71.59,
              0.1696
            ],
            [
              -71.5837,
              0.1631
            ],
            [
              -71.5671,
              0.1713
            ],
            [
              -71.5437,
              0.1726
            ],
            [
              -71.5294,
              0.1632
            ],
            [
              -71.5259,
              0.1534
            ],
            [
              -71.534,
              0.1394
            ],
            [
              -71.5446,
              0.1334
            ],
            [
              -71.5364,
              0.1216
            ],
            [
              -71.527,
              0.1208
            ],
            [
              -71.5175,
              0.1316
            ],
            [
              -71.503,
              0.1295
            ],
            [
              -71.4854,
              0.1485
            ],
            [
              -71.4757,
              0.183
            ],
            [
              -71.4592,
              0.1786
            ],
            [
              -71.4567,
              0.1631
            ],
            [
              -71.4702,
              0.1573
            ],
            [
              -71.4496,
              0.139
            ],
            [
              -71.4197,
              0.1429
            ],
            [
              -71.4042,
              0.1553
            ],
            [
              -71.4024,
              0.1852
            ],
            [
              -71.3768,
              0.1749
            ],
            [
              -71.3689,
              0.1623
            ],
            [
              -71.3703,
              0.1504
            ],
            [
              -71.3602,
              0.1432
            ],
            [
              -71.339,
              0.1429
            ],
            [
              -71.3352,
              0.155
            ],
            [
              -71.323,
              0.1406
            ],
            [
              -71.321,
              0.1269
            ],
            [
              -71.3287,
              0.1171
            ],
            [
              -71.3074,
              0.1019
            ],
            [
              -71.2912,
              0.0973
            ],
            [
              -71.2897,
              0.0875
            ],
            [
              -71.297,
              0.075
            ],
            [
              -71.2798,
              0.0658
            ],
            [
              -71.262,
              0.0692
            ],
            [
              -71.2538,
              0.0595
            ],
            [
              -71.2349,
              0.0664
            ],
            [
              -71.2276,
              0.0549
            ],
            [
              -71.1988,
              0.0781
            ],
            [
              -71.1867,
              0.0849
            ],
            [
              -71.1843,
              0.0971
            ],
            [
              -71.169,
              0.0884
            ],
            [
              -71.1598,
              0.0745
            ],
            [
              -71.1454,
              0.0629
            ],
            [
              -71.1495,
              0.0387
            ],
            [
              -71.1419,
              0.0258
            ],
            [
              -71.1367,
              0.0075
            ],
            [
              -71.1231,
              0.004
            ],
            [
              -71.1102,
              0.0257
            ],
            [
              -71.1005,
              0.0239
            ],
            [
              -71.0993,
              -0.0016
            ],
            [
              -71.0889,
              -0.0065
            ],
            [
              -71.0769,
              0.0014
            ],
            [
              -71.0617,
              -0.0099
            ],
            [
              -71.0471,
              -0.0033
            ],
            [
              -71.0351,
              -0.0108
            ],
            [
              -71.0524,
              -0.0241
            ],
            [
              -71.0502,
              -0.0343
            ],
            [
              -71.0285,
              -0.0483
            ],
            [
              -71.0116,
              -0.0402
            ],
            [
              -71.0184,
              -0.0251
            ],
            [
              -71.0157,
              -0.0125
            ],
            [
              -70.9984,
              -0.0024
            ],
            [
              -70.9819,
              -0.0038
            ],
            [
              -70.9682,
              -0.0127
            ],
            [
              -70.9729,
              -0.0268
            ],
            [
              -70.9594,
              -0.0408
            ],
            [
              -70.947,
              -0.0416
            ],
            [
              -70.928,
              -0.051
            ],
            [
              -70.9235,
              -0.0811
            ],
            [
              -70.925,
              -0.0916
            ],
            [
              -70.9171,
              -0.0989
            ],
            [
              -70.8965,
              -0.1036
            ],
            [
              -70.8921,
              -0.1162
            ],
            [
              -70.9016,
              -0.1325
            ],
            [
              -70.9145,
              -0.1228
            ],
            [
              -70.9252,
              -0.1253
            ],
            [
              -70.9445,
              -0.1415
            ],
            [
              -70.9447,
              -0.1595
            ],
            [
              -70.9349,
              -0.173
            ],
            [
              -70.9173,
              -0.1838
            ],
            [
              -70.9151,
              -0.2018
            ],
            [
              -70.8853,
              -0.2107
            ],
            [
              -70.8823,
              -0.2309
            ],
            [
              -70.8743,
              -0.2411
            ],
            [
              -70.8726,
              -0.2611
            ],
            [
              -70.8782,
              -0.28
            ],
            [
              -70.8684,
              -0.2898
            ],
            [
              -70.865,
              -0.3097
            ],
            [
              -70.8427,
              -0.3277
            ],
            [
              -70.8426,
              -0.3323
            ],
            [
              -70.8322,
              -0.347
            ],
            [
              -70.8277,
              -0.3647
            ],
            [
              -70.8118,
              -0.3654
            ],
            [
              -70.806,
              -0.3462
            ],
            [
              -70.7713,
              -0.3355
            ],
            [
              -70.759,
              -0.3277
            ],
            [
              -70.7616,
              -0.3176
            ],
            [
              -70.7786,
              -0.3174
            ],
            [
              -70.7719,
              -0.3
            ],
            [
              -70.7598,
              -0.2928
            ],
            [
              -70.739,
              -0.2866
            ],
            [
              -70.7299,
              -0.2901
            ],
            [
              -70.7155,
              -0.3098
            ],
            [
              -70.6898,
              -0.3312
            ],
            [
              -70.678,
              -0.3521
            ],
            [
              -70.6656,
              -0.3499
            ],
            [
              -70.6555,
              -0.3336
            ],
            [
              -70.6375,
              -0.3199
            ],
            [
              -70.626,
              -0.3232
            ],
            [
              -70.6065,
              -0.3453
            ],
            [
              -70.5986,
              -0.3694
            ],
            [
              -70.5853,
              -0.3893
            ],
            [
              -70.573,
              -0.3923
            ],
            [
              -70.5643,
              -0.3703
            ],
            [
              -70.5551,
              -0.3627
            ],
            [
              -70.5435,
              -0.3647
            ],
            [
              -70.5339,
              -0.3744
            ],
            [
              -70.5268,
              -0.3564
            ],
            [
              -70.5171,
              -0.3598
            ],
            [
              -70.5117,
              -0.3716
            ],
            [
              -70.4966,
              -0.3863
            ],
            [
              -70.4776,
              -0.4005
            ],
            [
              -70.4696,
              -0.4164
            ],
            [
              -70.4567,
              -0.4313
            ],
            [
              -70.4492,
              -0.449
            ],
            [
              -70.4504,
              -0.4644
            ],
            [
              -70.4646,
              -0.4806
            ],
            [
              -70.4626,
              -0.491
            ],
            [
              -70.4516,
              -0.495
            ],
            [
              -70.4369,
              -0.478
            ],
            [
              -70.4063,
              -0.4635
            ],
            [
              -70.3877,
              -0.4681
            ],
            [
              -70.3793,
              -0.4965
            ],
            [
              -70.3428,
              -0.5007
            ],
            [
              -70.324,
              -0.4922
            ],
            [
              -70.3194,
              -0.481
            ],
            [
              -70.3232,
              -0.4676
            ],
            [
              -70.3426,
              -0.4736
            ],
            [
              -70.3615,
              -0.4675
            ],
            [
              -70.3608,
              -0.4509
            ],
            [
              -70.3461,
              -0.448
            ],
            [
              -70.334,
              -0.4382
            ],
            [
              -70.3098,
              -0.4415
            ],
            [
              -70.2947,
              -0.415
            ],
            [
              -70.2848,
              -0.4125
            ],
            [
              -70.2681,
              -0.4181
            ],
            [
              -70.2551,
              -0.4334
            ],
            [
              -70.2392,
              -0.4286
            ],
            [
              -70.2373,
              -0.4072
            ],
            [
              -70.2264,
              -0.3949
            ],
            [
              -70.2028,
              -0.3942
            ],
            [
              -70.196,
              -0.3675
            ],
            [
              -70.2064,
              -0.3706
            ],
            [
              -70.2218,
              -0.3595
            ],
            [
              -70.2241,
              -0.3699
            ],
            [
              -70.2507,
              -0.3774
            ],
            [
              -70.2578,
              -0.365
            ],
            [
              -70.2353,
              -0.3434
            ],
            [
              -70.2405,
              -0.336
            ],
            [
              -70.2387,
              -0.3123
            ],
            [
              -70.2256,
              -0.3113
            ],
            [
              -70.2133,
              -0.319
            ],
            [
              -70.2177,
              -0.3337
            ],
            [
              -70.2106,
              -0.3394
            ],
            [
              -70.1903,
              -0.3253
            ],
            [
              -70.1865,
              -0.3178
            ],
            [
              -70.1658,
              -0.31
            ],
            [
              -70.1602,
              -0.3153
            ],
            [
              -70.1396,
              -0.305
            ],
            [
              -70.1291,
              -0.2897
            ],
            [
              -70.1414,
              -0.2551
            ],
            [
              -70.1492,
              -0.2498
            ],
            [
              -70.1761,
              -0.2459
            ],
            [
              -70.1847,
              -0.2347
            ],
            [
              -70.1762,
              -0.2214
            ],
            [
              -70.1509,
              -0.2229
            ],
            [
              -70.1386,
              -0.2098
            ],
            [
              -70.1174,
              -0.2066
            ],
            [
              -70.104,
              -0.1947
            ],
            [
              -70.0955,
              -0.173
            ],
            [
              -70.0977,
              -0.1503
            ],
            [
              -70.0735,
              -0.1338
            ],
            [
              -70.0617,
              -0.1222
            ],
            [
              -70.0467,
              -0.1162
            ],
            [
              -70.0474,
              -0.1096
            ],
            [
              -70.0474,
              0.0762
            ],
            [
              -70.0471,
              0.2594
            ],
            [
              -70.0557,
              0.24
            ],
            [
              -70.0639,
              0.2405
            ],
            [
              -70.0902,
              0.2318
            ],
            [
              -70.0998,
              0.2176
            ],
            [
              -70.1153,
              0.2062
            ],
            [
              -70.1262,
              0.1857
            ],
            [
              -70.1565,
              0.1666
            ],
            [
              -70.1663,
              0.1653
            ],
            [
              -70.1833,
              0.1533
            ],
            [
              -70.211,
              0.1578
            ],
            [
              -70.26,
              0.2323
            ],
            [
              -70.279,
              0.2486
            ],
            [
              -70.2881,
              0.2495
            ],
            [
              -70.3011,
              0.24
            ],
            [
              -70.3207,
              0.2456
            ],
            [
              -70.3316,
              0.2553
            ],
            [
              -70.345,
              0.2837
            ],
            [
              -70.3477,
              0.3038
            ],
            [
              -70.3543,
              0.3222
            ],
            [
              -70.3656,
              0.3292
            ],
            [
              -70.3654,
              0.3472
            ],
            [
              -70.5713,
              0.3483
            ],
            [
              -70.5835,
              0.3637
            ],
            [
              -70.592,
              0.3639
            ],
            [
              -70.6165,
              0.3797
            ],
            [
              -70.6114,
              0.4005
            ],
            [
              -70.6254,
              0.4248
            ],
            [
              -70.6262,
              0.4361
            ],
            [
              -70.6145,
              0.4444
            ],
            [
              -70.616,
              0.4542
            ],
            [
              -70.6068,
              0.4666
            ],
            [
              -70.6078,
              0.4805
            ],
            [
              -70.6014,
              0.4995
            ],
            [
              -70.6111,
              0.5182
            ],
            [
              -70.6254,
              0.5214
            ],
            [
              -70.6316,
              0.5392
            ],
            [
              -70.6323,
              0.5789
            ],
            [
              -70.645,
              0.5866
            ],
            [
              -70.648,
              0.604
            ],
            [
              -70.8285,
              0.4018
            ],
            [
              -70.8325,
              0.4159
            ],
            [
              -70.8471,
              0.43
            ],
            [
              -70.8401,
              0.4522
            ],
            [
              -70.855,
              0.4607
            ],
            [
              -70.8567,
              0.4829
            ],
            [
              -70.8663,
              0.4941
            ],
            [
              -70.8728,
              0.5116
            ],
            [
              -70.869,
              0.526
            ],
            [
              -70.8803,
              0.5374
            ],
            [
              -70.8935,
              0.5418
            ],
            [
              -70.916,
              0.5258
            ],
            [
              -70.9187,
              0.5067
            ],
            [
              -70.9249,
              0.4946
            ],
            [
              -70.924,
              0.4749
            ],
            [
              -70.9399,
              0.4585
            ],
            [
              -70.951,
              0.4535
            ],
            [
              -70.9826,
              0.5323
            ],
            [
              -70.9774,
              0.5476
            ],
            [
              -70.9796,
              0.5715
            ],
            [
              -70.994,
              0.5662
            ],
            [
              -71.0143,
              0.5842
            ],
            [
              -71.0364,
              0.5725
            ]
          ]
        ]
      },
      "properties": {
        "OBJECTID": 1114,
        "DPTO_CCDGO": "68",
        "MPIO_CCDGO": "511",
        "name": "68013",
        "MPIO_CRSLC": "1967",
        "MPIO_NANO_": 1993,
        "MPIO_NAREA": 13797.7610908,
        "MPIO_CSMBL": "4",
        "MPIO_CCNCT": "97511",
        "MPIO_NANO": 2012,
        "SHAPE_Leng": 8.81390440914,
        "SHAPE_Area": 1.12085995822,
        "NOMBRE": "BUENOS AIRES (PACOA)",
        "DANE": {
          "dpto_ccdgo": "97",
          "mpio_ccdgo": "511",
          "mpio_cdpmp": "97511",
          "dpto_cnmbr": "VAUPÉS",
          "mpio_cnmbr": "PACOA",
          "mpio_crslc": "1967",
          "mpio_tipo": "ÁREA NO MUNICIPALIZADA",
          "mpio_narea": 13993.2505748,
          "mpio_nano": 2024,
          "shape_Leng": 9.17213856989,
          "shape_Area": 1.13331520595
        }
      }
    },
    {
      "type": "Feature",
      "geometry": {
        "type": "Polygon",
        "coordinates": [
          [
            [
              -69.433,
              -1.0695
            ],
            [
              -69.4268,
              -1.0664
            ],
            [
              -69.4235,
              -1.0465
            ],
            [
              -69.4407,
              -1.0345
            ],
            [
              -69.4451,
              -1.023
            ],
            [
              -69.43,
              -1.0155
            ],
            [
              -69.436,
              -0.9935
            ],
            [
              -69.4482,
              -0.9967
            ],
            [
              -69.4673,
              -0.9827
            ],
            [
              -69.4629,
              -0.9667
            ],
            [
              -69.4859,
              -0.9479
            ],
            [
              -69.5139,
              -0.9324
            ],
            [
              -69.5286,
              -0.9191
            ],
            [
              -69.5224,
              -0.8876
            ],
            [
              -69.5301,
              -0.8799
            ],
            [
              -69.5257,
              -0.8688
            ],
            [
              -69.546,
              -0.8609
            ],
            [
              -69.5483,
              -0.8525
            ],
            [
              -69.5638,
              -0.8473
            ],
            [
              -69.5736,
              -0.838
            ],
            [
              -69.5583,
              -0.8186
            ],
            [
              -69.5645,
              -0.8067
            ],
            [
              -69.5758,
              -0.8091
            ],
            [
              -69.5888,
              -0.7902
            ],
            [
              -69.6023,
              -0.7777
            ],
            [
              -69.6029,
              -0.7675
            ],
            [
              -69.6151,
              -0.7463
            ],
            [
              -69.6244,
              -0.7364
            ],
            [
              -69.6136,
              -0.7267
            ],
            [
              -69.6083,
              -0.7109
            ],
            [
              -69.5998,
              -0.7046
            ],
            [
              -69.5759,
              -0.6661
            ],
            [
              -69.5732,
              -0.6473
            ],
            [
              -69.5621,
              -0.6362
            ],
            [
              -69.5812,
              -0.6188
            ],
            [
              -69.5852,
              -0.6105
            ],
            [
              -69.603,
              -0.5941
            ],
            [
              -69.5951,
              -0.5799
            ],
            [
              -69.5927,
              -0.5545
            ],
            [
              -69.6016,
              -0.5427
            ],
            [
              -69.6142,
              -0.5346
            ],
            [
              -69.6141,
              -0.5197
            ],
            [
              -69.6087,
              -0.511
            ],
            [
              -69.6166,
              -0.4997
            ],
            [
              -69.6426,
              -0.4907
            ],
            [
              -69.6423,
              -0.4802
            ],
            [
              -69.655,
              -0.4716
            ],
            [
              -69.6826,
              -0.4638
            ],
            [
              -69.6973,
              -0.4521
            ],
            [
              -69.7092,
              -0.4544
            ],
            [
              -69.7384,
              -0.4355
            ],
            [
              -69.7445,
              -0.4201
            ],
            [
              -69.7536,
              -0.409
            ],
            [
              -69.7735,
              -0.3929
            ],
            [
              -69.7859,
              -0.3945
            ],
            [
              -69.8157,
              -0.3722
            ],
            [
              -69.829,
              -0.3739
            ],
            [
              -69.8295,
              -0.3629
            ],
            [
              -69.8441,
              -0.3382
            ],
            [
              -69.8679,
              -0.3403
            ],
            [
              -69.8868,
              -0.3357
            ],
            [
              -69.9017,
              -0.3375
            ],
            [
              -69.9207,
              -0.3256
            ],
            [
              -69.9355,
              -0.305
            ],
            [
              -69.9384,
              -0.2931
            ],
            [
              -69.9478,
              -0.2916
            ],
            [
              -69.9549,
              -0.2767
            ],
            [
              -69.9696,
              -0.2687
            ],
            [
              -69.9842,
              -0.2449
            ],
            [
              -69.9931,
              -0.2412
            ],
            [
              -69.9969,
              -0.2265
            ],
            [
              -70.034,
              -0.1981
            ],
            [
              -70.0533,
              -0.1892
            ],
            [
              -70.0652,
              -0.1645
            ],
            [
              -70.0509,
              -0.1452
            ],
            [
              -70.0428,
              -0.1212
            ],
            [
              -70.0467,
              -0.1162
            ],
            [
              -70.0617,
              -0.1222
            ],
            [
              -70.0735,
              -0.1338
            ],
            [
              -70.0977,
              -0.1503
            ],
            [
              -70.0955,
              -0.173
            ],
            [
              -70.104,
              -0.1947
            ],
            [
              -70.1174,
              -0.2066
            ],
            [
              -70.1386,
              -0.2098
            ],
            [
              -70.1509,
              -0.2229
            ],
            [
              -70.1762,
              -0.2214
            ],
            [
              -70.1847,
              -0.2347
            ],
            [
              -70.1761,
              -0.2459
            ],
            [
              -70.1492,
              -0.2498
            ],
            [
              -70.1414,
              -0.2551
            ],
            [
              -70.1291,
              -0.2897
            ],
            [
              -70.1396,
              -0.305
            ],
            [
              -70.1602,
              -0.3153
            ],
            [
              -70.1658,
              -0.31
            ],
            [
              -70.1865,
              -0.3178
            ],
            [
              -70.1903,
              -0.3253
            ],
            [
              -70.2106,
              -0.3394
            ],
            [
              -70.2177,
              -0.3337
            ],
            [
              -70.2133,
              -0.319
            ],
            [
              -70.2256,
              -0.3113
            ],
            [
              -70.2387,
              -0.3123
            ],
            [
              -70.2405,
              -0.336
            ],
            [
              -70.2353,
              -0.3434
            ],
            [
              -70.2578,
              -0.365
            ],
            [
              -70.2507,
              -0.3774
            ],
            [
              -70.2241,
              -0.3699
            ],
            [
              -70.2218,
              -0.3595
            ],
            [
              -70.2064,
              -0.3706
            ],
            [
              -70.196,
              -0.3675
            ],
            [
              -70.2028,
              -0.3942
            ],
            [
              -70.2264,
              -0.3949
            ],
            [
              -70.2373,
              -0.4072
            ],
            [
              -70.2392,
              -0.4286
            ],
            [
              -70.2551,
              -0.4334
            ],
            [
              -70.2409,
              -0.4457
            ],
            [
              -70.223,
              -0.4358
            ],
            [
              -70.2098,
              -0.4421
            ],
            [
              -70.2007,
              -0.4568
            ],
            [
              -70.2001,
              -0.4691
            ],
            [
              -70.2087,
              -0.4776
            ],
            [
              -70.2318,
              -0.4681
            ],
            [
              -70.2449,
              -0.4702
            ],
            [
              -70.2571,
              -0.4918
            ],
            [
              -70.2919,
              -0.5124
            ],
            [
              -70.3199,
              -0.5495
            ],
            [
              -70.3262,
              -0.5705
            ],
            [
              -70.324,
              -0.5811
            ],
            [
              -70.3103,
              -0.5903
            ],
            [
              -70.3008,
              -0.5818
            ],
            [
              -70.3023,
              -0.5636
            ],
            [
              -70.2964,
              -0.5567
            ],
            [
              -70.2813,
              -0.5588
            ],
            [
              -70.2666,
              -0.5775
            ],
            [
              -70.256,
              -0.6033
            ],
            [
              -70.2604,
              -0.6167
            ],
            [
              -70.2548,
              -0.6264
            ],
            [
              -70.2563,
              -0.6459
            ],
            [
              -70.2607,
              -0.6528
            ],
            [
              -70.2524,
              -0.6718
            ],
            [
              -70.2606,
              -0.697
            ],
            [
              -70.2618,
              -0.7134
            ],
            [
              -70.2495,
              -0.7314
            ],
            [
              -70.2579,
              -0.7474
            ],
            [
              -70.2783,
              -0.7451
            ],
            [
              -70.2902,
              -0.7525
            ],
            [
              -70.2949,
              -0.765
            ],
            [
              -70.2972,
              -0.7861
            ],
            [
              -70.2906,
              -0.8079
            ],
            [
              -70.2781,
              -0.8198
            ],
            [
              -70.2626,
              -0.8287
            ],
            [
              -70.2524,
              -0.8398
            ],
            [
              -70.2353,
              -0.8699
            ],
            [
              -70.2239,
              -0.8798
            ],
            [
              -70.2248,
              -0.8953
            ],
            [
              -70.2439,
              -0.9053
            ],
            [
              -70.253,
              -0.914
            ],
            [
              -70.2606,
              -0.938
            ],
            [
              -70.27,
              -0.9399
            ],
            [
              -70.2833,
              -0.934
            ],
            [
              -70.2959,
              -0.9365
            ],
            [
              -70.307,
              -0.9619
            ],
            [
              -70.3025,
              -0.9778
            ],
            [
              -70.2858,
              -0.9977
            ],
            [
              -70.267,
              -1.0147
            ],
            [
              -70.2548,
              -1.0204
            ],
            [
              -70.2386,
              -1.0202
            ],
            [
              -70.2305,
              -1.0122
            ],
            [
              -70.2283,
              -0.9989
            ],
            [
              -70.2199,
              -0.9853
            ],
            [
              -70.2045,
              -0.9821
            ],
            [
              -70.1945,
              -0.9911
            ],
            [
              -70.2006,
              -1.0105
            ],
            [
              -70.2171,
              -1.0236
            ],
            [
              -70.2273,
              -1.0378
            ],
            [
              -70.2275,
              -1.0502
            ],
            [
              -70.2177,
              -1.0649
            ],
            [
              -70.197,
              -1.0723
            ],
            [
              -70.1772,
              -1.0753
            ],
            [
              -70.178,
              -1.0999
            ],
            [
              -70.1695,
              -1.1123
            ],
            [
              -70.1498,
              -1.117
            ],
            [
              -70.1267,
              -1.1096
            ],
            [
              -70.1133,
              -1.0781
            ],
            [
              -70.0852,
              -1.0481
            ],
            [
              -70.0786,
              -1.0325
            ],
            [
              -70.0828,
              -1.0163
            ],
            [
              -70.1012,
              -1.0102
            ],
            [
              -70.1219,
              -1.0209
            ],
            [
              -70.1317,
              -1.0193
            ],
            [
              -70.14,
              -0.9992
            ],
            [
              -70.1226,
              -0.9728
            ],
            [
              -70.1007,
              -0.953
            ],
            [
              -70.08,
              -0.9469
            ],
            [
              -70.0703,
              -0.9498
            ],
            [
              -70.0537,
              -0.9723
            ],
            [
              -70.0404,
              -0.9809
            ],
            [
              -70.0298,
              -0.9784
            ],
            [
              -70.0227,
              -0.9674
            ],
            [
              -70.0263,
              -0.9486
            ],
            [
              -70.0236,
              -0.9393
            ],
            [
              -70.0096,
              -0.9381
            ],
            [
              -70.0007,
              -0.9501
            ],
            [
              -70.0078,
              -0.9617
            ],
            [
              -70.0015,
              -0.975
            ],
            [
              -69.9882,
              -0.9765
            ],
            [
              -69.9602,
              -0.9686
            ],
            [
              -69.9419,
              -0.9466
            ],
            [
              -69.9331,
              -0.9487
            ],
            [
              -69.9082,
              -0.9637
            ],
            [
              -69.9061,
              -0.9802
            ],
            [
              -69.9205,
              -0.9728
            ],
            [
              -69.9532,
              -0.9938
            ],
            [
              -69.9537,
              -1.0083
            ],
            [
              -69.9428,
              -1.0225
            ],
            [
              -69.944,
              -1.0395
            ],
            [
              -69.9591,
              -1.0494
            ],
            [
              -69.971,
              -1.0687
            ],
            [
              -69.9639,
              -1.091
            ],
            [
              -69.9466,
              -1.0976
            ],
            [
              -69.9365,
              -1.0959
            ],
            [
              -69.9145,
              -1.0823
            ],
            [
              -69.889,
              -1.0812
            ],
            [
              -69.8693,
              -1.0736
            ],
            [
              -69.8534,
              -1.0388
            ],
            [
              -69.8398,
              -1.0285
            ],
            [
              -69.8218,
              -1.0289
            ],
            [
              -69.8148,
              -1.0355
            ],
            [
              -69.7923,
              -1.0745
            ],
            [
              -69.7829,
              -1.0877
            ],
            [
              -69.7566,
              -1.0989
            ],
            [
              -69.7404,
              -1.0955
            ],
            [
              -69.7342,
              -1.0868
            ],
            [
              -69.7397,
              -1.0771
            ],
            [
              -69.754,
              -1.0761
            ],
            [
              -69.7644,
              -1.0644
            ],
            [
              -69.7724,
              -1.0367
            ],
            [
              -69.7495,
              -1.0276
            ],
            [
              -69.7352,
              -1.0427
            ],
            [
              -69.7239,
              -1.0385
            ],
            [
              -69.7047,
              -1.0478
            ],
            [
              -69.6803,
              -1.084
            ],
            [
              -69.6497,
              -1.1158
            ],
            [
              -69.6799,
              -1.1181
            ],
            [
              -69.6779,
              -1.1505
            ],
            [
              -69.6814,
              -1.1894
            ],
            [
              -69.68,
              -1.2028
            ],
            [
              -69.6722,
              -1.22
            ],
            [
              -69.6589,
              -1.2277
            ],
            [
              -69.6471,
              -1.2252
            ],
            [
              -69.6371,
              -1.2119
            ],
            [
              -69.6347,
              -1.1975
            ],
            [
              -69.6373,
              -1.1744
            ],
            [
              -69.6304,
              -1.1649
            ],
            [
              -69.6191,
              -1.1644
            ],
            [
              -69.592,
              -1.1459
            ],
            [
              -69.5778,
              -1.1553
            ],
            [
              -69.5665,
              -1.1912
            ],
            [
              -69.5617,
              -1.1946
            ],
            [
              -69.539,
              -1.1919
            ],
            [
              -69.5087,
              -1.2165
            ],
            [
              -69.4815,
              -1.2138
            ],
            [
              -69.4678,
              -1.1998
            ],
            [
              -69.4662,
              -1.1713
            ],
            [
              -69.4757,
              -1.1588
            ],
            [
              -69.4876,
              -1.1552
            ],
            [
              -69.4833,
              -1.1452
            ],
            [
              -69.4623,
              -1.1418
            ],
            [
              -69.4597,
              -1.1264
            ],
            [
              -69.4679,
              -1.1105
            ],
            [
              -69.4707,
              -1.0934
            ],
            [
              -69.4626,
              -1.0776
            ],
            [
              -69.4521,
              -1.0708
            ],
            [
              -69.433,
              -1.0695
            ]
          ]
        ]
      },
      "properties": {
        "OBJECTID": 1115,
        "DPTO_CCDGO": "68",
        "MPIO_CCDGO": "666",
        "name": "68017",
        "MPIO_CRSLC": "Ordenanza 22 del 27 de Noviembre de 1992",
        "MPIO_NANO_": 1993,
        "MPIO_NAREA": 6447.96215841,
        "MPIO_CSMBL": "4",
        "MPIO_CCNCT": "97666",
        "MPIO_NANO": 2012,
        "SHAPE_Leng": 6.067297535,
        "SHAPE_Area": 0.523653646642,
        "NOMBRE": "TARAIRA",
        "DANE": {
          "dpto_ccdgo": "97",
          "mpio_ccdgo": "666",
          "mpio_cdpmp": "97666",
          "dpto_cnmbr": "VAUPÉS",
          "mpio_cnmbr": "TARAIRA",
          "mpio_crslc": "Ordenanza 22 del 27 de Noviembre de 1992",
          "mpio_tipo": "MUNICIPIO",
          "mpio_narea": 6510.24656108,
          "mpio_nano": 2024,
          "shape_Leng": 6.71058199142,
          "shape_Area": 0.526120880894
        }
      }
    },
    {
      "type": "Feature",
      "geometry": {
        "type": "Polygon",
        "coordinates": [
          [
            [
              -70.1096,
              2.0801
            ],
            [
              -70.1306,
              2.0687
            ],
            [
              -70.1481,
              2.0702
            ],
            [
              -70.1598,
              2.0611
            ],
            [
              -70.1628,
              2.0459
            ],
            [
              -70.1709,
              2.0464
            ],
            [
              -70.1804,
              2.0252
            ],
            [
              -70.193,
              2.0256
            ],
            [
              -70.2156,
              2.0207
            ],
            [
              -70.2296,
              2.0343
            ],
            [
              -70.2607,
              2.0141
            ],
            [
              -70.2991,
              2.0159
            ],
            [
              -70.3182,
              2.0107
            ],
            [
              -70.3247,
              1.9976
            ],
            [
              -70.3358,
              1.9957
            ],
            [
              -70.3508,
              1.9833
            ],
            [
              -70.3637,
              1.985
            ],
            [
              -70.3681,
              2.0036
            ],
            [
              -70.3785,
              2.0046
            ],
            [
              -70.3901,
              1.9861
            ],
            [
              -70.3987,
              1.9989
            ],
            [
              -70.4146,
              1.9867
            ],
            [
              -70.4413,
              1.9945
            ],
            [
              -70.4412,
              1.9873
            ],
            [
              -70.466,
              1.9823
            ],
            [
              -70.4685,
              1.9684
            ],
            [
              -70.4859,
              1.9623
            ],
            [
              -70.4865,
              1.949
            ],
            [
              -70.5001,
              1.9498
            ],
            [
              -70.5138,
              1.9568
            ],
            [
              -70.5363,
              1.9539
            ],
            [
              -70.55,
              1.9379
            ],
            [
              -70.566,
              1.9327
            ],
            [
              -70.5908,
              1.9387
            ],
            [
              -70.6021,
              1.9269
            ],
            [
              -70.6228,
              1.9284
            ],
            [
              -70.6345,
              1.9187
            ],
            [
              -70.6352,
              1.904
            ],
            [
              -70.647,
              1.9045
            ],
            [
              -70.656,
              1.9121
            ],
            [
              -70.6901,
              1.8979
            ],
            [
              -70.7218,
              1.9193
            ],
            [
              -70.7434,
              1.9221
            ],
            [
              -70.748,
              1.9127
            ],
            [
              -70.7604,
              1.9101
            ],
            [
              -70.7701,
              1.9276
            ],
            [
              -70.781,
              1.9121
            ],
            [
              -70.7965,
              1.917
            ],
            [
              -70.8196,
              1.9089
            ],
            [
              -70.8321,
              1.9105
            ],
            [
              -70.8476,
              1.9204
            ],
            [
              -70.8666,
              1.9089
            ],
            [
              -70.8698,
              1.9203
            ],
            [
              -70.89,
              1.9223
            ],
            [
              -70.9028,
              1.8881
            ],
            [
              -70.9176,
              1.8853
            ],
            [
              -70.929,
              1.8726
            ],
            [
              -70.9646,
              1.8406
            ],
            [
              -70.9793,
              1.8407
            ],
            [
              -70.9867,
              1.825
            ],
            [
              -71.0053,
              1.8245
            ],
            [
              -71.0136,
              1.8144
            ],
            [
              -71.0369,
              1.8114
            ],
            [
              -71.0527,
              1.8026
            ],
            [
              -71.068,
              1.8054
            ],
            [
              -71.082,
              1.7979
            ],
            [
              -71.0972,
              1.7835
            ],
            [
              -71.1258,
              1.7831
            ],
            [
              -71.1279,
              1.7714
            ],
            [
              -71.1438,
              1.7604
            ],
            [
              -71.1654,
              1.7554
            ],
            [
              -71.1986,
              1.7271
            ],
            [
              -71.1982,
              1.7228
            ],
            [
              -71.2148,
              1.7027
            ],
            [
              -71.2385,
              1.6849
            ],
            [
              -71.2461,
              1.6722
            ],
            [
              -71.2536,
              1.6707
            ],
            [
              -71.2476,
              1.6539
            ],
            [
              -71.2574,
              1.6378
            ],
            [
              -71.2592,
              1.6163
            ],
            [
              -71.1441,
              1.4201
            ],
            [
              -71.0774,
              1.3063
            ],
            [
              -70.9939,
              1.1534
            ],
            [
              -70.8434,
              1.3406
            ],
            [
              -70.7485,
              1.4501
            ],
            [
              -70.566,
              1.6608
            ],
            [
              -70.4539,
              1.7902
            ],
            [
              -70.4262,
              1.7847
            ],
            [
              -70.423,
              1.7732
            ],
            [
              -70.3776,
              1.7588
            ],
            [
              -70.3664,
              1.7533
            ],
            [
              -70.3477,
              1.7532
            ],
            [
              -70.339,
              1.7572
            ],
            [
              -70.3279,
              1.751
            ],
            [
              -70.2956,
              1.7505
            ],
            [
              -70.2898,
              1.7545
            ],
            [
              -70.2739,
              1.7501
            ],
            [
              -70.2629,
              1.7278
            ],
            [
              -70.246,
              1.7206
            ],
            [
              -70.2149,
              1.7149
            ],
            [
              -70.1954,
              1.7038
            ],
            [
              -70.184,
              1.7014
            ],
            [
              -70.165,
              1.6837
            ],
            [
              -70.1409,
              1.6724
            ],
            [
              -70.1292,
              1.6588
            ],
            [
              -70.1183,
              1.6599
            ],
            [
              -70.1067,
              1.6539
            ],
            [
              -70.0851,
              1.6512
            ],
            [
              -70.0662,
              1.6552
            ],
            [
              -70.0471,
              1.6547
            ],
            [
              -70.0322,
              1.6653
            ],
            [
              -70.0025,
              1.6643
            ],
            [
              -69.9933,
              1.6574
            ],
            [
              -69.964,
              1.6649
            ],
            [
              -69.9497,
              1.6641
            ],
            [
              -69.9107,
              1.6899
            ],
            [
              -69.902,
              1.6862
            ],
            [
              -69.8831,
              1.6926
            ],
            [
              -69.8748,
              1.7157
            ],
            [
              -69.8693,
              1.7185
            ],
            [
              -69.8751,
              1.7288
            ],
            [
              -69.8837,
              1.7277
            ],
            [
              -69.9023,
              1.7427
            ],
            [
              -69.9161,
              1.7483
            ],
            [
              -69.9384,
              1.7456
            ],
            [
              -69.9651,
              1.7465
            ],
            [
              -69.994,
              1.7523
            ],
            [
              -70.0053,
              1.7629
            ],
            [
              -70.0162,
              1.7609
            ],
            [
              -70.0258,
              1.7675
            ],
            [
              -70.0546,
              1.7765
            ],
            [
              -70.0708,
              1.8007
            ],
            [
              -70.0803,
              1.8004
            ],
            [
              -70.0947,
              1.8113
            ],
            [
              -70.1143,
              1.8362
            ],
            [
              -70.1225,
              1.8371
            ],
            [
              -70.1487,
              1.8673
            ],
            [
              -70.1756,
              1.8701
            ],
            [
              -70.1804,
              1.8854
            ],
            [
              -70.1751,
              1.9036
            ],
            [
              -70.1633,
              1.92
            ],
            [
              -70.1656,
              1.9338
            ],
            [
              -70.1585,
              1.9436
            ],
            [
              -70.1427,
              1.9506
            ],
            [
              -70.1374,
              1.9645
            ],
            [
              -70.1407,
              1.9798
            ],
            [
              -70.1151,
              1.9992
            ],
            [
              -70.1133,
              2.0142
            ],
            [
              -70.1218,
              2.0318
            ],
            [
              -70.1191,
              2.0592
            ],
            [
              -70.1096,
              2.0801
            ]
          ]
        ]
      },
      "properties": {
        "OBJECTID": 1116,
        "DPTO_CCDGO": "68",
        "MPIO_CCDGO": "777",
        "name": "68010",
        "MPIO_CRSLC": "1977",
        "MPIO_NANO_": 1993,
        "MPIO_NAREA": 5305.79307669,
        "MPIO_CSMBL": "4",
        "MPIO_CCNCT": "97777",
        "MPIO_NANO": 2012,
        "SHAPE_Leng": 5.43269923143,
        "SHAPE_Area": 0.431200281068,
        "NOMBRE": "MORICHAL (PAPUNAGUA)",
        "DANE": {
          "dpto_ccdgo": "97",
          "mpio_ccdgo": "777",
          "mpio_cdpmp": "97777",
          "dpto_cnmbr": "VAUPÉS",
          "mpio_cnmbr": "PAPUNAHUA",
          "mpio_crslc": "1977",
          "mpio_tipo": "ÁREA NO MUNICIPALIZADA",
          "mpio_narea": 5551.15354819,
          "mpio_nano": 2024,
          "shape_Leng": 5.42825221683,
          "shape_Area": 0.449587208453
        }
      }
    },
    {
      "type": "Feature",
      "geometry": {
        "type": "Polygon",
        "coordinates": [
          [
            [
              -70.0386,
              0.5664
            ],
            [
              -70.026,
              0.5618
            ],
            [
              -70.0184,
              0.5441
            ],
            [
              -69.9956,
              0.5505
            ],
            [
              -69.9885,
              0.5753
            ],
            [
              -69.9787,
              0.578
            ],
            [
              -69.964,
              0.5714
            ],
            [
              -69.9559,
              0.5616
            ],
            [
              -69.9356,
              0.5531
            ],
            [
              -69.9297,
              0.5643
            ],
            [
              -69.9199,
              0.5703
            ],
            [
              -69.9155,
              0.5898
            ],
            [
              -69.9029,
              0.5808
            ],
            [
              -69.8872,
              0.5771
            ],
            [
              -69.8522,
              0.5876
            ],
            [
              -69.8392,
              0.585
            ],
            [
              -69.833,
              0.591
            ],
            [
              -69.8147,
              0.5868
            ],
            [
              -69.8065,
              0.5733
            ],
            [
              -69.7883,
              0.5857
            ],
            [
              -69.7775,
              0.5972
            ],
            [
              -69.7512,
              0.6152
            ],
            [
              -69.738,
              0.6091
            ],
            [
              -69.7232,
              0.6157
            ],
            [
              -69.7158,
              0.634
            ],
            [
              -69.7043,
              0.6515
            ],
            [
              -69.6869,
              0.6556
            ],
            [
              -69.6879,
              0.6639
            ],
            [
              -69.6504,
              0.6643
            ],
            [
              -69.6337,
              0.6361
            ],
            [
              -69.6207,
              0.6343
            ],
            [
              -69.6088,
              0.6137
            ],
            [
              -69.6045,
              0.6364
            ],
            [
              -69.5904,
              0.6378
            ],
            [
              -69.5926,
              0.6568
            ],
            [
              -69.5806,
              0.6615
            ],
            [
              -69.5585,
              0.6814
            ],
            [
              -69.5357,
              0.6795
            ],
            [
              -69.5332,
              0.701
            ],
            [
              -69.4996,
              0.7241
            ],
            [
              -69.4891,
              0.7262
            ],
            [
              -69.4817,
              0.7353
            ],
            [
              -69.4638,
              0.7365
            ],
            [
              -69.4538,
              0.7175
            ],
            [
              -69.4339,
              0.7126
            ],
            [
              -69.4369,
              0.7006
            ],
            [
              -69.431,
              0.6933
            ],
            [
              -69.4158,
              0.6885
            ],
            [
              -69.4038,
              0.6638
            ],
            [
              -69.3703,
              0.6357
            ],
            [
              -69.3578,
              0.6174
            ],
            [
              -69.3457,
              0.626
            ],
            [
              -69.3323,
              0.643
            ],
            [
              -69.3185,
              0.632
            ],
            [
              -69.2983,
              0.6493
            ],
            [
              -69.2906,
              0.6379
            ],
            [
              -69.2849,
              0.6188
            ],
            [
              -69.2934,
              0.6108
            ],
            [
              -69.2723,
              0.6019
            ],
            [
              -69.2443,
              0.6099
            ],
            [
              -69.2351,
              0.5996
            ],
            [
              -69.2118,
              0.6107
            ],
            [
              -69.2012,
              0.6099
            ],
            [
              -69.2039,
              0.6333
            ],
            [
              -69.1968,
              0.6474
            ],
            [
              -69.1833,
              0.6543
            ],
            [
              -69.1711,
              0.6481
            ],
            [
              -69.1611,
              0.6529
            ],
            [
              -69.1473,
              0.6442
            ],
            [
              -69.1347,
              0.6452
            ],
            [
              -69.1246,
              0.6333
            ],
            [
              -69.1156,
              0.6442
            ],
            [
              -69.1183,
              0.6549
            ],
            [
              -69.1285,
              0.6656
            ],
            [
              -69.1403,
              0.6896
            ],
            [
              -69.1619,
              0.7131
            ],
            [
              -69.1811,
              0.716
            ],
            [
              -69.1878,
              0.7333
            ],
            [
              -69.188,
              0.746
            ],
            [
              -69.1738,
              0.7601
            ],
            [
              -69.1617,
              0.7562
            ],
            [
              -69.1487,
              0.7669
            ],
            [
              -69.1473,
              0.78
            ],
            [
              -69.1533,
              0.8035
            ],
            [
              -69.1678,
              0.8207
            ],
            [
              -69.1674,
              0.8437
            ],
            [
              -69.1566,
              0.8502
            ],
            [
              -69.1397,
              0.8516
            ],
            [
              -69.1357,
              0.8695
            ],
            [
              -69.1401,
              0.8837
            ],
            [
              -69.1548,
              0.8811
            ],
            [
              -69.1817,
              0.9028
            ],
            [
              -69.1914,
              0.9167
            ],
            [
              -69.1915,
              0.9281
            ],
            [
              -69.182,
              0.9367
            ],
            [
              -69.1692,
              0.9349
            ],
            [
              -69.172,
              0.9502
            ],
            [
              -69.2062,
              0.9641
            ],
            [
              -69.2176,
              0.9806
            ],
            [
              -69.1988,
              0.9964
            ],
            [
              -69.2109,
              1.0167
            ],
            [
              -69.2446,
              1.0449
            ],
            [
              -69.2475,
              1.0572
            ],
            [
              -69.2597,
              1.0541
            ],
            [
              -69.2884,
              1.0542
            ],
            [
              -69.3062,
              1.075
            ],
            [
              -69.3212,
              1.0881
            ],
            [
              -69.3346,
              1.0818
            ],
            [
              -69.3451,
              1.0847
            ],
            [
              -69.3558,
              1.0793
            ],
            [
              -69.378,
              1.0867
            ],
            [
              -69.3812,
              1.0746
            ],
            [
              -69.3989,
              1.0607
            ],
            [
              -69.4124,
              1.0413
            ],
            [
              -69.4317,
              1.0499
            ],
            [
              -69.4345,
              1.0724
            ],
            [
              -69.4605,
              1.0772
            ],
            [
              -69.4761,
              1.0754
            ],
            [
              -69.4855,
              1.0797
            ],
            [
              -69.5191,
              1.0721
            ],
            [
              -69.5742,
              1.0745
            ],
            [
              -69.5921,
              1.0904
            ],
            [
              -69.6052,
              1.0979
            ],
            [
              -69.6185,
              1.0974
            ],
            [
              -69.6334,
              1.0855
            ],
            [
              -69.645,
              1.0897
            ],
            [
              -69.6682,
              1.0812
            ],
            [
              -69.6794,
              1.0702
            ],
            [
              -69.7036,
              1.0764
            ],
            [
              -69.7055,
              1.0981
            ],
            [
              -69.7003,
              1.1168
            ],
            [
              -69.708,
              1.1188
            ],
            [
              -69.7225,
              1.1083
            ],
            [
              -69.7447,
              1.1137
            ],
            [
              -69.7736,
              1.1006
            ],
            [
              -69.7912,
              1.0878
            ],
            [
              -69.8038,
              1.0653
            ],
            [
              -69.8152,
              1.0647
            ],
            [
              -69.8558,
              1.0299
            ],
            [
              -69.8797,
              1.0212
            ],
            [
              -69.8889,
              1.008
            ],
            [
              -69.8875,
              1
            ],
            [
              -69.8958,
              0.9884
            ],
            [
              -69.9042,
              0.9888
            ],
            [
              -69.9143,
              0.9993
            ],
            [
              -69.9233,
              0.9994
            ],
            [
              -69.933,
              0.9793
            ],
            [
              -69.9462,
              0.9735
            ],
            [
              -69.9575,
              0.9592
            ],
            [
              -69.9581,
              0.9216
            ],
            [
              -69.9619,
              0.911
            ],
            [
              -69.9747,
              0.9183
            ],
            [
              -69.9831,
              0.8968
            ],
            [
              -69.9783,
              0.8698
            ],
            [
              -69.9703,
              0.8534
            ],
            [
              -69.9826,
              0.8477
            ],
            [
              -70.0144,
              0.8644
            ],
            [
              -70.0352,
              0.8596
            ],
            [
              -70.0536,
              0.8666
            ],
            [
              -70.0775,
              0.8616
            ],
            [
              -70.0867,
              0.8537
            ],
            [
              -70.0868,
              0.8435
            ],
            [
              -70.1068,
              0.8292
            ],
            [
              -70.1164,
              0.8269
            ],
            [
              -70.1319,
              0.8432
            ],
            [
              -70.1373,
              0.8625
            ],
            [
              -70.1497,
              0.8678
            ],
            [
              -70.1041,
              0.7439
            ],
            [
              -70.0386,
              0.5664
            ]
          ]
        ]
      },
      "properties": {
        "OBJECTID": 1117,
        "DPTO_CCDGO": "68",
        "MPIO_CCDGO": "889",
        "name": "68022",
        "MPIO_CRSLC": "Decreto Nacional 1510 del 29 de Diciembre de 1914",
        "MPIO_NANO_": 1993,
        "MPIO_NAREA": 4671.68154166,
        "MPIO_CSMBL": "4",
        "MPIO_CCNCT": "97889",
        "MPIO_NANO": 2012,
        "SHAPE_Leng": 3.76405955881,
        "SHAPE_Area": 0.379314582626,
        "NOMBRE": "YAVARATE",
        "DANE": {
          "dpto_ccdgo": "97",
          "mpio_ccdgo": "889",
          "mpio_cdpmp": "97889",
          "dpto_cnmbr": "VAUPÉS",
          "mpio_cnmbr": "YAVARATÉ",
          "mpio_crslc": "Decreto Nacional 1510 del 29 de Diciembre de 1914",
          "mpio_tipo": "ÁREA NO MUNICIPALIZADA",
          "mpio_narea": 4660.40564989,
          "mpio_nano": 2024,
          "shape_Leng": 3.9700458574,
          "shape_Area": 0.376343838701
        }
      }
    }
  ],
  "name": "68"
}